{"version": 0.6, "generator": "Overpass API 0.7.62.8 e802775f", "osm3s": {"timestamp_osm_base": "2025-09-29T19:12:01Z", "copyright": "The data included in this document is from www.openstreetmap.org. The data is made available under ODbL."}, "elements": [{"type": "node", "id": 321420756, "lat": 11.0415163, "lon": 76.9826001, "tags": {"amenity": "bank", "brand": "Karur Vysya Bank", "brand:wikidata": "Q6373724", "brand:wikipedia": "en:Karur Vysya Bank", "name": "Karur Vysya Bank", "name:en": "Karur Vysya Bank", "short_name": "KVB", "website": "https://www.kvb.co.in"}}, {"type": "node", "id": 321420801, "lat": 11.0113022, "lon": 76.9667545, "tags": {"amenity": "bank", "brand": "Punjab National Bank", "brand:wikidata": "Q2743499", "brand:wikipedia": "en:Punjab National Bank", "name": "Punjab National Bank", "name:en": "Punjab National Bank", "short_name": "PNB", "website": "https://www.pnbindia.in"}}, {"type": "node", "id": 321420807, "lat": 11.0112887, "lon": 76.9672054, "tags": {"amenity": "bank", "brand": "Punjab National Bank", "brand:wikidata": "Q2743499", "brand:wikipedia": "en:Punjab National Bank", "name": "Punjab National Bank", "name:en": "Punjab National Bank", "operator": "t", "short_name": "PNB", "website": "https://www.pnbindia.in"}}, {"type": "node", "id": 337586474, "lat": 10.9950498, "lon": 76.9710202, "tags": {"amenity": "bank", "brand": "HDFC Bank", "brand:wikidata": "Q631047", "brand:wikipedia": "en:HDFC Bank", "name": "HDFC Bank", "short_name": "HDFC", "website": "https://www.hdfcbank.com"}}, {"type": "node", "id": 337586486, "lat": 10.9950806, "lon": 76.9711401, "tags": {"amenity": "atm", "brand": "HDFC Bank", "brand:en": "HDFC Bank", "brand:wikidata": "Q631047", "brand:wikipedia": "en:HDFC Bank", "currency:INR": "yes", "drive_through": "no", "indoor": "yes", "name": "HDFC Bank", "note": "Contributors are requested to not edit the \"brand\", \"brand:en\", \"brand:wikidata\", \"operator\", \"operator:en\" and \"operator:wikidata\" tags. (2025/03/03)", "opening_hours": "24/7", "operator": "HDFC Bank", "operator:en": "HDFC Bank", "operator:wikidata": "Q631047", "operator:wikipedia": "en:HDFC Bank", "short_name": "HDFC"}}, {"type": "node", "id": 337600020, "lat": 11.0113377, "lon": 76.9654687, "tags": {"amenity": "bank", "brand": "Indian Bank", "brand:wikidata": "Q2003789", "brand:wikipedia": "en:Indian Bank", "name": "Indian Bank", "name:en": "Indian Bank", "website": "https://www.indianbank.in/"}}, {"type": "node", "id": 472267689, "lat": 11.0012615, "lon": 77.0323044, "tags": {"amenity": "atm"}}, {"type": "node", "id": 472267695, "lat": 10.9961974, "lon": 77.0055029, "tags": {"amenity": "bank", "building": "yes", "name": "Coimbature Stock Exchange"}}, {"type": "node", "id": 472267696, "lat": 10.9969355, "lon": 77.0007315, "tags": {"amenity": "atm", "brand": "State Bank of India", "brand:en": "State Bank of India", "brand:wikidata": "Q1340361", "brand:wikipedia": "en:State Bank of India", "currency:INR": "yes", "drive_through": "no", "indoor": "yes", "name": "State Bank of India", "note": "Contributors are requested to not edit the \"brand\", \"brand:en\", \"brand:wikidata\", \"operator\", \"operator:en\" and \"operator:wikidata\" tags. (2025/03/03)", "opening_hours": "24/7", "operator": "State Bank of India", "operator:en": "State Bank of India", "operator:wikidata": "Q1340361", "operator:wikipedia": "en:State Bank of India", "short_name": "SBI"}}, {"type": "node", "id": 472267698, "lat": 10.9980044, "lon": 76.9872444, "tags": {"amenity": "atm"}}, {"type": "node", "id": 472267699, "lat": 10.998095, "lon": 76.9834532, "tags": {"amenity": "atm"}}, {"type": "node", "id": 619724588, "lat": 10.9968852, "lon": 76.9961928, "tags": {"amenity": "atm"}}, {"type": "node", "id": 619724601, "lat": 11.021151, "lon": 76.9943348, "tags": {"amenity": "atm"}}, {"type": "node", "id": 619724602, "lat": 11.0242576, "lon": 77.006414, "tags": {"amenity": "atm"}}, {"type": "node", "id": 619724610, "lat": 11.0256161, "lon": 77.0163456, "tags": {"amenity": "atm"}}, {"type": "node", "id": 728342534, "lat": 11.0129816, "lon": 76.9858831, "tags": {"amenity": "atm", "brand": "State Bank of India", "brand:en": "State Bank of India", "brand:wikidata": "Q1340361", "brand:wikipedia": "en:State Bank of India", "currency:INR": "yes", "drive_through": "no", "indoor": "yes", "name": "State Bank of India", "note": "Contributors are requested to not edit the \"brand\", \"brand:en\", \"brand:wikidata\", \"operator\", \"operator:en\" and \"operator:wikidata\" tags. (2025/03/03)", "opening_hours": "24/7", "operator": "State Bank of India", "operator:en": "State Bank of India", "operator:wikidata": "Q1340361", "operator:wikipedia": "en:State Bank of India", "short_name": "SBI"}}, {"type": "node", "id": 729610889, "lat": 11.0414867, "lon": 76.9826814, "tags": {"amenity": "atm", "operator": "Karur Visya Bank"}}, {"type": "node", "id": 729617491, "lat": 11.0409388, "lon": 76.9823079, "tags": {"amenity": "bank", "brand": "Indian Bank", "brand:wikidata": "Q2003789", "name": "Indian Bank", "operator": "Indian Bank"}}, {"type": "node", "id": 729617687, "lat": 11.0409322, "lon": 76.9823368, "tags": {"amenity": "atm", "brand": "Indian Bank", "brand:wikidata": "Q2003789", "operator": "Indian Bank", "operator:wikidata": "Q2003789"}}, {"type": "node", "id": 729657841, "lat": 11.0404877, "lon": 76.9817062, "tags": {"amenity": "bank", "brand": "South Indian Bank", "brand:wikidata": "Q2044973", "name": "South Indian Bank", "operator": "South Indian Bank"}}, {"type": "node", "id": 803271951, "lat": 10.9978634, "lon": 76.9675763, "tags": {"amenity": "bank", "brand": "State Bank of India", "brand:wikidata": "Q1340361", "brand:wikipedia": "en:State Bank of India", "name": "State Bank of India", "short_name": "SBI"}}, {"type": "node", "id": 803272040, "lat": 10.995267, "lon": 76.9685972, "tags": {"amenity": "bank", "brand": "Bank of Baroda", "brand:wikidata": "Q2003797", "brand:wikipedia": "en:Bank of Baroda", "name": "Bank of Baroda", "name:en": "Bank of Baroda", "short_name": "BoB", "website": "http://www.bankofbaroda.com"}}, {"type": "node", "id": 838919294, "lat": 10.9953806, "lon": 76.9754253, "tags": {"amenity": "atm", "brand": "Indian Overseas Bank", "brand:wikidata": "Q2003611", "operator": "Indian Overseas Bank", "operator:wikidata": "Q2003611"}}, {"type": "node", "id": 1037061468, "lat": 11.0131997, "lon": 76.9860842}, {"type": "node", "id": 1037061469, "lat": 11.0133005, "lon": 76.9862262}, {"type": "node", "id": 1037061470, "lat": 11.0135816, "lon": 76.9860524}, {"type": "node", "id": 1037061471, "lat": 11.013488, "lon": 76.9858914}, {"type": "node", "id": 1037066718, "lat": 11.0135029, "lon": 76.9858804, "tags": {"amenity": "atm", "operator": "ATM of ING"}}, {"type": "node", "id": 1039492945, "lat": 11.0390444, "lon": 76.9797411, "tags": {"amenity": "atm", "brand": "Syndicate Bank", "brand:wikidata": "Q2004088", "operator": "Syndicate Bank", "operator:wikidata": "Q2004088"}}, {"type": "node", "id": 1039492959, "lat": 11.0390299, "lon": 76.9796977, "tags": {"amenity": "atm", "brand": "ICICI Bank", "brand:en": "ICICI Bank", "brand:wikidata": "Q1653258", "currency:INR": "yes", "drive_through": "no", "indoor": "yes", "note": "Contributors are requested to not edit the \"brand\", \"brand:en\", \"brand:wikidata\", \"operator\", \"operator:en\" and \"operator:wikidata\" tags. (2025/03/03)", "opening_hours": "24/7", "operator": "ICICI Bank", "operator:en": "ICICI Bank", "operator:wikidata": "Q1653258", "short_name": "ICICI"}}, {"type": "node", "id": 1039492964, "lat": 11.0406613, "lon": 76.9820258, "tags": {"amenity": "atm", "brand": "South Indian Bank", "brand:wikidata": "Q2044973", "operator": "South Indian Bank", "operator:wikidata": "Q2044973"}}, {"type": "node", "id": 1039511740, "lat": 11.032805, "lon": 76.9791144, "tags": {"amenity": "atm", "operator": "IndiasInd Bank"}}, {"type": "node", "id": 1039518331, "lat": 11.0254152, "lon": 76.9787451, "tags": {"amenity": "atm", "brand": "State Bank of India", "brand:en": "State Bank of India", "brand:wikidata": "Q1340361", "brand:wikipedia": "en:State Bank of India", "currency:INR": "yes", "drive_through": "no", "indoor": "yes", "name": "State Bank of India", "note": "Contributors are requested to not edit the \"brand\", \"brand:en\", \"brand:wikidata\", \"operator\", \"operator:en\" and \"operator:wikidata\" tags. (2025/03/03)", "opening_hours": "24/7", "operator": "State Bank of India", "operator:en": "State Bank of India", "operator:wikidata": "Q1340361", "operator:wikipedia": "en:State Bank of India", "short_name": "SBI"}}, {"type": "node", "id": 1039687972, "lat": 11.0122698, "lon": 76.9853369, "tags": {"amenity": "bank", "atm": "yes", "brand": "IndusInd Bank", "brand:wikidata": "Q2040323", "brand:wikipedia": "en:IndusInd Bank", "name": "IndusInd Bank", "name:en": "IndusInd Bank", "website": "https://www.indusind.com"}}, {"type": "node", "id": 1241752418, "lat": 11.011236, "lon": 76.9652365, "tags": {"amenity": "bank", "brand": "City Union Bank", "brand:fa": "\u0633\u06cc\u062a\u06cc \u06cc\u0648\u0646\u06cc\u0648\u0646 \u0628\u0646\u06a9", "brand:hi": "\u0938\u093f\u091f\u0940 \u092f\u0942\u0928\u093f\u092f\u0928 \u092c\u0948\u0902\u0915", "brand:mr": "\u0938\u093f\u091f\u0940 \u092f\u0941\u0928\u093f\u092f\u0928 \u092c\u0901\u0915", "brand:ta": "\u0b9a\u0bbf\u0b9f\u0bcd\u0b9f\u0bbf \u0baf\u0bc2\u0ba9\u0bbf\u0baf\u0ba9\u0bcd \u0bb5\u0b99\u0bcd\u0b95\u0bbf", "brand:ur": "\u0633\u0679\u06cc \u06cc\u0648\u0646\u06cc\u0646 \u0628\u06cc\u0646\u06a9", "brand:website": "https://www.cityunionbank.com", "brand:wikidata": "Q2040264", "name": "City Union Bank", "name:fa": "\u0633\u06cc\u062a\u06cc \u06cc\u0648\u0646\u06cc\u0648\u0646 \u0628\u0646\u06a9", "name:hi": "\u0938\u093f\u091f\u0940 \u092f\u0942\u0928\u093f\u092f\u0928 \u092c\u0948\u0902\u0915", "name:mr": "\u0938\u093f\u091f\u0940 \u092f\u0941\u0928\u093f\u092f\u0928 \u092c\u0901\u0915", "name:ta": "\u0b9a\u0bbf\u0b9f\u0bcd\u0b9f\u0bbf \u0baf\u0bc2\u0ba9\u0bbf\u0baf\u0ba9\u0bcd \u0bb5\u0b99\u0bcd\u0b95\u0bbf", "name:ur": "\u0633\u0679\u06cc \u06cc\u0648\u0646\u06cc\u0646 \u0628\u06cc\u0646\u06a9", "short_name": "CUB", "short_name:pa": "\u0a38\u0a40 \u0a2f\u0a42 \u0a2c\u0a40", "short_name:ur": "\u0633\u06cc \u06cc\u0648 \u0628\u06cc"}}, {"type": "node", "id": 1425221965, "lat": 11.025601, "lon": 76.9435373, "tags": {"amenity": "bank", "brand": "Axis Bank", "brand:wikidata": "Q2003549", "brand:wikipedia": "en:Axis Bank", "name": "Axis Bank", "name:en": "Axis Bank", "website": "https://www.axisbank.com"}}, {"type": "node", "id": 1425221975, "lat": 11.0259906, "lon": 76.9459943, "tags": {"amenity": "atm", "fee": "ATM"}}, {"type": "node", "id": 1425221981, "lat": 11.0258853, "lon": 76.9460157, "tags": {"amenity": "bank", "brand": "City Union Bank", "brand:en": "City Union Bank", "brand:fa": "\u0633\u06cc\u062a\u06cc \u06cc\u0648\u0646\u06cc\u0648\u0646 \u0628\u0646\u06a9", "brand:hi": "\u0938\u093f\u091f\u0940 \u092f\u0942\u0928\u093f\u092f\u0928 \u092c\u0948\u0902\u0915", "brand:mr": "\u0938\u093f\u091f\u0940 \u092f\u0941\u0928\u093f\u092f\u0928 \u092c\u0901\u0915", "brand:ta": "\u0b9a\u0bbf\u0b9f\u0bcd\u0b9f\u0bbf \u0baf\u0bc2\u0ba9\u0bbf\u0baf\u0ba9\u0bcd \u0bb5\u0b99\u0bcd\u0b95\u0bbf", "brand:ur": "\u0633\u0679\u06cc \u06cc\u0648\u0646\u06cc\u0646 \u0628\u06cc\u0646\u06a9", "brand:website": "https://www.cityunionbank.com", "brand:wikidata": "Q2040264", "name": "City Union Bank", "name:en": "City Union Bank", "name:fa": "\u0633\u06cc\u062a\u06cc \u06cc\u0648\u0646\u06cc\u0648\u0646 \u0628\u0646\u06a9", "name:hi": "\u0938\u093f\u091f\u0940 \u092f\u0942\u0928\u093f\u092f\u0928 \u092c\u0948\u0902\u0915", "name:mr": "\u0938\u093f\u091f\u0940 \u092f\u0941\u0928\u093f\u092f\u0928 \u092c\u0901\u0915", "name:ta": "\u0b9a\u0bbf\u0b9f\u0bcd\u0b9f\u0bbf \u0baf\u0bc2\u0ba9\u0bbf\u0baf\u0ba9\u0bcd \u0bb5\u0b99\u0bcd\u0b95\u0bbf", "name:ur": "\u0633\u0679\u06cc \u06cc\u0648\u0646\u06cc\u0646 \u0628\u06cc\u0646\u06a9", "short_name": "CUB", "short_name:pa": "\u0a38\u0a40 \u0a2f\u0a42 \u0a2c\u0a40", "short_name:ur": "\u0633\u06cc \u06cc\u0648 \u0628\u06cc"}}, {"type": "node", "id": 1464278670, "lat": 11.0275718, "lon": 76.9468885, "tags": {"amenity": "atm", "fee": "ICICI ATM"}}, {"type": "node", "id": 1464278745, "lat": 11.0266793, "lon": 76.9457056, "tags": {"amenity": "bank", "brand": "State Bank of India", "brand:wikidata": "Q1340361", "brand:wikipedia": "en:State Bank of India", "name": "State Bank of India", "short_name": "SBI"}}, {"type": "node", "id": 1464278790, "lat": 11.0266771, "lon": 76.9473732, "tags": {"amenity": "bank", "brand": "State Bank of India", "brand:wikidata": "Q1340361", "brand:wikipedia": "en:State Bank of India", "name": "State Bank of India", "short_name": "SBI"}}, {"type": "node", "id": 1464278812, "lat": 11.0268899, "lon": 76.9470038, "tags": {"amenity": "atm", "fee": "SBI ATM"}}, {"type": "node", "id": 1464303912, "lat": 10.9973948, "lon": 77.0005346, "tags": {"amenity": "bank", "atm": "yes", "brand": "Bank of India", "brand:wikidata": "Q2004439", "brand:wikipedia": "en:Bank of India", "name": "Bank of India", "name:en": "Bank of India", "short_name": "BoI", "website": "https://www.bankofindia.co.in/"}}, {"type": "node", "id": 1467928831, "lat": 11.0130368, "lon": 76.9808936, "tags": {"amenity": "bank", "atm": "yes", "brand": "Corporation Bank", "brand:wikidata": "Q2003387", "brand:wikipedia": "en:Corporation Bank", "name": "Corporation Bank", "name:en": "Corporation Bank", "website": "https://corpbank.com/"}}, {"type": "node", "id": 1468078997, "lat": 11.0260408, "lon": 76.9511194, "tags": {"amenity": "atm", "brand": "State Bank of India", "brand:en": "State Bank of India", "brand:wikidata": "Q1340361", "brand:wikipedia": "en:State Bank of India", "currency:INR": "yes", "drive_through": "no", "fee": "Canara bank ATM", "indoor": "yes", "name": "State Bank of India", "note": "Contributors are requested to not edit the \"brand\", \"brand:en\", \"brand:wikidata\", \"operator\", \"operator:en\" and \"operator:wikidata\" tags. (2025/03/03)", "opening_hours": "24/7", "operator": "State Bank of India", "operator:en": "State Bank of India", "operator:wikidata": "Q1340361", "operator:wikipedia": "en:State Bank of India", "short_name": "SBI"}}, {"type": "node", "id": 1468079188, "lat": 11.0269939, "lon": 76.9486678, "tags": {"amenity": "bank", "atm": "yes", "brand": "Bank of Baroda", "brand:wikidata": "Q2003797", "brand:wikipedia": "en:Bank of Baroda", "name": "Bank of Baroda"}}, {"type": "node", "id": 1468079201, "lat": 11.0266569, "lon": 76.9467956, "tags": {"amenity": "bank", "atm": "no", "brand": "Indian Bank", "brand:wikidata": "Q2003789", "brand:wikipedia": "en:Indian Bank", "name": "Indian Bank", "name:en": "Indian Bank", "website": "https://www.indianbank.in/"}}, {"type": "node", "id": 1468079304, "lat": 11.0261714, "lon": 76.9470623, "tags": {"amenity": "bank", "brand": "Bank of Baroda", "brand:wikidata": "Q2003797", "brand:wikipedia": "en:Bank of Baroda", "name": "Bank of Baroda", "name:en": "Bank of Baroda", "short_name": "BoB", "website": "http://www.bankofbaroda.com"}}, {"type": "node", "id": 1468079439, "lat": 11.0260965, "lon": 76.9420339, "tags": {"amenity": "bank", "brand": "Karur Vysya Bank", "brand:wikidata": "Q6373724", "brand:wikipedia": "en:Karur Vysya Bank", "name": "Karur Vysya Bank", "name:en": "Karur Vysya Bank", "short_name": "KVB", "website": "https://www.kvb.co.in"}}, {"type": "node", "id": 1468079541, "lat": 11.0254766, "lon": 76.9399972, "tags": {"amenity": "bank", "atm": "no", "brand": "Indian Overseas Bank", "brand:wikidata": "Q2003611", "brand:wikipedia": "en:Indian Overseas Bank", "name": "Indian Overseas Bank", "name:en": "Indian Overseas Bank", "short_name": "IOB", "website": "https://www.iob.in"}}, {"type": "node", "id": 1468324426, "lat": 10.9969185, "lon": 77.0010333, "tags": {"amenity": "atm", "brand": "ICICI Bank", "brand:en": "ICICI Bank", "brand:wikidata": "Q1653258", "brand:wikipedia": "en:ICICI Bank", "currency:INR": "yes", "drive_through": "no", "indoor": "yes", "name": "ICICI Bank", "note": "Contributors are requested to not edit the \"brand\", \"brand:en\", \"brand:wikidata\", \"operator\", \"operator:en\" and \"operator:wikidata\" tags. (2025/03/03)", "opening_hours": "24/7", "operator": "ICICI Bank", "operator:en": "ICICI Bank", "operator:wikidata": "Q1653258", "operator:wikipedia": "en:ICICI Bank", "short_name": "ICICI"}}, {"type": "node", "id": 1468324458, "lat": 10.9969419, "lon": 77.0004901, "tags": {"amenity": "atm", "brand": "Karur Vysya Bank", "brand:wikidata": "Q6373724", "brand:wikipedia": "en:Karur Vysya Bank", "fee": "no", "name": "Karur Vysya Bank", "operator": "Karur Vysya Bank", "operator:wikidata": "Q6373724", "operator:wikipedia": "en:Karur Vysya Bank"}}, {"type": "node", "id": 1469134231, "lat": 11.0781993, "lon": 76.9863632, "tags": {"amenity": "atm", "brand": "Karur Vysya Bank", "brand:wikidata": "Q6373724", "check_date": "2024-03-29", "name": "Karur Vysya Bank", "operator": "Karur Vysya Bank", "operator:wikidata": "Q6373724", "source": "Self"}}, {"type": "node", "id": 1469134380, "lat": 11.0782046, "lon": 76.986331, "tags": {"addr:street": "KCT", "amenity": "bank", "atm": "yes", "brand": "Karur Vysya Bank", "brand:wikidata": "Q6373724", "brand:wikipedia": "en:Karur Vysya Bank", "name": "Karur Vysya Bank", "name:en": "Karur Vysya Bank", "short_name": "KVB", "source": "Self", "website": "https://www.kvb.co.in"}}, {"type": "node", "id": 1469140130, "lat": 11.0135289, "lon": 76.9672686, "tags": {"amenity": "atm", "operator": "KVB"}}, {"type": "node", "id": 1469151232, "lat": 11.0801445, "lon": 76.9982883, "tags": {"amenity": "atm", "brand": "Canara Bank", "brand:en": "Canara Bank", "brand:hi": "\u0915\u0947\u0928\u0930\u093e \u092c\u0948\u0902\u0915", "brand:kn": "\u0c95\u0cc6\u0ca8\u0cb0\u0cbe \u0cac\u0ccd\u0caf\u0cbe\u0c82\u0c95\u0ccd", "brand:pa": "\u0a15\u0a47\u0a28\u0a30\u0a3e \u0a2c\u0a48\u0a02\u0a15", "brand:pnb": "\u06a9\u06cc\u0646\u0631\u0627 \u0628\u06cc\u0646\u06a9", "brand:ur": "\u06a9\u06cc\u0646\u0631\u0627 \u0628\u06cc\u0646\u06a9", "brand:wikidata": "Q2003777", "name:en": "Canara Bank", "name:hi": "\u0915\u0947\u0928\u0930\u093e \u092c\u0948\u0902\u0915", "name:kn": "\u0c95\u0cc6\u0ca8\u0cb0\u0cbe \u0cac\u0ccd\u0caf\u0cbe\u0c82\u0c95\u0ccd", "name:pa": "\u0a15\u0a47\u0a28\u0a30\u0a3e \u0a2c\u0a48\u0a02\u0a15", "name:pnb": "\u06a9\u06cc\u0646\u0631\u0627 \u0628\u06cc\u0646\u06a9", "name:ur": "\u06a9\u06cc\u0646\u0631\u0627 \u0628\u06cc\u0646\u06a9", "operator": "Canara Bank", "operator:wikidata": "Q2003777"}}, {"type": "node", "id": 1469151440, "lat": 11.0816449, "lon": 76.9978323, "tags": {"addr:housename": "Canara Bank", "addr:postcode": "641035", "addr:street": "KG Campus", "amenity": "bank", "atm": "yes", "brand": "Canara Bank", "brand:en": "Canara Bank", "brand:hi": "\u0915\u0947\u0928\u0930\u093e \u092c\u0948\u0902\u0915", "brand:kn": "\u0c95\u0cc6\u0ca8\u0cb0\u0cbe \u0cac\u0ccd\u0caf\u0cbe\u0c82\u0c95\u0ccd", "brand:pa": "\u0a15\u0a47\u0a28\u0a30\u0a3e \u0a2c\u0a48\u0a02\u0a15", "brand:pnb": "\u06a9\u06cc\u0646\u0631\u0627 \u0628\u06cc\u0646\u06a9", "brand:ur": "\u06a9\u06cc\u0646\u0631\u0627 \u0628\u06cc\u0646\u06a9", "brand:wikidata": "Q2003777", "brand:wikipedia": "en:Canara Bank", "brand:wikipedia:pa": "\u0a15\u0a47\u0a28\u0a30\u0a3e \u0a2c\u0a48\u0a02\u0a15", "name": "Canara Bank", "name:en": "Canara Bank", "name:hi": "\u0915\u0947\u0928\u0930\u093e \u092c\u0948\u0902\u0915", "name:kn": "\u0c95\u0cc6\u0ca8\u0cb0\u0cbe \u0cac\u0ccd\u0caf\u0cbe\u0c82\u0c95\u0ccd", "name:pa": "\u0a15\u0a47\u0a28\u0a30\u0a3e \u0a2c\u0a48\u0a02\u0a15", "name:pnb": "\u06a9\u06cc\u0646\u0631\u0627 \u0628\u06cc\u0646\u06a9", "name:ur": "\u06a9\u06cc\u0646\u0631\u0627 \u0628\u06cc\u0646\u06a9", "website": "https://www.canarabank.com/"}}, {"type": "node", "id": 1470427879, "lat": 11.0040801, "lon": 76.983672, "tags": {"amenity": "bank", "branch": "Personal Banking Branch", "brand": "State Bank of India", "brand:wikidata": "Q1340361", "brand:wikipedia": "en:State Bank of India", "name": "State Bank of India", "short_name": "SBI"}}, {"type": "node", "id": 1470427900, "lat": 11.0031744, "lon": 76.9749386, "tags": {"amenity": "bank", "brand": "HDFC Bank", "brand:wikidata": "Q631047", "brand:wikipedia": "en:HDFC Bank", "name": "HDFC Bank", "short_name": "HDFC"}}, {"type": "node", "id": 1470427948, "lat": 11.0040617, "lon": 76.9834681, "tags": {"amenity": "atm", "brand": "State Bank of India", "brand:en": "State Bank of India", "brand:wikidata": "Q1340361", "brand:wikipedia": "en:State Bank of India", "currency:INR": "yes", "drive_through": "no", "indoor": "yes", "name": "State Bank of India", "note": "Contributors are requested to not edit the \"brand\", \"brand:en\", \"brand:wikidata\", \"operator\", \"operator:en\" and \"operator:wikidata\" tags. (2025/03/03)", "opening_hours": "24/7", "operator": "State Bank of India", "operator:en": "State Bank of India", "operator:wikidata": "Q1340361", "operator:wikipedia": "en:State Bank of India", "short_name": "SBI"}}, {"type": "node", "id": 1470545663, "lat": 11.0318178, "lon": 76.9505924, "tags": {"amenity": "bank", "atm": "yes", "brand": "Indian Overseas Bank", "brand:wikidata": "Q2003611", "brand:wikipedia": "en:Indian Overseas Bank", "name": "Indian Overseas Bank", "name:en": "Indian Overseas Bank", "opening_hours": "Mo-Fr 10:00-16:00; Sa[1,3,5] 10:00-13:00; Sa[2,4] off; Su off; PH off", "short_name": "IOB", "website": "https://www.iob.in"}}, {"type": "node", "id": 1470545679, "lat": 11.0317831, "lon": 76.9505924, "tags": {"amenity": "atm", "operator": "Indian Overseas Bank ATM"}}, {"type": "node", "id": 1470545682, "lat": 11.0438159, "lon": 76.9476993, "tags": {"amenity": "atm", "brand": "State Bank of India", "brand:en": "State Bank of India", "brand:wikidata": "Q1340361", "currency:INR": "yes", "drive_through": "no", "indoor": "yes", "note": "Contributors are requested to not edit the \"brand\", \"brand:en\", \"brand:wikidata\", \"operator\", \"operator:en\" and \"operator:wikidata\" tags. (2025/03/03)", "opening_hours": "24/7", "operator": "State Bank of India", "operator:en": "State Bank of India", "operator:wikidata": "Q1340361", "short_name": "SBI"}}, {"type": "node", "id": 1470545684, "lat": 11.0506264, "lon": 76.9462783, "tags": {"amenity": "atm", "operator": "IDBI ATM"}}, {"type": "node", "id": 1470545690, "lat": 11.0506994, "lon": 76.9465616, "tags": {"amenity": "atm", "brand": "State Bank of India", "brand:en": "State Bank of India", "brand:wikidata": "Q1340361", "currency:INR": "yes", "drive_through": "no", "indoor": "yes", "note": "Contributors are requested to not edit the \"brand\", \"brand:en\", \"brand:wikidata\", \"operator\", \"operator:en\" and \"operator:wikidata\" tags. (2025/03/03)", "opening_hours": "24/7", "operator": "State Bank of India", "operator:en": "State Bank of India", "operator:wikidata": "Q1340361", "short_name": "SBI"}}, {"type": "node", "id": 1471863397, "lat": 11.0176933, "lon": 76.9579777, "tags": {"amenity": "atm", "brand": "ICICI Bank", "brand:en": "ICICI Bank", "brand:wikidata": "Q1653258", "brand:wikipedia": "en:ICICI Bank", "currency:INR": "yes", "drive_through": "no", "indoor": "yes", "name": "ICICI Bank", "note": "Contributors are requested to not edit the \"brand\", \"brand:en\", \"brand:wikidata\", \"operator\", \"operator:en\" and \"operator:wikidata\" tags. (2025/03/03)", "opening_hours": "24/7", "operator": "ICICI Bank", "operator:en": "ICICI Bank", "operator:wikidata": "Q1653258", "operator:wikipedia": "en:ICICI Bank", "short_name": "ICICI"}}, {"type": "node", "id": 1472189080, "lat": 11.0237436, "lon": 76.9779929, "tags": {"amenity": "atm", "operator": "Indian Bank ATM"}}, {"type": "node", "id": 1472193033, "lat": 11.021332, "lon": 76.9709709, "tags": {"amenity": "atm", "brand": "State Bank of India", "brand:en": "State Bank of India", "brand:wikidata": "Q1340361", "brand:wikipedia": "en:State Bank of India", "currency:INR": "yes", "drive_through": "no", "indoor": "yes", "name": "State Bank of India", "note": "Contributors are requested to not edit the \"brand\", \"brand:en\", \"brand:wikidata\", \"operator\", \"operator:en\" and \"operator:wikidata\" tags. (2025/03/03)", "opening_hours": "24/7", "operator": "State Bank of India", "operator:en": "State Bank of India", "operator:wikidata": "Q1340361", "operator:wikipedia": "en:State Bank of India", "short_name": "SBI"}}, {"type": "node", "id": 1472212892, "lat": 11.015145, "lon": 76.949178, "tags": {"addr:street": "Cowley Brown Road", "amenity": "bank", "brand": "Syndicate Bank", "brand:wikidata": "Q2004088", "brand:wikipedia": "en:Syndicate Bank", "name": "Syndicate Bank", "name:en": "Syndicate Bank", "website": "https://www.syndicatebank.in"}}, {"type": "node", "id": 1472213670, "lat": 11.0147422, "lon": 76.9493657, "tags": {"addr:street": "Cowley Brown Road", "amenity": "bank", "brand": "HDFC Bank", "brand:wikidata": "Q631047", "brand:wikipedia": "en:HDFC Bank", "name": "HDFC Bank", "short_name": "HDFC", "website": "https://www.hdfcbank.com"}}, {"type": "node", "id": 1472230496, "lat": 11.0080828, "lon": 76.9504284, "tags": {"amenity": "atm", "fee": "TMB"}}, {"type": "node", "id": 1472230498, "lat": 11.0083883, "lon": 76.9503748, "tags": {"amenity": "bank", "brand": "State Bank of India", "brand:wikidata": "Q1340361", "brand:wikipedia": "en:State Bank of India", "name": "State Bank of India", "short_name": "SBI"}}, {"type": "node", "id": 1472230508, "lat": 11.008562, "lon": 76.9505786, "tags": {"amenity": "bank", "brand": "State Bank of India", "brand:wikidata": "Q1340361", "brand:wikipedia": "en:State Bank of India", "name": "State Bank of India", "short_name": "SBI"}}, {"type": "node", "id": 1472230516, "lat": 11.0097609, "lon": 76.9501164, "tags": {"amenity": "atm", "fee": "SBI ATM"}}, {"type": "node", "id": 1472230529, "lat": 11.0083882, "lon": 76.9506101, "tags": {"amenity": "bank", "brand": "Tamilnad Mercantile Bank Limited", "brand:wikidata": "Q2044991", "check_date": "2024-10-24", "name": "Tamilnad Mercantile Bank Limited"}}, {"type": "node", "id": 1472237769, "lat": 11.0069823, "lon": 76.9505732, "tags": {"amenity": "bank", "brand": "Standard Chartered", "brand:wikidata": "Q548278", "name": "Standard Chartered"}}, {"type": "node", "id": 1472619293, "lat": 11.0063886, "lon": 76.9513969, "tags": {"amenity": "bank", "brand": "Indian Overseas Bank", "brand:wikidata": "Q2003611", "brand:wikipedia": "en:Indian Overseas Bank", "name": "Indian Overseas Bank", "name:en": "Indian Overseas Bank", "short_name": "IOB", "website": "https://www.iob.in"}}, {"type": "node", "id": 1472619300, "lat": 11.0063886, "lon": 76.9511716, "tags": {"amenity": "atm", "brand": "Indian Overseas Bank", "brand:wikidata": "Q2003611", "name": "Indian Overseas Bank", "operator": "Indian Overseas Bank", "operator:wikidata": "Q2003611"}}, {"type": "node", "id": 1472620587, "lat": 11.0050827, "lon": 76.9510858, "tags": {"amenity": "atm", "brand": "Indian Bank", "brand:wikidata": "Q2003789", "brand:wikipedia": "en:Indian Bank", "name": "Indian Bank", "operator": "Indian Bank", "operator:wikidata": "Q2003789", "operator:wikipedia": "en:Indian Bank"}}, {"type": "node", "id": 1472620588, "lat": 11.0050959, "lon": 76.9507929, "tags": {"amenity": "bank", "brand": "Indian Bank", "brand:wikidata": "Q2003789", "brand:wikipedia": "en:Indian Bank", "name": "Indian Bank", "name:en": "Indian Bank", "website": "https://www.indianbank.in/"}}, {"type": "node", "id": 1472620589, "lat": 11.005296, "lon": 76.9511041, "tags": {"amenity": "bank", "brand": "ICICI Bank", "brand:wikidata": "Q1653258", "brand:wikipedia": "en:ICICI Bank", "name": "ICICI Bank", "short_name": "ICICI"}}, {"type": "node", "id": 1472703562, "lat": 11.0038637, "lon": 76.9512328, "tags": {"amenity": "bank", "branch": "VYSYA", "brand": "ING", "brand:wikidata": "Q645708", "brand:wikipedia": "en:ING Group", "name": "ING"}}, {"type": "node", "id": 1472703565, "lat": 11.0025894, "lon": 76.9514152, "tags": {"amenity": "bank", "brand": "Karnataka Bank", "brand:wikidata": "Q2042632", "brand:wikipedia": "en:Karnataka Bank", "name": "Karnataka Bank"}}, {"type": "node", "id": 1472703570, "lat": 11.0035688, "lon": 76.9519624, "tags": {"amenity": "bank", "brand": "State Bank of India", "brand:wikidata": "Q1340361", "brand:wikipedia": "en:State Bank of India", "name": "State Bank of India", "short_name": "SBI", "website": "https://www.sbi.co.in"}}, {"type": "node", "id": 1472703572, "lat": 11.0023261, "lon": 76.9514474, "tags": {"amenity": "bank", "brand": "Bank of India", "brand:wikidata": "Q2004439", "brand:wikipedia": "en:Bank of India", "name": "Bank of India", "name:en": "Bank of India", "short_name": "BoI", "website": "https://www.bankofindia.co.in/"}}, {"type": "node", "id": 1472703574, "lat": 11.0035583, "lon": 76.9517371, "tags": {"amenity": "atm", "operator": "STATE BANK OF MYSORE"}}, {"type": "node", "id": 1472707364, "lat": 11.0020944, "lon": 76.9514903, "tags": {"amenity": "bank", "brand": "Axis Bank", "brand:wikidata": "Q2003549", "brand:wikipedia": "en:Axis Bank", "name": "Axis Bank", "name:en": "Axis Bank", "website": "https://www.axisbank.com"}}, {"type": "node", "id": 1472707377, "lat": 11.0111093, "lon": 76.9532713, "tags": {"amenity": "bank", "brand": "Kotak Mahindra Bank", "brand:wikidata": "Q2040404", "name": "Kotak Mahindra Bank"}}, {"type": "node", "id": 1473802693, "lat": 11.0198499, "lon": 76.9663219, "tags": {"amenity": "bank", "brand": "HDFC Bank", "brand:wikidata": "Q631047", "brand:wikipedia": "en:HDFC Bank", "name": "HDFC Bank", "short_name": "HDFC"}}, {"type": "node", "id": 1473802703, "lat": 11.0194813, "lon": 76.9641976, "tags": {"amenity": "atm", "brand": "South Indian Bank", "brand:wikidata": "Q2044973", "brand:wikipedia": "en:South Indian Bank", "name": "South Indian Bank", "operator": "South Indian Bank", "operator:wikidata": "Q2044973", "operator:wikipedia": "en:South Indian Bank"}}, {"type": "node", "id": 1473802706, "lat": 11.0192162, "lon": 76.9629675, "tags": {"amenity": "atm", "operator": "AXIS"}}, {"type": "node", "id": 1473802709, "lat": 11.0190601, "lon": 76.9623039, "tags": {"amenity": "bank", "brand": "Syndicate Bank", "brand:wikidata": "Q2004088", "brand:wikipedia": "en:Syndicate Bank", "name": "Syndicate Bank", "name:en": "Syndicate Bank", "website": "https://www.syndicatebank.in"}}, {"type": "node", "id": 1473802723, "lat": 11.0194866, "lon": 76.9643424, "tags": {"amenity": "bank", "brand": "South Indian Bank", "brand:wikidata": "Q2044973", "brand:wikipedia": "en:South Indian Bank", "name": "South Indian Bank"}}, {"type": "node", "id": 1473802736, "lat": 11.0197709, "lon": 76.966161, "tags": {"amenity": "atm", "brand": "HDFC Bank", "brand:en": "HDFC Bank", "brand:wikidata": "Q631047", "brand:wikipedia": "en:HDFC Bank", "currency:INR": "yes", "drive_through": "no", "indoor": "yes", "name": "HDFC Bank", "note": "Contributors are requested to not edit the \"brand\", \"brand:en\", \"brand:wikidata\", \"operator\", \"operator:en\" and \"operator:wikidata\" tags. (2025/03/03)", "opening_hours": "24/7", "operator": "HDFC Bank", "operator:en": "HDFC Bank", "operator:wikidata": "Q631047", "operator:wikipedia": "en:HDFC Bank", "short_name": "HDFC"}}, {"type": "node", "id": 1473825659, "lat": 11.0101483, "lon": 76.948387, "tags": {"amenity": "bank", "brand": "Canara Bank", "brand:en": "Canara Bank", "brand:hi": "\u0915\u0947\u0928\u0930\u093e \u092c\u0948\u0902\u0915", "brand:kn": "\u0c95\u0cc6\u0ca8\u0cb0\u0cbe \u0cac\u0ccd\u0caf\u0cbe\u0c82\u0c95\u0ccd", "brand:pa": "\u0a15\u0a47\u0a28\u0a30\u0a3e \u0a2c\u0a48\u0a02\u0a15", "brand:pnb": "\u06a9\u06cc\u0646\u0631\u0627 \u0628\u06cc\u0646\u06a9", "brand:ur": "\u06a9\u06cc\u0646\u0631\u0627 \u0628\u06cc\u0646\u06a9", "brand:wikidata": "Q2003777", "brand:wikipedia": "en:Canara Bank", "brand:wikipedia:pa": "\u0a15\u0a47\u0a28\u0a30\u0a3e \u0a2c\u0a48\u0a02\u0a15", "name": "Canara Bank", "name:en": "Canara Bank", "name:hi": "\u0915\u0947\u0928\u0930\u093e \u092c\u0948\u0902\u0915", "name:kn": "\u0c95\u0cc6\u0ca8\u0cb0\u0cbe \u0cac\u0ccd\u0caf\u0cbe\u0c82\u0c95\u0ccd", "name:pa": "\u0a15\u0a47\u0a28\u0a30\u0a3e \u0a2c\u0a48\u0a02\u0a15", "name:pnb": "\u06a9\u06cc\u0646\u0631\u0627 \u0628\u06cc\u0646\u06a9", "name:ur": "\u06a9\u06cc\u0646\u0631\u0627 \u0628\u06cc\u0646\u06a9", "website": "https://www.canarabank.com/"}}, {"type": "node", "id": 1474330371, "lat": 11.076324, "lon": 77.0023705, "tags": {"amenity": "atm", "brand": "Indian Bank", "brand:wikidata": "Q2003789", "operator": "Indian Bank", "operator:wikidata": "Q2003789"}}, {"type": "node", "id": 1474360031, "lat": 11.0645682, "lon": 77.0001282, "tags": {"amenity": "atm", "operator": "Karur Vysa Bank"}}, {"type": "node", "id": 1474366515, "lat": 11.058952, "lon": 76.9970853, "tags": {"amenity": "atm", "operator": "Pallavan Grama Bank"}}, {"type": "node", "id": 1474366521, "lat": 11.0591244, "lon": 76.9971831, "tags": {"amenity": "atm", "brand": "State Bank of India", "brand:en": "State Bank of India", "brand:wikidata": "Q1340361", "currency:INR": "yes", "drive_through": "no", "indoor": "yes", "note": "Contributors are requested to not edit the \"brand\", \"brand:en\", \"brand:wikidata\", \"operator\", \"operator:en\" and \"operator:wikidata\" tags. (2025/03/03)", "opening_hours": "24/7", "operator": "State Bank of India", "operator:en": "State Bank of India", "operator:wikidata": "Q1340361", "short_name": "SBI"}}, {"type": "node", "id": 1474427078, "lat": 10.9946611, "lon": 76.9666916, "tags": {"amenity": "atm", "brand": "South Indian Bank", "brand:wikidata": "Q2044973", "brand:wikipedia": "en:South Indian Bank", "name": "South Indian Bank", "operator": "South Indian Bank", "operator:wikidata": "Q2044973", "operator:wikipedia": "en:South Indian Bank"}}, {"type": "node", "id": 1474491011, "lat": 10.9945706, "lon": 76.9592767, "tags": {"amenity": "bank", "atm": "yes", "brand": "Karur Vysya Bank", "brand:wikidata": "Q6373724", "brand:wikipedia": "en:Karur Vysya Bank", "name": "Karur Vysya Bank", "name:en": "Karur Vysya Bank", "short_name": "KVB", "website": "https://www.kvb.co.in"}}, {"type": "node", "id": 1474730759, "lat": 10.9941327, "lon": 76.9652202, "tags": {"amenity": "bank", "brand": "Tamilnad Mercantile Bank Limited", "brand:wikidata": "Q2044991", "name": "Tamilnad Mercantile Bank Limited"}}, {"type": "node", "id": 1474730774, "lat": 10.9941354, "lon": 76.9651478, "tags": {"amenity": "atm", "brand": "Tamilnad Mercantile Bank Limited", "brand:wikidata": "Q2044991", "operator": "Tamilnad Mercantile Bank Limited", "operator:wikidata": "Q2044991"}}, {"type": "node", "id": 1474742090, "lat": 10.993693, "lon": 76.9617628, "tags": {"amenity": "atm", "brand": "State Bank of India", "brand:en": "State Bank of India", "brand:wikidata": "Q1340361", "brand:wikipedia": "en:State Bank of India", "currency:INR": "yes", "drive_through": "no", "indoor": "yes", "name": "State Bank of India", "note": "Contributors are requested to not edit the \"brand\", \"brand:en\", \"brand:wikidata\", \"operator\", \"operator:en\" and \"operator:wikidata\" tags. (2025/03/03)", "opening_hours": "24/7", "operator": "State Bank of India", "operator:en": "State Bank of India", "operator:wikidata": "Q1340361", "operator:wikipedia": "en:State Bank of India", "short_name": "SBI"}}, {"type": "node", "id": 1474803270, "lat": 10.9925427, "lon": 76.9577091, "tags": {"amenity": "atm", "brand": "Syndicate Bank", "brand:wikidata": "Q2004088", "brand:wikipedia": "en:Syndicate Bank", "name": "Syndicate Bank", "operator": "Syndicate Bank", "operator:wikidata": "Q2004088", "operator:wikipedia": "en:Syndicate Bank"}}, {"type": "node", "id": 1474803276, "lat": 10.9881375, "lon": 76.9544552, "tags": {"amenity": "bank", "brand": "Syndicate Bank", "brand:wikidata": "Q2004088", "brand:wikipedia": "en:Syndicate Bank", "name": "Syndicate Bank", "name:en": "Syndicate Bank", "website": "https://www.syndicatebank.in"}}, {"type": "node", "id": 1474803281, "lat": 10.9925321, "lon": 76.9574812, "tags": {"amenity": "bank", "name": "ORIENTAL BANK"}}, {"type": "node", "id": 1474811277, "lat": 10.9946622, "lon": 76.959289, "tags": {"amenity": "bank", "brand": "Karur Vysya Bank", "brand:wikidata": "Q6373724", "brand:wikipedia": "en:Karur Vysya Bank", "name": "Karur Vysya Bank", "name:en": "Karur Vysya Bank", "short_name": "KVB", "website": "https://www.kvb.co.in"}}, {"type": "node", "id": 1474811286, "lat": 10.9947517, "lon": 76.9592916, "tags": {"amenity": "atm", "brand": "Indian Overseas Bank", "brand:wikidata": "Q2003611", "name": "Indian Overseas Bank", "operator": "Indian Overseas Bank", "operator:wikidata": "Q2003611"}}, {"type": "node", "id": 1474815496, "lat": 10.994994, "lon": 76.9588705, "tags": {"amenity": "atm", "operator": "CSB"}}, {"type": "node", "id": 1474815510, "lat": 10.9949413, "lon": 76.9587874, "tags": {"amenity": "bank", "brand": "CSB Bank", "brand:wikidata": "Q5053244", "brand:wikipedia": "en:CSB Bank", "name": "CSB Bank", "official_name": "Catholic Syrian Bank"}}, {"type": "node", "id": 1474921995, "lat": 10.9464999, "lon": 76.9370893, "tags": {"amenity": "atm", "brand": "State Bank of India", "brand:en": "State Bank of India", "brand:wikidata": "Q1340361", "currency:INR": "yes", "drive_through": "no", "fee": "no", "indoor": "yes", "note": "Contributors are requested to not edit the \"brand\", \"brand:en\", \"brand:wikidata\", \"operator\", \"operator:en\" and \"operator:wikidata\" tags. (2025/03/03)", "opening_hours": "24/7", "operator": "State Bank of India", "operator:en": "State Bank of India", "operator:wikidata": "Q1340361", "short_name": "SBI", "source": "Survey"}}, {"type": "node", "id": 1913572689, "lat": 11.058112, "lon": 76.996761, "tags": {"amenity": "bank", "brand": "Corporation Bank", "brand:wikidata": "Q2003387", "brand:wikipedia": "en:Corporation Bank", "name": "Corporation Bank", "name:en": "Corporation Bank", "website": "https://corpbank.com/"}}, {"type": "node", "id": 1913577470, "lat": 11.075898, "lon": 77.002329, "tags": {"amenity": "atm", "name": "Bank Atm"}}, {"type": "node", "id": 3204628972, "lat": 10.997846, "lon": 76.9899355, "tags": {"amenity": "bank", "brand": "State Bank of India", "brand:wikidata": "Q1340361", "brand:wikipedia": "en:State Bank of India", "name": "State Bank of India", "short_name": "SBI", "website": "https://www.sbi.co.in"}}, {"type": "node", "id": 3302150430, "lat": 10.9460069, "lon": 76.9318833, "tags": {"amenity": "bank", "atm": "yes", "name": "HDFC Bank ATM"}}, {"type": "node", "id": 3302150431, "lat": 10.9486795, "lon": 76.9349386, "tags": {"amenity": "bank", "atm": "yes", "brand": "Indian Overseas Bank", "brand:wikidata": "Q2003611", "brand:wikipedia": "en:Indian Overseas Bank", "name": "Indian Overseas Bank", "name:en": "Indian Overseas Bank", "short_name": "IOB", "website": "https://www.iob.in"}}, {"type": "node", "id": 3302150432, "lat": 10.9487255, "lon": 76.9347603, "tags": {"amenity": "bank", "atm": "yes", "name": "ICICI Bank ATM"}}, {"type": "node", "id": 3302152188, "lat": 10.9462844, "lon": 76.9373191, "tags": {"amenity": "bank", "atm": "yes", "name": "State Bank of India ATM"}}, {"type": "node", "id": 3302152189, "lat": 10.9441632, "lon": 76.9398618, "tags": {"amenity": "bank", "name": "ATM"}}, {"type": "node", "id": 3302155211, "lat": 10.9420051, "lon": 76.9381533, "tags": {"amenity": "bank", "atm": "yes", "name": "Axis Bank ATM"}}, {"type": "node", "id": 3302155212, "lat": 10.9415731, "lon": 76.9353684, "tags": {"amenity": "bank", "atm": "yes", "brand": "State Bank of India", "brand:wikidata": "Q1340361", "brand:wikipedia": "en:State Bank of India", "name": "State Bank of India", "short_name": "SBI"}}, {"type": "node", "id": 3302156487, "lat": 10.9448583, "lon": 76.9355262, "tags": {"amenity": "bank", "atm": "yes", "brand": "State Bank of India", "brand:wikidata": "Q1340361", "brand:wikipedia": "en:State Bank of India", "name": "State Bank of India", "short_name": "SBI", "website": "https://www.sbi.co.in"}}, {"type": "node", "id": 3302156488, "lat": 10.9474523, "lon": 76.9333283, "tags": {"amenity": "bank", "atm": "yes", "brand:wikidata": "Q6479935", "brand:wikipedia": "en:Lakshmi Vilas Bank", "name": "Lakshmi Vilas Bank", "name:en": "Lakshmi Vilas Bank", "website": "https://www.lvbank.com"}}, {"type": "node", "id": 3595704281, "lat": 11.0393246, "lon": 76.9259571, "tags": {"addr:street": "Edayarpalayam Koundampalayam Road", "amenity": "atm", "brand": "State Bank of India", "brand:en": "State Bank of India", "brand:wikidata": "Q1340361", "brand:wikipedia": "en:State Bank of India", "currency:INR": "yes", "drive_through": "no", "indoor": "yes", "name": "State Bank of India", "note": "Contributors are requested to not edit the \"brand\", \"brand:en\", \"brand:wikidata\", \"operator\", \"operator:en\" and \"operator:wikidata\" tags. (2025/03/03)", "opening_hours": "24/7", "operator": "State Bank of India", "operator:en": "State Bank of India", "operator:wikidata": "Q1340361", "operator:wikipedia": "en:State Bank of India", "short_name": "SBI"}}, {"type": "node", "id": 3891556868, "lat": 11.0053674, "lon": 77.067697, "tags": {"amenity": "atm", "brand": "South Indian Bank", "brand:wikidata": "Q2044973", "name": "South Indian Bank", "operator": "South Indian Bank", "operator:wikidata": "Q2044973"}}, {"type": "node", "id": 4036183561, "lat": 11.0812968, "lon": 76.9407907, "tags": {"addr:city": "Thudiyalur", "addr:postcode": "641034", "addr:street": "Mettupalayam-Coimbatore Road", "amenity": "atm", "brand": "State Bank of India", "brand:en": "State Bank of India", "brand:wikidata": "Q1340361", "currency:INR": "yes", "drive_through": "no", "indoor": "yes", "name": "State Bank of India", "note": "Contributors are requested to not edit the \"brand\", \"brand:en\", \"brand:wikidata\", \"operator\", \"operator:en\" and \"operator:wikidata\" tags. (2025/03/03)", "opening_hours": "24/7", "operator": "State Bank of India", "operator:en": "State Bank of India", "operator:wikidata": "Q1340361", "short_name": "SBI"}}, {"type": "node", "id": 4036191705, "lat": 11.1131949, "lon": 76.9359821}, {"type": "node", "id": 4036195245, "lat": 11.1163071, "lon": 76.9358141}, {"type": "node", "id": 4132229797, "lat": 11.0068704, "lon": 76.9850759, "tags": {"amenity": "atm", "brand": "Syndicate Bank", "brand:wikidata": "Q2004088", "brand:wikipedia": "en:Syndicate Bank", "name": "Syndicate Bank", "opening_hours": "24/7", "operator": "Syndicate Bank", "operator:wikidata": "Q2004088", "operator:wikipedia": "en:Syndicate Bank"}}, {"type": "node", "id": 4134915053, "lat": 11.0090849, "lon": 76.984613, "tags": {"amenity": "bank", "brand": "HDFC Bank", "brand:wikidata": "Q631047", "brand:wikipedia": "en:HDFC Bank", "building": "yes", "name": "HDFC Bank", "short_name": "HDFC", "website": "https://www.hdfcbank.com"}}, {"type": "node", "id": 4235045990, "lat": 10.994968, "lon": 76.9730421, "tags": {"amenity": "atm", "operator": "Lakshmi villas bank"}}, {"type": "node", "id": 4235060389, "lat": 10.9950366, "lon": 76.9737163, "tags": {"amenity": "atm", "brand": "IDBI Bank", "brand:wikidata": "Q3633485", "brand:wikipedia": "en:IDBI Bank", "name": "IDBI Bank", "operator": "IDBI Bank", "operator:wikidata": "Q3633485", "operator:wikipedia": "en:IDBI Bank", "short_name": "IDBI"}}, {"type": "node", "id": 4235060589, "lat": 10.9948865, "lon": 76.9717168, "tags": {"addr:postcode": "641018", "addr:street": "Tiruchi Road", "amenity": "bank", "brand": "Yes Bank", "brand:wikidata": "Q2040394", "brand:wikipedia": "en:Yes Bank", "name": "Yes Bank", "name:en": "YES Bank", "website": "https://www.yesbank.in"}}, {"type": "node", "id": 4271855293, "lat": 11.0250245, "lon": 77.0117906, "tags": {"addr:street": "Avinashi Road", "amenity": "bank", "name": "Dhanalaxmi Bank"}}, {"type": "node", "id": 4288509873, "lat": 11.0133678, "lon": 76.9367436, "tags": {"amenity": "bank", "atm": "yes", "brand": "State Bank of India", "brand:wikidata": "Q1340361", "brand:wikipedia": "en:State Bank of India", "cash_in": "yes", "name": "State Bank of India", "opening_hours": "Mo-Fr 10:00-16:00; Sa[1,3,5] 10:00-13:00; Sa[2,4] off; Su off; PH off", "short_name": "SBI", "website": "https://www.sbi.co.in"}}, {"type": "node", "id": 4329521391, "lat": 11.0286067, "lon": 76.901891, "tags": {"amenity": "bank", "brand": "ICICI Bank", "brand:wikidata": "Q1653258", "name": "ICICI Bank", "name:en": "ICICI Bank", "short_name": "ICICI", "website": "https://www.icicibank.com"}}, {"type": "node", "id": 4329521392, "lat": 11.0285165, "lon": 76.9018882, "tags": {"amenity": "atm", "brand": "ICICI Bank", "brand:en": "ICICI Bank", "brand:wikidata": "Q1653258", "currency:INR": "yes", "drive_through": "no", "indoor": "yes", "name": "ICICI Bank", "note": "Contributors are requested to not edit the \"brand\", \"brand:en\", \"brand:wikidata\", \"operator\", \"operator:en\" and \"operator:wikidata\" tags. (2025/03/03)", "opening_hours": "24/7", "operator": "ICICI Bank", "operator:en": "ICICI Bank", "operator:wikidata": "Q1653258", "short_name": "ICICI"}}, {"type": "node", "id": 4329534690, "lat": 11.0132832, "lon": 76.9106167, "tags": {"amenity": "bank", "name": "Co-operative Credit Society (e-centre)"}}, {"type": "node", "id": 4329536291, "lat": 11.0287438, "lon": 76.9018624, "tags": {"amenity": "atm", "brand": "City Union Bank", "brand:en": "City Union Bank", "brand:hi": "\u0938\u093f\u091f\u0940 \u092f\u0942\u0928\u093f\u092f\u0928 \u092c\u0948\u0902\u0915", "brand:ta": "\u0b9a\u0bbf\u0b9f\u0bcd\u0b9f\u0bbf \u0baf\u0bc2\u0ba9\u0bbf\u0baf\u0ba9\u0bcd \u0bb5\u0b99\u0bcd\u0b95\u0bbf", "brand:wikidata": "Q2040264", "name": "City Union Bank", "name:en": "City Union Bank", "name:hi": "\u0938\u093f\u091f\u0940 \u092f\u0942\u0928\u093f\u092f\u0928 \u092c\u0948\u0902\u0915", "name:ta": "\u0b9a\u0bbf\u0b9f\u0bcd\u0b9f\u0bbf \u0baf\u0bc2\u0ba9\u0bbf\u0baf\u0ba9\u0bcd \u0bb5\u0b99\u0bcd\u0b95\u0bbf", "operator": "City Union Bank", "operator:wikidata": "Q2040264", "short_name": "CUB"}}, {"type": "node", "id": 4373064802, "lat": 11.0234635, "lon": 76.9100079}, {"type": "node", "id": 4373090593, "lat": 11.0149091, "lon": 76.9491827, "tags": {"amenity": "atm", "brand": "Corporation Bank", "brand:wikidata": "Q2003387", "brand:wikipedia": "en:Corporation Bank", "name": "Corporation Bank", "name:en": "Corporation Bank", "operator": "Corporation Bank", "operator:wikidata": "Q2003387", "operator:wikipedia": "en:Corporation Bank"}}, {"type": "node", "id": 4379109690, "lat": 11.0259109, "lon": 76.9062314, "tags": {"amenity": "atm", "brand": "HDFC Bank", "brand:en": "HDFC Bank", "brand:wikidata": "Q631047", "currency:INR": "yes", "drive_through": "no", "indoor": "yes", "name": "HDFC Bank", "note": "Contributors are requested to not edit the \"brand\", \"brand:en\", \"brand:wikidata\", \"operator\", \"operator:en\" and \"operator:wikidata\" tags. (2025/03/03)", "opening_hours": "24/7", "operator": "HDFC Bank", "operator:en": "HDFC Bank", "operator:wikidata": "Q631047", "short_name": "HDFC"}}, {"type": "node", "id": 4379170291, "lat": 11.0250059, "lon": 77.0116823, "tags": {"amenity": "atm", "brand": "Dhanlaxmi Bank", "brand:wikidata": "Q2040440", "brand:wikipedia": "en:Dhanlaxmi Bank", "name": "Dhanlaxmi Bank", "name:en": "Dhanlaxmi Bank", "operator": "Dhanlaxmi Bank", "operator:wikidata": "Q2040440", "operator:wikipedia": "en:Dhanlaxmi Bank"}}, {"type": "node", "id": 4379178489, "lat": 11.0234571, "lon": 76.9099736, "tags": {"amenity": "atm", "brand": "South Indian Bank", "brand:wikidata": "Q2044973", "name": "South Indian Bank", "name:en": "South Indian bank", "opening_hours": "24/7", "operator": "South Indian Bank", "operator:wikidata": "Q2044973"}}, {"type": "node", "id": 4379178989, "lat": 11.0255585, "lon": 76.9063686, "tags": {"amenity": "atm", "brand": "State Bank of India", "brand:en": "State Bank of India", "brand:wikidata": "Q1340361", "currency:INR": "yes", "drive_through": "no", "indoor": "yes", "name": "State Bank of India", "note": "Contributors are requested to not edit the \"brand\", \"brand:en\", \"brand:wikidata\", \"operator\", \"operator:en\" and \"operator:wikidata\" tags. (2025/03/03)", "opening_hours": "24/7", "operator": "State Bank of India", "operator:en": "State Bank of India", "operator:wikidata": "Q1340361", "short_name": "SBI"}}, {"type": "node", "id": 4405255789, "lat": 11.0252977, "lon": 76.9022222, "tags": {"amenity": "atm", "name:en": "United Bank of India"}}, {"type": "node", "id": 4426180467, "lat": 11.06477, "lon": 76.9438706, "tags": {"amenity": "bank", "atm": "yes", "brand": "Repco Bank", "brand:wikidata": "Q18394050", "name": "Repco Bank", "opening_hours": "Mo-Fr 10:00-16:00; Sa[1,3,5] 10:00-13:00; Sa[2,4] off; Su off; PH off"}}, {"type": "node", "id": 4428935398, "lat": 11.0285867, "lon": 76.8974318, "tags": {"addr:street": "Maruthamalai Road", "amenity": "bank", "name:en": "Federal Bank"}}, {"type": "node", "id": 4428976989, "lat": 11.0285939, "lon": 76.8974935, "tags": {"amenity": "atm", "operator": "Federal Bank"}}, {"type": "node", "id": 4456065693, "lat": 11.0247777, "lon": 76.9060609, "tags": {"addr:street": "Thondamuthur Main road", "amenity": "bank", "name": "Union Bank", "opening_hours": "Mo-Sa 10:00-18:00"}}, {"type": "node", "id": 4456100791, "lat": 11.0251192, "lon": 76.9008472, "tags": {"amenity": "atm", "operator": "Andhra Bank"}}, {"type": "node", "id": 4456101289, "lat": 11.0259882, "lon": 76.9062153, "tags": {"amenity": "atm", "brand": "Axis Bank", "brand:wikidata": "Q2003549", "name": "Axis Bank", "operator": "Axis Bank", "operator:wikidata": "Q2003549"}}, {"type": "node", "id": 4510192689, "lat": 11.0219222, "lon": 76.9148968, "tags": {"amenity": "atm", "brand": "Indian Overseas Bank", "brand:wikidata": "Q2003611", "name": "Indian Overseas Bank", "operator": "Indian Overseas Bank", "operator:wikidata": "Q2003611"}}, {"type": "node", "id": 4517355604, "lat": 11.008244, "lon": 76.97052, "tags": {"amenity": "atm", "brand": "State Bank of India", "brand:en": "State Bank of India", "brand:wikidata": "Q1340361", "brand:wikipedia": "en:State Bank of India", "currency:INR": "yes", "drive_through": "no", "indoor": "yes", "name": "State Bank of India", "note": "Contributors are requested to not edit the \"brand\", \"brand:en\", \"brand:wikidata\", \"operator\", \"operator:en\" and \"operator:wikidata\" tags. (2025/03/03)", "opening_hours": "24/7", "operator": "State Bank of India", "operator:en": "State Bank of India", "operator:wikidata": "Q1340361", "operator:wikipedia": "en:State Bank of India", "short_name": "SBI"}}, {"type": "node", "id": 4571630634, "lat": 10.9880299, "lon": 76.9377131, "tags": {"addr:city": "coimbatore", "addr:postcode": "641026", "addr:street": "Selcapuram", "amenity": "bank", "atm": "yes", "brand": "Tamilnad Mercantile Bank Limited", "brand:wikidata": "Q2044991", "name": "Tamilnad Mercantile Bank Limited"}}, {"type": "node", "id": 4571630635, "lat": 10.9877987, "lon": 76.9377631, "tags": {"addr:city": "coimbatore", "addr:postcode": "641026", "addr:street": "Selvapuram main road", "amenity": "bank", "atm": "yes", "brand": "Canara Bank", "brand:en": "Canara Bank", "brand:hi": "\u0915\u0947\u0928\u0930\u093e \u092c\u0948\u0902\u0915", "brand:kn": "\u0c95\u0cc6\u0ca8\u0cb0\u0cbe \u0cac\u0ccd\u0caf\u0cbe\u0c82\u0c95\u0ccd", "brand:pa": "\u0a15\u0a47\u0a28\u0a30\u0a3e \u0a2c\u0a48\u0a02\u0a15", "brand:pnb": "\u06a9\u06cc\u0646\u0631\u0627 \u0628\u06cc\u0646\u06a9", "brand:ur": "\u06a9\u06cc\u0646\u0631\u0627 \u0628\u06cc\u0646\u06a9", "brand:wikidata": "Q2003777", "brand:wikipedia": "en:Canara Bank", "brand:wikipedia:pa": "\u0a15\u0a47\u0a28\u0a30\u0a3e \u0a2c\u0a48\u0a02\u0a15", "name": "Canara Bank", "name:en": "Canara Bank", "name:hi": "\u0915\u0947\u0928\u0930\u093e \u092c\u0948\u0902\u0915", "name:kn": "\u0c95\u0cc6\u0ca8\u0cb0\u0cbe \u0cac\u0ccd\u0caf\u0cbe\u0c82\u0c95\u0ccd", "name:pa": "\u0a15\u0a47\u0a28\u0a30\u0a3e \u0a2c\u0a48\u0a02\u0a15", "name:pnb": "\u06a9\u06cc\u0646\u0631\u0627 \u0628\u06cc\u0646\u06a9", "name:ur": "\u06a9\u06cc\u0646\u0631\u0627 \u0628\u06cc\u0646\u06a9", "website": "https://www.canarabank.com/"}}, {"type": "node", "id": 4571630649, "lat": 10.9877637, "lon": 76.9379558, "tags": {"addr:city": "coimbatore", "addr:postcode": "641026", "addr:street": "perur main road", "amenity": "bank", "atm": "yes", "brand": "Karur Vysya Bank", "brand:wikidata": "Q6373724", "name": "Karur Vysya Bank", "opening_hours": "24/7"}}, {"type": "node", "id": 4575378691, "lat": 11.024346, "lon": 76.8986263, "tags": {"amenity": "atm", "operator": "Indusind"}}, {"type": "node", "id": 4575477590, "lat": 11.0138643, "lon": 76.9535094, "tags": {"amenity": "atm", "brand": "IndusInd Bank", "brand:wikidata": "Q2040323", "operator": "IndusInd Bank", "operator:wikidata": "Q2040323"}}, {"type": "node", "id": 4575565289, "lat": 11.0138556, "lon": 76.9534236, "tags": {"amenity": "bank", "brand": "IndusInd Bank", "brand:wikidata": "Q2040323", "name": "IndusInd Bank"}}, {"type": "node", "id": 4583580499, "lat": 11.0200213, "lon": 76.9397613, "tags": {"amenity": "atm", "brand": "ICICI Bank", "brand:en": "ICICI Bank", "brand:wikidata": "Q1653258", "brand:wikipedia": "en:ICICI Bank", "currency:INR": "yes", "drive_through": "no", "indoor": "yes", "name": "ICICI Bank", "note": "Contributors are requested to not edit the \"brand\", \"brand:en\", \"brand:wikidata\", \"operator\", \"operator:en\" and \"operator:wikidata\" tags. (2025/03/03)", "opening_hours": "24/7", "operator": "ICICI Bank", "operator:en": "ICICI Bank", "operator:wikidata": "Q1653258", "operator:wikipedia": "en:ICICI Bank", "short_name": "ICICI"}}, {"type": "node", "id": 4632113894, "lat": 11.0127599, "lon": 76.9860551, "tags": {"amenity": "bank", "name:en": "State Bank of Tranancore"}}, {"type": "node", "id": 4696520294, "lat": 11.001921, "lon": 77.0283994, "tags": {"amenity": "atm", "opening_hours": "24/7", "operator": "Canara"}}, {"type": "node", "id": 4739783337, "lat": 11.0288936, "lon": 76.8958119, "tags": {"addr:postcode": "641046", "addr:street": "Maruthamalai Road", "amenity": "bank", "atm": "yes", "brand": "Indian Overseas Bank", "brand:wikidata": "Q2003611", "brand:wikipedia": "en:Indian Overseas Bank", "name": "Indian Overseas Bank", "name:en": "Indian Overseas Bank", "opening_hours": "09:00-16:00", "short_name": "IOB", "website": "https://www.iob.in"}}, {"type": "node", "id": 4878934410, "lat": 11.0473611, "lon": 76.9475166, "tags": {"amenity": "bank", "atm": "yes", "brand": "Canara Bank", "brand:en": "Canara Bank", "brand:hi": "\u0915\u0947\u0928\u0930\u093e \u092c\u0948\u0902\u0915", "brand:kn": "\u0c95\u0cc6\u0ca8\u0cb0\u0cbe \u0cac\u0ccd\u0caf\u0cbe\u0c82\u0c95\u0ccd", "brand:pa": "\u0a15\u0a47\u0a28\u0a30\u0a3e \u0a2c\u0a48\u0a02\u0a15", "brand:pnb": "\u06a9\u06cc\u0646\u0631\u0627 \u0628\u06cc\u0646\u06a9", "brand:ur": "\u06a9\u06cc\u0646\u0631\u0627 \u0628\u06cc\u0646\u06a9", "brand:wikidata": "Q2003777", "brand:wikipedia": "en:Canara Bank", "brand:wikipedia:pa": "\u0a15\u0a47\u0a28\u0a30\u0a3e \u0a2c\u0a48\u0a02\u0a15", "name": "Canara Bank", "name:en": "Canara Bank", "name:hi": "\u0915\u0947\u0928\u0930\u093e \u092c\u0948\u0902\u0915", "name:kn": "\u0c95\u0cc6\u0ca8\u0cb0\u0cbe \u0cac\u0ccd\u0caf\u0cbe\u0c82\u0c95\u0ccd", "name:pa": "\u0a15\u0a47\u0a28\u0a30\u0a3e \u0a2c\u0a48\u0a02\u0a15", "name:pnb": "\u06a9\u06cc\u0646\u0631\u0627 \u0628\u06cc\u0646\u06a9", "name:ta": "\u0b95\u0ba9\u0bb0\u0bbe \u0bb5\u0b99\u0bcd\u0b95\u0bbf", "name:ur": "\u06a9\u06cc\u0646\u0631\u0627 \u0628\u06cc\u0646\u06a9", "opening_hours": "Mo-Fr 10:00-16:00; Sa[1,5,3] 10:00-13:00; Sa[2,4] off; Su off; PH off"}}, {"type": "node", "id": 4878934411, "lat": 11.0139032, "lon": 76.9550029, "tags": {"amenity": "bank", "brand": "CDCC bank"}}, {"type": "node", "id": 4878934414, "lat": 11.0043615, "lon": 76.9557815, "tags": {"amenity": "bank", "brand": "State Bank of India", "brand:wikidata": "Q1340361", "brand:wikipedia": "en:State Bank of India", "name": "State Bank of India", "short_name": "SBI"}}, {"type": "node", "id": 5300436330, "lat": 10.9438828, "lon": 76.9532082, "tags": {"amenity": "atm", "brand": "HDFC Bank", "brand:en": "HDFC Bank", "brand:wikidata": "Q631047", "currency:INR": "yes", "drive_through": "no", "indoor": "yes", "name": "HDFC Bank", "note": "Contributors are requested to not edit the \"brand\", \"brand:en\", \"brand:wikidata\", \"operator\", \"operator:en\" and \"operator:wikidata\" tags. (2025/03/03)", "opening_hours": "24/7", "operator": "HDFC Bank", "operator:en": "HDFC Bank", "operator:wikidata": "Q631047", "short_name": "HDFC"}}, {"type": "node", "id": 5300436490, "lat": 10.9440432, "lon": 76.9533024, "tags": {"amenity": "atm", "brand": "State Bank of India", "brand:en": "State Bank of India", "brand:wikidata": "Q1340361", "currency:INR": "yes", "drive_through": "no", "indoor": "yes", "name": "State Bank of India", "note": "Contributors are requested to not edit the \"brand\", \"brand:en\", \"brand:wikidata\", \"operator\", \"operator:en\" and \"operator:wikidata\" tags. (2025/03/03)", "opening_hours": "24/7", "operator": "State Bank of India", "operator:en": "State Bank of India", "operator:wikidata": "Q1340361", "short_name": "SBI"}}, {"type": "node", "id": 5338396394, "lat": 10.9900566, "lon": 76.9611682, "tags": {"amenity": "atm", "brand": "Axis Bank", "brand:wikidata": "Q2003549", "brand:wikipedia": "en:Axis Bank", "name": "Axis Bank", "operator": "Axis Bank", "operator:wikidata": "Q2003549", "operator:wikipedia": "en:Axis Bank"}}, {"type": "node", "id": 5338396396, "lat": 10.9708661, "lon": 76.8931448, "tags": {"amenity": "bank", "brand": "KVB"}}, {"type": "node", "id": 5338396651, "lat": 10.9900284, "lon": 76.9611954, "tags": {"amenity": "atm", "brand": "IndusInd Bank", "brand:wikidata": "Q2040323", "name": "IndusInd Bank", "operator": "IndusInd Bank", "operator:wikidata": "Q2040323"}}, {"type": "node", "id": 5338402886, "lat": 10.9755365, "lon": 76.915205, "tags": {"amenity": "atm", "brand": "BoI"}}, {"type": "node", "id": 5338402921, "lat": 10.9900153, "lon": 76.9612049, "tags": {"amenity": "atm", "brand": "HDFC Bank", "brand:en": "HDFC Bank", "brand:wikidata": "Q631047", "brand:wikipedia": "en:HDFC Bank", "currency:INR": "yes", "drive_through": "no", "indoor": "yes", "name": "HDFC Bank", "note": "Contributors are requested to not edit the \"brand\", \"brand:en\", \"brand:wikidata\", \"operator\", \"operator:en\" and \"operator:wikidata\" tags. (2025/03/03)", "opening_hours": "24/7", "operator": "HDFC Bank", "operator:en": "HDFC Bank", "operator:wikidata": "Q631047", "operator:wikipedia": "en:HDFC Bank", "short_name": "HDFC"}}, {"type": "node", "id": 5434481622, "lat": 11.025421, "lon": 76.9061625, "tags": {"amenity": "atm", "brand": "State Bank of India", "brand:en": "State Bank of India", "brand:wikidata": "Q1340361", "currency:INR": "yes", "drive_through": "no", "indoor": "yes", "name": "State Bank of India", "note": "Contributors are requested to not edit the \"brand\", \"brand:en\", \"brand:wikidata\", \"operator\", \"operator:en\" and \"operator:wikidata\" tags. (2025/03/03)", "opening_hours": "24/7", "operator": "State Bank of India", "operator:en": "State Bank of India", "operator:wikidata": "Q1340361", "short_name": "SBI"}}, {"type": "node", "id": 5502385625, "lat": 10.9388721, "lon": 76.9521837}, {"type": "node", "id": 5502385626, "lat": 10.9386824, "lon": 76.9522266}, {"type": "node", "id": 5502385627, "lat": 10.938635, "lon": 76.9523124}, {"type": "node", "id": 5502385628, "lat": 10.9388457, "lon": 76.9523553}, {"type": "node", "id": 5516401422, "lat": 11.0248278, "lon": 76.9027902, "tags": {"amenity": "atm", "operator": "Canara Bank"}}, {"type": "node", "id": 5585526137, "lat": 11.023704, "lon": 77.0023692, "tags": {"amenity": "bank", "brand": "Central Bank of India", "brand:wikidata": "Q2007090", "brand:wikipedia": "en:Central Bank of India", "name": "Central Bank of India"}}, {"type": "node", "id": 5585526151, "lat": 10.9926022, "lon": 76.9979308, "tags": {"amenity": "bank", "brand": "State Bank of India", "brand:wikidata": "Q1340361", "brand:wikipedia": "en:State Bank of India", "name": "State Bank of India", "short_name": "SBI"}}, {"type": "node", "id": 5643926903, "lat": 11.0028004, "lon": 77.0507674, "tags": {"amenity": "bank", "brand": "Karur Vilas Vank"}}, {"type": "node", "id": 5643927387, "lat": 11.0014276, "lon": 77.0351769, "tags": {"amenity": "bank", "brand": "State Bank of India", "brand:wikidata": "Q1340361", "brand:wikipedia": "en:State Bank of India", "name": "State Bank of India", "short_name": "SBI"}}, {"type": "node", "id": 5714621622, "lat": 11.0158676, "lon": 77.0234463, "tags": {"amenity": "atm", "brand": "ICICI Bank", "brand:en": "ICICI Bank", "brand:wikidata": "Q1653258", "brand:wikipedia": "en:ICICI Bank", "currency:INR": "yes", "drive_through": "no", "indoor": "yes", "name": "ICICI Bank", "note": "Contributors are requested to not edit the \"brand\", \"brand:en\", \"brand:wikidata\", \"operator\", \"operator:en\" and \"operator:wikidata\" tags. (2025/03/03)", "opening_hours": "24/7", "operator": "ICICI Bank", "operator:en": "ICICI Bank", "operator:wikidata": "Q1653258", "operator:wikipedia": "en:ICICI Bank", "short_name": "ICICI"}}, {"type": "node", "id": 5714624221, "lat": 11.0157574, "lon": 77.0234625, "tags": {"amenity": "atm", "brand": "Axis Bank", "brand:wikidata": "Q2003549", "brand:wikipedia": "en:Axis Bank", "name": "Axis Bank", "opening_hours": "24/7", "operator": "Axis Bank", "operator:wikidata": "Q2003549", "operator:wikipedia": "en:Axis Bank"}}, {"type": "node", "id": 5802835356, "lat": 11.0151494, "lon": 76.9676182, "tags": {"amenity": "atm", "brand": "Axis Bank", "brand:wikidata": "Q2003549", "brand:wikipedia": "en:Axis Bank", "name": "Axis Bank", "operator": "Axis Bank", "operator:wikidata": "Q2003549", "operator:wikipedia": "en:Axis Bank"}}, {"type": "node", "id": 5802842854, "lat": 11.0164675, "lon": 76.9632872, "tags": {"amenity": "atm", "brand": "Dhanlaxmi Bank", "brand:wikidata": "Q2040440", "brand:wikipedia": "en:Dhanlaxmi Bank", "name": "Dhanlaxmi Bank", "operator": "Dhanlaxmi Bank", "operator:wikidata": "Q2040440", "operator:wikipedia": "en:Dhanlaxmi Bank"}}, {"type": "node", "id": 5802842955, "lat": 11.0171427, "lon": 76.9643142, "tags": {"amenity": "atm", "brand": "Indian Overseas Bank", "brand:wikidata": "Q2003611", "brand:wikipedia": "en:Indian Overseas Bank", "name": "Indian Overseas Bank", "operator": "Indian Overseas Bank", "operator:wikidata": "Q2003611", "operator:wikipedia": "en:Indian Overseas Bank"}}, {"type": "node", "id": 5824962253, "lat": 11.013299, "lon": 76.9646084, "tags": {"amenity": "atm", "brand": "ICICI Bank", "brand:en": "ICICI Bank", "brand:wikidata": "Q1653258", "brand:wikipedia": "en:ICICI Bank", "currency:INR": "yes", "drive_through": "no", "indoor": "yes", "name": "ICICI Bank", "note": "Contributors are requested to not edit the \"brand\", \"brand:en\", \"brand:wikidata\", \"operator\", \"operator:en\" and \"operator:wikidata\" tags. (2025/03/03)", "opening_hours": "24/7", "operator": "ICICI Bank", "operator:en": "ICICI Bank", "operator:wikidata": "Q1653258", "operator:wikipedia": "en:ICICI Bank", "short_name": "ICICI"}}, {"type": "node", "id": 5978829297, "lat": 11.0787396, "lon": 76.9417537, "tags": {"amenity": "atm", "opening_hours": "24/7", "operator": "AXIS BANK ATM"}}, {"type": "node", "id": 5978829593, "lat": 11.0784754, "lon": 76.9418242, "tags": {"amenity": "atm", "brand": "ICICI Bank", "brand:en": "ICICI Bank", "brand:wikidata": "Q1653258", "currency:INR": "yes", "drive_through": "no", "indoor": "yes", "note": "Contributors are requested to not edit the \"brand\", \"brand:en\", \"brand:wikidata\", \"operator\", \"operator:en\" and \"operator:wikidata\" tags. (2025/03/03)", "opening_hours": "24/7", "operator": "ICICI Bank", "operator:en": "ICICI Bank", "operator:wikidata": "Q1653258", "short_name": "ICICI"}}, {"type": "node", "id": 6042990975, "lat": 11.0782775, "lon": 76.9414293, "tags": {"addr:city": "coimbatore", "addr:district": "coimbatore", "addr:postcode": "641034", "addr:state": "tamilnadu", "addr:street": "Mettupalayam-Coimbatore Road", "addr:suburb": "thudiyalur", "amenity": "bank", "atm": "yes", "brand": "Indian Bank", "brand:wikidata": "Q2003789", "cash_in": "yes", "level": "0", "name": "Indian Bank", "name:ta": "\u0b87\u0ba8\u0bcd\u0ba4\u0bbf\u0baf\u0ba9\u0bcd \u0bb5\u0b99\u0bcd\u0b95\u0bbf", "opening_hours": "Mo-Fr 10:00-16:00; Sa[1,3,5] 10:00-13:00; Sa[2,4] off; Su off; PH off"}}, {"type": "node", "id": 6120311560, "lat": 11.1126284, "lon": 76.9360002, "tags": {"amenity": "atm", "name": "Vijaya bank ATM", "name:ta": "\u0bb5\u0bbf\u0b9c\u0baf\u0bbe \u0bb5\u0b99\u0bcd\u0b95\u0bbf", "opening_hours": "Mo-Su 00:00-12:00"}}, {"type": "node", "id": 6170609271, "lat": 11.0699729, "lon": 76.9424637, "tags": {"addr:city": "coimbatore", "addr:country": "IN", "addr:district": "coimbatore", "addr:place": "Thudiyalur", "addr:street": "Coimbatore-Mettupalayam Road", "amenity": "bank", "atm": "yes", "brand": "City Union Bank", "brand:en": "City Union Bank", "brand:hi": "\u0938\u093f\u091f\u0940 \u092f\u0942\u0928\u093f\u092f\u0928 \u092c\u0948\u0902\u0915", "brand:ta": "\u0b9a\u0bbf\u0b9f\u0bcd\u0b9f\u0bbf \u0baf\u0bc2\u0ba9\u0bbf\u0baf\u0ba9\u0bcd \u0bb5\u0b99\u0bcd\u0b95\u0bbf", "brand:wikidata": "Q2040264", "cash_in": "yes", "level": "0", "name": "City Union Bank", "name:en": "City Union Bank", "name:hi": "\u0938\u093f\u091f\u0940 \u092f\u0942\u0928\u093f\u092f\u0928 \u092c\u0948\u0902\u0915", "name:ta": "\u0b9a\u0bbf\u0b9f\u0bcd\u0b9f\u0bbf \u0baf\u0bc2\u0ba9\u0bbf\u0baf\u0ba9\u0bcd \u0bb5\u0b99\u0bcd\u0b95\u0bbf", "short_name": "CUB", "source:amenity": "survey", "wheelchair": "no"}}, {"type": "node", "id": 6170626341, "lat": 11.0689506, "lon": 76.9425352, "tags": {"addr:city": "coimbatore", "addr:country": "IN", "addr:district": "coimbatore", "addr:postcode": "641034", "addr:street": "Coimbatore-Mettupalayam Road", "addr:suburb": "Thudiyalur", "amenity": "bank", "atm": "yes", "brand": "State Bank of India", "brand:wikidata": "Q1340361", "cash_in": "yes", "level": "0", "name": "State Bank of India", "name:ta": "\u0baa\u0bbe\u0bb0\u0ba4 \u0bb8\u0bcd\u0b9f\u0bc7\u0b9f\u0bcd \u0bb5\u0b99\u0bcd\u0b95\u0bbf", "opening_hours": "Mo-Fr 10:00-16:00; Sa[1,3,5] 10:00-13:00; Sa[2,4] off; Su off; PH off", "short_name": "SBI", "source:amenity": "survey", "wheelchair": "no"}}, {"type": "node", "id": 6170638099, "lat": 11.0698299, "lon": 76.9424905, "tags": {"addr:city": "coimbatore", "addr:country": "IN", "addr:district": "coimbatore", "addr:place": "Thudiyalur", "addr:postcode": "641034", "addr:street": "Coimbatore-Mettupalayam Road", "amenity": "bank", "atm": "yes", "brand": "Bank of Baroda", "brand:wikidata": "Q2003797", "level": "0", "name": "Bank of Baroda", "opening_hours": "Mo-Fr 10:00-16:00; Sa[1,3,5] 10:00-13:00; Sa[2,4] off; Su off; PH off", "source:ref": "survey", "wheelchair": "no"}}, {"type": "node", "id": 6174509724, "lat": 11.0053283, "lon": 76.9457861, "tags": {"amenity": "atm", "brand": "State Bank of India", "brand:en": "State Bank of India", "brand:wikidata": "Q1340361", "brand:wikipedia": "en:State Bank of India", "currency:INR": "yes", "drive_through": "no", "indoor": "yes", "name": "State Bank of India", "note": "Contributors are requested to not edit the \"brand\", \"brand:en\", \"brand:wikidata\", \"operator\", \"operator:en\" and \"operator:wikidata\" tags. (2025/03/03)", "opening_hours": "24/7", "operator": "State Bank of India", "operator:en": "State Bank of India", "operator:wikidata": "Q1340361", "operator:wikipedia": "en:State Bank of India", "short_name": "SBI"}}, {"type": "node", "id": 6174511986, "lat": 11.006907, "lon": 76.9524427, "tags": {"amenity": "atm", "brand": "Oriental Bank of Commerce", "brand:wikidata": "Q367008", "brand:wikipedia": "en:Oriental Bank of Commerce", "name": "Oriental Bank of Commerce", "operator": "Oriental Bank of Commerce", "operator:wikidata": "Q367008", "operator:wikipedia": "en:Oriental Bank of Commerce"}}, {"type": "node", "id": 6194302798, "lat": 11.0104526, "lon": 76.9756422, "tags": {"addr:city": "Coimbatore", "amenity": "bank", "atm": "yes", "brand": "State Bank of India", "brand:wikidata": "Q1340361", "brand:wikipedia": "en:State Bank of India", "drive_through": "yes", "name": "State Bank of India", "short_name": "SBI"}}, {"type": "node", "id": 6203327943, "lat": 11.0689956, "lon": 76.9425679, "tags": {"amenity": "atm", "brand": "State Bank of India", "brand:en": "State Bank of India", "brand:wikidata": "Q1340361", "cash_in": "yes", "currency:INR": "yes", "drive_through": "no", "indoor": "yes", "level": "0", "name": "State Bank of India", "note": "Contributors are requested to not edit the \"brand\", \"brand:en\", \"brand:wikidata\", \"operator\", \"operator:en\" and \"operator:wikidata\" tags. (2025/03/03)", "opening_hours": "24/7", "operator": "State Bank of India", "operator:en": "State Bank of India", "operator:wikidata": "Q1340361", "short_name": "SBI", "source:operator": "survey", "wheelchair": "no"}}, {"type": "node", "id": 6226211831, "lat": 11.027778, "lon": 76.9516596, "tags": {"amenity": "atm", "brand": "State Bank of India", "brand:en": "State Bank of India", "brand:wikidata": "Q1340361", "brand:wikipedia": "en:State Bank of India", "currency:INR": "yes", "drive_through": "no", "indoor": "yes", "level": "0", "name": "State Bank of India", "note": "Contributors are requested to not edit the \"brand\", \"brand:en\", \"brand:wikidata\", \"operator\", \"operator:en\" and \"operator:wikidata\" tags. (2025/03/03)", "opening_hours": "24/7", "operator": "State Bank of India", "operator:en": "State Bank of India", "operator:wikidata": "Q1340361", "operator:wikipedia": "en:State Bank of India", "short_name": "SBI", "wheelchair": "no"}}, {"type": "node", "id": 6241106370, "lat": 11.0075349, "lon": 77.0716092, "tags": {"amenity": "bank", "atm": "yes", "brand": "Indian Overseas Bank", "brand:wikidata": "Q2003611", "brand:wikipedia": "en:Indian Overseas Bank", "level": "0", "name": "Indian Overseas Bank", "opening_hours": "Mo-Fr 10:00-16:00; Sa[1,3,5] 10:00-13:00; Sa[2,4] off; Su off; PH off", "wheelchair": "no"}}, {"type": "node", "id": 6241127402, "lat": 10.9972143, "lon": 76.9963609, "tags": {"amenity": "atm", "brand": "Central Bank of India", "brand:wikidata": "Q2007090", "brand:wikipedia": "en:Central Bank of India", "level": "0", "name": "Central Bank of India", "opening_hours": "24/7", "operator": "Central Bank of India", "operator:wikidata": "Q2007090", "operator:wikipedia": "en:Central Bank of India", "wheelchair": "no"}}, {"type": "node", "id": 6241147194, "lat": 11.0043231, "lon": 76.9724171, "tags": {"amenity": "bank", "atm": "yes", "brand": "State Bank of India", "brand:wikidata": "Q1340361", "brand:wikipedia": "en:State Bank of India", "level": "0", "name": "State Bank of India", "opening_hours": "Mo-Fr 10:00-16:00; Sa[1,3,5] 10:00-13:00; Sa[2,4] off; Su off; PH off", "operator": "sbi", "short_name": "SBI", "source": "survey", "wheelchair": "no"}}, {"type": "node", "id": 6241152469, "lat": 11.0083413, "lon": 76.9667546, "tags": {"amenity": "atm", "brand": "State Bank of India", "brand:en": "State Bank of India", "brand:wikidata": "Q1340361", "brand:wikipedia": "en:State Bank of India", "currency:INR": "yes", "drive_through": "no", "indoor": "yes", "level": "0", "name": "State Bank of India", "note": "Contributors are requested to not edit the \"brand\", \"brand:en\", \"brand:wikidata\", \"operator\", \"operator:en\" and \"operator:wikidata\" tags. (2025/03/03)", "opening_hours": "24/7", "operator": "State Bank of India", "operator:en": "State Bank of India", "operator:wikidata": "Q1340361", "operator:wikipedia": "en:State Bank of India", "short_name": "SBI", "wheelchair": "no"}}, {"type": "node", "id": 6270756825, "lat": 11.0162782, "lon": 76.9695741, "tags": {"amenity": "atm", "brand": "State Bank of India", "brand:en": "State Bank of India", "brand:wikidata": "Q1340361", "brand:wikipedia": "en:State Bank of India", "currency:INR": "yes", "drive_through": "no", "indoor": "yes", "level": "0", "name": "State Bank of India", "note": "Contributors are requested to not edit the \"brand\", \"brand:en\", \"brand:wikidata\", \"operator\", \"operator:en\" and \"operator:wikidata\" tags. (2025/03/03)", "opening_hours": "24/7", "operator": "State Bank of India", "operator:en": "State Bank of India", "operator:wikidata": "Q1340361", "operator:wikipedia": "en:State Bank of India", "short_name": "SBI", "wheelchair": "no"}}, {"type": "node", "id": 6287355853, "lat": 11.0379552, "lon": 76.8788846, "tags": {"addr:place": "bharathiar university", "addr:street": "Maruthamalai Road", "amenity": "atm", "brand": "State Bank of India", "brand:en": "State Bank of India", "brand:wikidata": "Q1340361", "currency:INR": "yes", "drive_through": "no", "indoor": "yes", "level": "0", "name": "State Bank of India", "name:ta": "\u0baa\u0bbe\u0bb0\u0ba4 \u0bb8\u0bcd\u0b9f\u0bc7\u0b9f\u0bcd \u0bb5\u0b99\u0bcd\u0b95\u0bbf \u0b8f\u0b9f\u0bbf\u0b8e\u0bae\u0bcd", "note": "Contributors are requested to not edit the \"brand\", \"brand:en\", \"brand:wikidata\", \"operator\", \"operator:en\" and \"operator:wikidata\" tags. (2025/03/03)", "opening_hours": "24/7", "operator": "State Bank of India", "operator:en": "State Bank of India", "operator:wikidata": "Q1340361", "short_name": "SBI", "wheelchair": "no"}}, {"type": "node", "id": 6287512750, "lat": 11.0376888, "lon": 76.8792053, "tags": {"addr:district": "coimbatore", "addr:place": "bharathiar university", "addr:state": "tamilnadu", "addr:street": "Maruthamalai Road", "addr:street:ta": "\u0bae\u0bb0\u0bc1\u0ba4\u0bae\u0bb2\u0bc8 \u0b9a\u0bbe\u0bb2\u0bc8", "amenity": "atm", "brand": "bank of india", "level": "0", "opening_hours": "24/7", "operator": "boi", "wheelchair": "no"}}, {"type": "node", "id": 6317229035, "lat": 11.0224445, "lon": 76.9369015, "tags": {"amenity": "atm", "brand": "canara", "level": "0", "opening_hours": "24/7", "operator": "canara", "wheelchair": "no"}}, {"type": "node", "id": 6317234290, "lat": 11.0134637, "lon": 76.939759, "tags": {"amenity": "atm", "brand": "State Bank of India", "brand:en": "State Bank of India", "brand:wikidata": "Q1340361", "brand:wikipedia": "en:State Bank of India", "cash_in": "yes", "currency:INR": "yes", "drive_through": "no", "indoor": "yes", "level": "0", "name": "State Bank of India", "note": "Contributors are requested to not edit the \"brand\", \"brand:en\", \"brand:wikidata\", \"operator\", \"operator:en\" and \"operator:wikidata\" tags. (2025/03/03)", "opening_hours": "24/7", "operator": "State Bank of India", "operator:en": "State Bank of India", "operator:wikidata": "Q1340361", "operator:wikipedia": "en:State Bank of India", "short_name": "SBI", "wheelchair": "no"}}, {"type": "node", "id": 6346387093, "lat": 11.0134636, "lon": 76.9318399, "tags": {"addr:city": "coimbatore", "addr:district": "coimbatore", "addr:street": "Maruthamalai Road", "amenity": "atm", "brand": "Syndicate Bank", "brand:wikidata": "Q2004088", "brand:wikipedia": "en:Syndicate Bank", "cash_in": "no", "level": "0", "name": "Syndicate Bank", "opening_hours": "24/7", "operator": "Syndicate Bank", "operator:wikidata": "Q2004088", "operator:wikipedia": "en:Syndicate Bank", "wheelchair": "no"}}, {"type": "node", "id": 6383583959, "lat": 11.0773217, "lon": 76.9418856, "tags": {"addr:street": "Mettupalayam-Coimbatore Road", "amenity": "atm", "brand": "union bank", "level": "0", "opening_hours": "24/7", "wheelchair": "no"}}, {"type": "node", "id": 6383583960, "lat": 11.0773017, "lon": 76.9418895, "tags": {"addr:street": "Mettupalayam-Coimbatore Road", "amenity": "bank", "brand": "Union Bank of India", "brand:wikidata": "Q2004078", "brand:wikipedia": "en:Union Bank of India", "level": "0", "name": "Union Bank of India", "ref": "bing", "source:ref": "survey", "wheelchair": "no"}}, {"type": "node", "id": 6392119805, "lat": 11.0303896, "lon": 76.892011, "tags": {"amenity": "bank", "atm": "yes", "branch": "vadavalli", "brand": "Indian Overseas Bank", "brand:wikidata": "Q2003611", "brand:wikipedia": "en:Indian Overseas Bank", "level": "0", "name": "Indian Overseas Bank", "operator": "iob", "ref": "bing", "source": "survey", "source:ref": "survey", "wheelchair": "no"}}, {"type": "node", "id": 6392120750, "lat": 11.0355824, "lon": 76.8844017, "tags": {"amenity": "bank", "atm": "yes", "brand": "Bank of India", "brand:wikidata": "Q2004439", "brand:wikipedia": "en:Bank of India", "level": "0", "name": "Bank of India", "operator": "boi"}}, {"type": "node", "id": 6407874942, "lat": 11.0288463, "lon": 76.8961052}, {"type": "node", "id": 6407874943, "lat": 11.0288791, "lon": 76.8960319, "tags": {"amenity": "bank", "atm": "yes", "branch": "vadavalli", "brand": "Axis Bank", "brand:wikidata": "Q2003549", "brand:wikipedia": "en:Axis Bank", "level": "0", "name": "Axis Bank", "wheelchair": "no"}}, {"type": "node", "id": 6422099716, "lat": 11.0132845, "lon": 76.9318636, "tags": {"addr:city": "coimbatore", "addr:country": "IN", "addr:district": "coimbatore", "addr:place": "tnau", "addr:state": "tamilnadu", "addr:street": "Maruthamalai Road", "amenity": "atm", "brand": "State Bank of India", "brand:en": "State Bank of India", "brand:wikidata": "Q1340361", "brand:wikipedia": "en:State Bank of India", "cash_in": "no", "currency:INR": "yes", "drive_through": "no", "indoor": "yes", "level": "00", "name": "State Bank of India", "name:ta": "\u0ba4\u0bbe\u0ba9\u0bbf\u0baf\u0b99\u0bcd\u0b95\u0bbf \u0baa\u0ba3\u0baa\u0bcd\u0baa\u0b9f\u0bcd\u0b9f\u0bc1\u0bb5\u0bbe\u0b9f\u0bbe \u0b87\u0baf\u0ba8\u0bcd\u0ba4\u0bbf\u0bb0\u0bae\u0bcd", "note": "Contributors are requested to not edit the \"brand\", \"brand:en\", \"brand:wikidata\", \"operator\", \"operator:en\" and \"operator:wikidata\" tags. (2025/03/03)", "opening_hours": "24/7", "operator": "State Bank of India", "operator:en": "State Bank of India", "operator:wikidata": "Q1340361", "operator:wikipedia": "en:State Bank of India", "short_name": "SBI", "wheelchair": "no"}}, {"type": "node", "id": 6578420906, "lat": 11.0788138, "lon": 76.9419004, "tags": {"amenity": "atm", "brand": "UCO Bank", "brand:wikidata": "Q2005310", "level": "0", "name": "UCO Bank", "opening_hours": "24/7", "operator": "UCO Bank", "operator:wikidata": "Q2005310", "wheelchair": "no"}}, {"type": "node", "id": 6590113673, "lat": 11.1001027, "lon": 76.9384561, "tags": {"addr:country": "IN", "addr:district": "coimbatore", "addr:place": "Narasimhnaickenpalayam", "addr:street": "Coimbatore-Mettupalayam Road", "amenity": "bank", "atm": "yes", "branch": "Thoppampatti pirivu", "brand": "Andhra Bank", "brand:wikidata": "Q2003476", "name": "Andhra Bank"}}, {"type": "node", "id": 6604153353, "lat": 11.0871885, "lon": 76.9387161}, {"type": "node", "id": 6656261399, "lat": 11.1120101, "lon": 76.9357472, "tags": {"addr:city": "Narasimhnaickenpalayam", "addr:country": "IN", "addr:district": "coimbatore", "addr:state": "tamilnadu", "addr:street": "Coimbatore-Mettupalayam Road", "amenity": "bank", "atm": "yes", "branch": "Narasimhnaickenpalayam", "brand": "Syndicate Bank", "brand:wikidata": "Q2004088", "name": "Syndicate Bank", "source:ref": "survey"}}, {"type": "node", "id": 6699605087, "lat": 11.0171607, "lon": 76.9646768, "tags": {"addr:street": "Cross Cut Road", "amenity": "bank", "brand": "Indian Overseas Bank", "brand:wikidata": "Q2003611", "brand:wikipedia": "en:Indian Overseas Bank", "name": "Indian Overseas Bank", "name:en": "Indian Overseas Bank"}}, {"type": "node", "id": 7011978588, "lat": 11.0589076, "lon": 76.9448844, "tags": {"amenity": "atm", "brand": "State Bank of India", "brand:en": "State Bank of India", "brand:wikidata": "Q1340361", "currency:INR": "yes", "drive_through": "no", "indoor": "yes", "name": "State Bank of India", "note": "Contributors are requested to not edit the \"brand\", \"brand:en\", \"brand:wikidata\", \"operator\", \"operator:en\" and \"operator:wikidata\" tags. (2025/03/03)", "opening_hours": "24/7", "operator": "State Bank of India", "operator:en": "State Bank of India", "operator:wikidata": "Q1340361", "short_name": "SBI"}}, {"type": "node", "id": 7083345789, "lat": 11.0125532, "lon": 76.9860241, "tags": {"amenity": "bank", "brand": "State Bank of India", "brand:wikidata": "Q1340361", "brand:wikipedia": "en:State Bank of India", "name": "State Bank of India", "short_name": "SBI"}}, {"type": "node", "id": 7342392122, "lat": 11.0253938, "lon": 76.938236, "tags": {"amenity": "bank", "atm": "yes", "brand": "Corporation Bank", "brand:wikidata": "Q2003387", "brand:wikipedia": "en:Corporation Bank", "name": "Corporation Bank"}}, {"type": "node", "id": 7896751785, "lat": 11.0142031, "lon": 77.0187599, "tags": {"amenity": "atm", "brand": "Axis Bank", "brand:wikidata": "Q2003549", "name": "Axis Bank", "operator": "Axis Bank", "operator:wikidata": "Q2003549"}}, {"type": "node", "id": 7967908985, "lat": 11.020155, "lon": 77.0186856, "tags": {"amenity": "bank", "brand": "ICICI Bank", "brand:wikidata": "Q1653258", "brand:wikipedia": "en:ICICI Bank", "name": "ICICI Bank", "name:en": "ICICI", "short_name": "ICICI"}}, {"type": "node", "id": 8156851117, "lat": 11.0251206, "lon": 76.9007839, "tags": {"amenity": "bank", "brand": "Union Bank of India", "brand:wikidata": "Q2004078", "name": "Union Bank of India", "name:en": "Union Bank of India"}}, {"type": "node", "id": 8193620717, "lat": 11.0162413, "lon": 77.0233743, "tags": {"amenity": "atm", "brand": "Bank of Baroda", "brand:wikidata": "Q2003797", "brand:wikipedia": "en:Bank of Baroda", "name": "Bank of Baroda", "operator": "Bank of Baroda", "operator:wikidata": "Q2003797", "operator:wikipedia": "en:Bank of Baroda"}}, {"type": "node", "id": 8193620917, "lat": 11.0161475, "lon": 77.023379, "tags": {"addr:street": "Kamarajar Road", "amenity": "bank", "brand": "Bank of Baroda", "brand:wikidata": "Q2003797", "brand:wikipedia": "en:Bank of Baroda", "name": "Bank of Baroda", "name:en": "Bank of Baroda"}}, {"type": "node", "id": 8256683117, "lat": 10.9951054, "lon": 76.9749735, "tags": {"addr:street": "Tiruchi Road", "amenity": "bank", "brand": "Tamilnad Mercantile Bank Limited", "brand:wikidata": "Q2044991", "name": "Tamilnad Mercantile Bank Limited"}}, {"type": "node", "id": 8259703617, "lat": 10.9950802, "lon": 76.9748889, "tags": {"amenity": "atm", "brand": "Tamilnad Mercantile Bank Limited", "brand:wikidata": "Q2044991", "name": "Tamilnad Mercantile Bank Limited", "operator": "Tamilnad Mercantile Bank Limited", "operator:wikidata": "Q2044991"}}, {"type": "node", "id": 8320811208, "lat": 11.0647785, "lon": 76.9439076, "tags": {"addr:city": "COIMBATORE", "addr:housenumber": "171/4/1,1ST FLOOR,VELLAKINARU PIRIVU BUS STOP", "addr:postcode": "641029", "addr:street": "Mettupalayam-Coimbatore Road", "amenity": "bank", "name": "LIC HOUSING FINANCE LTD", "opening_hours": "Mo-Sa 10:00-17:00", "operator": "HOUSING FINANCE COMPANY"}}, {"type": "node", "id": 8364209618, "lat": 11.0200283, "lon": 77.0187192, "tags": {"amenity": "atm", "brand": "ICICI Bank", "brand:en": "ICICI Bank", "brand:wikidata": "Q1653258", "brand:wikipedia": "en:ICICI Bank", "currency:INR": "yes", "drive_through": "no", "indoor": "yes", "name": "ICICI Bank", "note": "Contributors are requested to not edit the \"brand\", \"brand:en\", \"brand:wikidata\", \"operator\", \"operator:en\" and \"operator:wikidata\" tags. (2025/03/03)", "opening_hours": "24/7", "operator": "ICICI Bank", "operator:en": "ICICI Bank", "operator:wikidata": "Q1653258", "operator:wikipedia": "en:ICICI Bank", "short_name": "ICICI"}}, {"type": "node", "id": 8928301411, "lat": 11.0405246, "lon": 77.0263038}, {"type": "node", "id": 8928301412, "lat": 11.0404851, "lon": 77.0263048}, {"type": "node", "id": 8928301413, "lat": 11.0404861, "lon": 77.0263481}, {"type": "node", "id": 8928301414, "lat": 11.0405255, "lon": 77.0263471}, {"type": "node", "id": 9264474608, "lat": 11.0004761, "lon": 76.9736382, "tags": {"amenity": "atm", "brand": "Canara Bank", "brand:en": "Canara Bank", "brand:hi": "\u0915\u0947\u0928\u0930\u093e \u092c\u0948\u0902\u0915", "brand:kn": "\u0c95\u0cc6\u0ca8\u0cb0\u0cbe \u0cac\u0ccd\u0caf\u0cbe\u0c82\u0c95\u0ccd", "brand:pa": "\u0a15\u0a47\u0a28\u0a30\u0a3e \u0a2c\u0a48\u0a02\u0a15", "brand:pnb": "\u06a9\u06cc\u0646\u0631\u0627 \u0628\u06cc\u0646\u06a9", "brand:ur": "\u06a9\u06cc\u0646\u0631\u0627 \u0628\u06cc\u0646\u06a9", "brand:wikidata": "Q2003777", "name": "Canara Bank", "name:en": "Canara Bank", "name:hi": "\u0915\u0947\u0928\u0930\u093e \u092c\u0948\u0902\u0915", "name:kn": "\u0c95\u0cc6\u0ca8\u0cb0\u0cbe \u0cac\u0ccd\u0caf\u0cbe\u0c82\u0c95\u0ccd", "name:pa": "\u0a15\u0a47\u0a28\u0a30\u0a3e \u0a2c\u0a48\u0a02\u0a15", "name:pnb": "\u06a9\u06cc\u0646\u0631\u0627 \u0628\u06cc\u0646\u06a9", "name:ur": "\u06a9\u06cc\u0646\u0631\u0627 \u0628\u06cc\u0646\u06a9", "operator": "Canara Bank", "operator:wikidata": "Q2003777"}}, {"type": "node", "id": 9318480044, "lat": 10.9958373, "lon": 76.9778587, "tags": {"amenity": "atm", "brand": "ESAF Small Finance Bank", "brand:wikidata": "Q28173964", "brand:wikipedia": "en:ESAF Small Finance Bank", "name": "ESAF Small Finance Bank", "operator": "ESAF Small Finance Bank", "operator:wikidata": "Q28173964", "operator:wikipedia": "en:ESAF Small Finance Bank"}}, {"type": "node", "id": 10292831865, "lat": 11.0405776, "lon": 76.8785468, "tags": {"amenity": "bank", "branch": "Bharathiar University", "brand": "Bank of India", "brand:wikidata": "Q2004439", "level": "0", "name": "Bank of India"}}, {"type": "node", "id": 10895367241, "lat": 11.0096292, "lon": 77.0238146, "tags": {"amenity": "atm", "brand": "State Bank of India", "brand:en": "State Bank of India", "brand:wikidata": "Q1340361", "currency:INR": "yes", "drive_through": "no", "indoor": "yes", "level": "0", "name": "State Bank of India", "note": "Contributors are requested to not edit the \"brand\", \"brand:en\", \"brand:wikidata\", \"operator\", \"operator:en\" and \"operator:wikidata\" tags. (2025/03/03)", "opening_hours": "24/7", "operator": "State Bank of India", "operator:en": "State Bank of India", "operator:wikidata": "Q1340361", "short_name": "SBI"}}, {"type": "node", "id": 11402979788, "lat": 11.0455813, "lon": 77.0375337}, {"type": "node", "id": 11402979789, "lat": 11.0455625, "lon": 77.0377536}, {"type": "node", "id": 11402979790, "lat": 11.0454349, "lon": 77.0377364}, {"type": "node", "id": 11402979791, "lat": 11.045448, "lon": 77.0375375}, {"type": "node", "id": 11402979792, "lat": 11.0455175, "lon": 77.0377268, "tags": {"amenity": "atm", "brand": "HDFC Bank", "brand:en": "HDFC Bank", "brand:wikidata": "Q631047", "currency:INR": "yes", "drive_through": "no", "indoor": "yes", "note": "Contributors are requested to not edit the \"brand\", \"brand:en\", \"brand:wikidata\", \"operator\", \"operator:en\" and \"operator:wikidata\" tags. (2025/03/03)", "opening_hours": "24/7", "operator": "HDFC Bank", "operator:en": "HDFC Bank", "operator:wikidata": "Q631047", "short_name": "HDFC"}}, {"type": "node", "id": 11402979793, "lat": 11.0456976, "lon": 77.0376389}, {"type": "node", "id": 11402979794, "lat": 11.0457971, "lon": 77.0376484}, {"type": "node", "id": 11402979795, "lat": 11.0457708, "lon": 77.0378531}, {"type": "node", "id": 11402979796, "lat": 11.0456732, "lon": 77.0378206}, {"type": "node", "id": 11402979797, "lat": 11.0457202, "lon": 77.0378206, "tags": {"amenity": "atm", "brand": "City Union Bank", "brand:en": "City Union Bank", "brand:hi": "\u0938\u093f\u091f\u0940 \u092f\u0942\u0928\u093f\u092f\u0928 \u092c\u0948\u0902\u0915", "brand:ta": "\u0b9a\u0bbf\u0b9f\u0bcd\u0b9f\u0bbf \u0baf\u0bc2\u0ba9\u0bbf\u0baf\u0ba9\u0bcd \u0bb5\u0b99\u0bcd\u0b95\u0bbf", "brand:wikidata": "Q2040264", "name:en": "City Union Bank", "name:hi": "\u0938\u093f\u091f\u0940 \u092f\u0942\u0928\u093f\u092f\u0928 \u092c\u0948\u0902\u0915", "name:ta": "\u0b9a\u0bbf\u0b9f\u0bcd\u0b9f\u0bbf \u0baf\u0bc2\u0ba9\u0bbf\u0baf\u0ba9\u0bcd \u0bb5\u0b99\u0bcd\u0b95\u0bbf", "operator": "City Union Bank", "operator:wikidata": "Q2040264", "short_name": "CUB"}}, {"type": "node", "id": 11439794756, "lat": 11.0234187, "lon": 76.9100536}, {"type": "node", "id": 11439794809, "lat": 11.0234215, "lon": 76.9100054}, {"type": "node", "id": 11439795225, "lat": 11.0234607, "lon": 76.910056}, {"type": "node", "id": 11515714494, "lat": 11.0288499, "lon": 76.8959471}, {"type": "node", "id": 11515715141, "lat": 11.0289789, "lon": 76.8959501}, {"type": "node", "id": 11515717694, "lat": 11.0289752, "lon": 76.8961083}, {"type": "node", "id": 11573832430, "lat": 11.1161007, "lon": 76.9358244}, {"type": "node", "id": 11573884887, "lat": 11.1135693, "lon": 76.9361943}, {"type": "node", "id": 11573888410, "lat": 11.1135437, "lon": 76.9359449}, {"type": "node", "id": 11573891371, "lat": 11.116109, "lon": 76.9359957}, {"type": "node", "id": 11573898414, "lat": 11.1132205, "lon": 76.9362315}, {"type": "node", "id": 11573899749, "lat": 11.1163154, "lon": 76.9359853}, {"type": "node", "id": 11579850921, "lat": 11.0871974, "lon": 76.9389975}, {"type": "node", "id": 11579852637, "lat": 11.086995, "lon": 76.9390041}, {"type": "node", "id": 11579853124, "lat": 11.086986, "lon": 76.9387228}, {"type": "node", "id": 12285349813, "lat": 11.0095833, "lon": 76.9457009, "tags": {"amenity": "atm", "brand": "DBS Bank India", "brand:wikidata": "Q76514597", "check_date": "2024-10-24", "operator": "DBS Bank India", "operator:wikidata": "Q76514597"}}, {"type": "node", "id": 12285349815, "lat": 11.009274, "lon": 76.9504819, "tags": {"amenity": "atm", "brand": "City Union Bank", "brand:en": "City Union Bank", "brand:hi": "\u0938\u093f\u091f\u0940 \u092f\u0942\u0928\u093f\u092f\u0928 \u092c\u0948\u0902\u0915", "brand:ta": "\u0b9a\u0bbf\u0b9f\u0bcd\u0b9f\u0bbf \u0baf\u0bc2\u0ba9\u0bbf\u0baf\u0ba9\u0bcd \u0bb5\u0b99\u0bcd\u0b95\u0bbf", "brand:wikidata": "Q2040264", "check_date": "2024-10-24", "name:en": "City Union Bank", "name:hi": "\u0938\u093f\u091f\u0940 \u092f\u0942\u0928\u093f\u092f\u0928 \u092c\u0948\u0902\u0915", "name:ta": "\u0b9a\u0bbf\u0b9f\u0bcd\u0b9f\u0bbf \u0baf\u0bc2\u0ba9\u0bbf\u0baf\u0ba9\u0bcd \u0bb5\u0b99\u0bcd\u0b95\u0bbf", "operator": "City Union Bank", "operator:wikidata": "Q2040264", "short_name": "CUB"}}, {"type": "node", "id": 12285349816, "lat": 11.0093053, "lon": 76.9504754, "tags": {"amenity": "bank", "brand": "City Union Bank", "brand:en": "City Union Bank", "brand:hi": "\u0938\u093f\u091f\u0940 \u092f\u0942\u0928\u093f\u092f\u0928 \u092c\u0948\u0902\u0915", "brand:ta": "\u0b9a\u0bbf\u0b9f\u0bcd\u0b9f\u0bbf \u0baf\u0bc2\u0ba9\u0bbf\u0baf\u0ba9\u0bcd \u0bb5\u0b99\u0bcd\u0b95\u0bbf", "brand:wikidata": "Q2040264", "check_date": "2024-10-24", "name": "City Union Bank", "name:en": "City Union Bank", "name:hi": "\u0938\u093f\u091f\u0940 \u092f\u0942\u0928\u093f\u092f\u0928 \u092c\u0948\u0902\u0915", "name:ta": "\u0b9a\u0bbf\u0b9f\u0bcd\u0b9f\u0bbf \u0baf\u0bc2\u0ba9\u0bbf\u0baf\u0ba9\u0bcd \u0bb5\u0b99\u0bcd\u0b95\u0bbf", "short_name": "CUB"}}, {"type": "node", "id": 12285349819, "lat": 11.0085035, "lon": 76.9505929, "tags": {"amenity": "atm", "brand": "State Bank of India", "brand:en": "State Bank of India", "brand:wikidata": "Q1340361", "check_date": "2024-10-24", "currency:INR": "yes", "drive_through": "no", "indoor": "yes", "note": "Contributors are requested to not edit the \"brand\", \"brand:en\", \"brand:wikidata\", \"operator\", \"operator:en\" and \"operator:wikidata\" tags. (2025/03/03)", "opening_hours": "24/7", "operator": "State Bank of India", "operator:en": "State Bank of India", "operator:wikidata": "Q1340361", "short_name": "SBI"}}, {"type": "node", "id": 12406057354, "lat": 11.085457, "lon": 76.9441194, "tags": {"addr:street": "Idikarai Road", "amenity": "atm", "brand": "State Bank of India", "brand:en": "State Bank of India", "brand:wikidata": "Q1340361", "currency:INR": "yes", "drive_through": "no", "indoor": "yes", "name": "State Bank of India", "note": "Contributors are requested to not edit the \"brand\", \"brand:en\", \"brand:wikidata\", \"operator\", \"operator:en\" and \"operator:wikidata\" tags. (2025/03/03)", "opening_hours": "24/7", "operator": "State Bank of India", "operator:en": "State Bank of India", "operator:wikidata": "Q1340361", "short_name": "SBI", "source": "microsoft/BuildingFootprints", "source:opening_hours": "survey"}}, {"type": "node", "id": 12486837450, "lat": 11.027443, "lon": 77.0235527, "tags": {"addr:city": "Coimbatore", "addr:street": "Plot No, 1 A, Avinashi Rd, Dr N Jaganatha Nagar, Civil Aerodrome Post", "amenity": "atm", "brand": "Axis Bank", "brand:wikidata": "Q2003549", "name": "Axis Bank", "operator": "Axis Bank", "operator:wikidata": "Q2003549"}}, {"type": "node", "id": 12486865536, "lat": 11.0285803, "lon": 77.0254937, "tags": {"addr:district": "Coimbatore", "addr:housenumber": "CIT College Campus, Peelamedu, Civil Aerodrome Post,", "addr:postcode": "641014", "amenity": "bank", "brand": "Indian Bank", "brand:wikidata": "Q2003789", "name": "Indian Bank"}}, {"type": "node", "id": 12486893213, "lat": 11.0263288, "lon": 77.0196818, "tags": {"addr:city": "Coimbatore", "addr:street": "Shop No, 04, Avinashi Rd, Peelamedu, Hope College,", "amenity": "atm", "brand": "City Union Bank", "brand:en": "City Union Bank", "brand:hi": "\u0938\u093f\u091f\u0940 \u092f\u0942\u0928\u093f\u092f\u0928 \u092c\u0948\u0902\u0915", "brand:ta": "\u0b9a\u0bbf\u0b9f\u0bcd\u0b9f\u0bbf \u0baf\u0bc2\u0ba9\u0bbf\u0baf\u0ba9\u0bcd \u0bb5\u0b99\u0bcd\u0b95\u0bbf", "brand:wikidata": "Q2040264", "name:en": "City Union Bank", "name:hi": "\u0938\u093f\u091f\u0940 \u092f\u0942\u0928\u093f\u092f\u0928 \u092c\u0948\u0902\u0915", "name:ta": "\u0b9a\u0bbf\u0b9f\u0bcd\u0b9f\u0bbf \u0baf\u0bc2\u0ba9\u0bbf\u0baf\u0ba9\u0bcd \u0bb5\u0b99\u0bcd\u0b95\u0bbf", "operator": "City Union Bank", "operator:wikidata": "Q2040264", "short_name": "CUB"}}, {"type": "node", "id": 12486893214, "lat": 11.0314128, "lon": 77.0289941, "tags": {"addr:city": "Coimbatore", "addr:street": "Ground & Mezzanine Floor, No.572/3 & 5, 573/1A Block No.1, \"The Echo Point Plaza\", Avinashi Road, Kalapatti Village", "amenity": "atm", "brand": "Kotak Mahindra Bank", "brand:wikidata": "Q2040404", "name": "Kotak Mahindra Bank", "operator": "Kotak Mahindra Bank", "operator:wikidata": "Q2040404"}}, {"type": "node", "id": 12486893215, "lat": 11.0311453, "lon": 77.0287044, "tags": {"addr:city": "Coimbatore", "addr:street": "Sf No:350/1 B, Avinashi Rd, Civil Aerodrome Post, Annur", "amenity": "atm", "brand": "Karur Vysya Bank", "brand:wikidata": "Q6373724", "name": "Karur Vysya Bank", "operator": "Karur Vysya Bank", "operator:wikidata": "Q6373724"}}, {"type": "node", "id": 12486893216, "lat": 11.0259638, "lon": 77.0192162, "tags": {"addr:city": "Coimbatore", "addr:street": "Avinashi Rd, Periyar Nagar, Sri Nagar, Hope College", "amenity": "atm", "brand": "ICICI Bank", "brand:en": "ICICI Bank", "brand:wikidata": "Q1653258", "currency:INR": "yes", "drive_through": "no", "indoor": "yes", "name": "ICICI Bank ATM", "note": "Contributors are requested to not edit the \"brand\", \"brand:en\", \"brand:wikidata\", \"operator\", \"operator:en\" and \"operator:wikidata\" tags. (2025/03/03)", "opening_hours": "24/7", "operator": "ICICI Bank", "operator:en": "ICICI Bank", "operator:wikidata": "Q1653258", "short_name": "ICICI"}}, {"type": "node", "id": 12486893217, "lat": 11.0346633, "lon": 77.0337316, "tags": {"addr:city": "Coimbatore", "addr:street": "Avinashi Rd, PSG CAS, Civil Aerodrome Post,", "amenity": "atm", "brand": "Canara Bank", "brand:en": "Canara Bank", "brand:hi": "\u0915\u0947\u0928\u0930\u093e \u092c\u0948\u0902\u0915", "brand:kn": "\u0c95\u0cc6\u0ca8\u0cb0\u0cbe \u0cac\u0ccd\u0caf\u0cbe\u0c82\u0c95\u0ccd", "brand:pa": "\u0a15\u0a47\u0a28\u0a30\u0a3e \u0a2c\u0a48\u0a02\u0a15", "brand:pnb": "\u06a9\u06cc\u0646\u0631\u0627 \u0628\u06cc\u0646\u06a9", "brand:ur": "\u06a9\u06cc\u0646\u0631\u0627 \u0628\u06cc\u0646\u06a9", "brand:wikidata": "Q2003777", "name:en": "Canara Bank", "name:hi": "\u0915\u0947\u0928\u0930\u093e \u092c\u0948\u0902\u0915", "name:kn": "\u0c95\u0cc6\u0ca8\u0cb0\u0cbe \u0cac\u0ccd\u0caf\u0cbe\u0c82\u0c95\u0ccd", "name:pa": "\u0a15\u0a47\u0a28\u0a30\u0a3e \u0a2c\u0a48\u0a02\u0a15", "name:pnb": "\u06a9\u06cc\u0646\u0631\u0627 \u0628\u06cc\u0646\u06a9", "name:ur": "\u06a9\u06cc\u0646\u0631\u0627 \u0628\u06cc\u0646\u06a9", "operator": "Canara Bank", "operator:wikidata": "Q2003777"}}, {"type": "node", "id": 12486893218, "lat": 11.0332801, "lon": 77.02769, "tags": {"addr:city": "Coimbatore", "addr:street": "2, Sivasakthi Nagar, Thaneer Pandal, SOUTH, Peelamedu", "amenity": "atm", "brand": "IDBI Bank", "brand:wikidata": "Q3633485", "name": "IDBI Bank ATM", "operator": "IDBI Bank", "operator:wikidata": "Q3633485", "short_name": "IDBI"}}, {"type": "node", "id": 12497702124, "lat": 11.0172507, "lon": 76.9218595, "tags": {"addr:city": "coimbatore", "addr:country": "IN", "addr:district": "coimbatore", "addr:place": "P.N.Pudur", "addr:state": "tamilnadu", "addr:street": "Maruthamalai Road", "amenity": "atm", "brand": "HDFC Bank", "brand:en": "HDFC Bank", "brand:wikidata": "Q631047", "brand:wikipedia": "en:HDFC Bank", "cash_in": "no", "currency:INR": "yes", "drive_through": "no", "indoor": "yes", "level": "0", "name": "HDFC Bank", "note": "Contributors are requested to not edit the \"brand\", \"brand:en\", \"brand:wikidata\", \"operator\", \"operator:en\" and \"operator:wikidata\" tags. (2025/03/03)", "opening_hours": "24/7", "operator": "HDFC Bank", "operator:en": "HDFC Bank", "operator:wikidata": "Q631047", "operator:wikipedia": "en:HDFC Bank", "short_name": "HDFC", "source": "microsoft/BuildingFootprints", "wheelchair": "no"}}, {"type": "node", "id": 12558450442, "lat": 11.102513, "lon": 76.9318482, "tags": {"addr:state": "TN", "addr:street": "CRPF road", "amenity": "atm", "brand": "State Bank of India", "brand:en": "State Bank of India", "brand:wikidata": "Q1340361", "currency:INR": "yes", "drive_through": "no", "indoor": "yes", "level": "0", "name": "State Bank of India", "note": "Contributors are requested to not edit the \"brand\", \"brand:en\", \"brand:wikidata\", \"operator\", \"operator:en\" and \"operator:wikidata\" tags. (2025/03/03)", "opening_hours": "24/7", "operator": "State Bank of India", "operator:en": "State Bank of India", "operator:wikidata": "Q1340361", "short_name": "SBI", "wheelchair": "no"}}, {"type": "node", "id": 13001806544, "lat": 11.0043532, "lon": 76.950939, "tags": {"amenity": "bank", "name": "Cosmos co-op bank"}}, {"type": "node", "id": 13001831751, "lat": 11.0043446, "lon": 76.9509909, "tags": {"amenity": "atm", "name": "Cosmos co-op bank ATM"}}, {"type": "node", "id": 13001909486, "lat": 11.0063662, "lon": 76.9503695, "tags": {"amenity": "bank", "name": "Punjab national bank"}}, {"type": "node", "id": 13001915008, "lat": 11.0063669, "lon": 76.9504356, "tags": {"amenity": "atm", "name": "Punjab national bank"}}, {"type": "node", "id": 13002129691, "lat": 11.0052021, "lon": 76.951372, "tags": {"amenity": "bank", "name": "IDBI bank"}}, {"type": "way", "id": 89410015, "nodes": [1037061468, 1037061469, 1037061470, 1037061471, 1037061468], "tags": {"amenity": "bank", "atm": "yes", "brand": "Axis Bank", "brand:wikidata": "Q2003549", "brand:wikipedia": "en:Axis Bank", "name": "Axis Bank", "name:en": "Axis Bank", "operator": "Axis Bank", "website": "https://www.axisbank.com"}}, {"type": "way", "id": 572762980, "nodes": [5502385625, 5502385626, 5502385627, 5502385628, 5502385625], "tags": {"amenity": "bank", "atm": "yes", "brand": "Axis Bank", "brand:wikidata": "Q2003549", "building": "yes", "name": "Axis Bank"}}, {"type": "way", "id": 965143855, "nodes": [8928301411, 8928301412, 8928301413, 8928301414, 8928301411], "tags": {"amenity": "bank", "brand": "Federal Bank", "brand:wikidata": "Q2044983", "brand:wikipedia": "en:Federal Bank", "building": "yes", "name": "Federal Bank"}}, {"type": "way", "id": 1229654439, "nodes": [11402979788, 11402979789, 11402979790, 11402979791, 11402979788], "tags": {"amenity": "bank", "brand": "HDFC Bank", "brand:wikidata": "Q631047", "building": "yes", "name": "HDFC Bank", "short_name": "HDFC"}}, {"type": "way", "id": 1229654440, "nodes": [11402979793, 11402979794, 11402979795, 11402979796, 11402979793], "tags": {"amenity": "bank", "brand": "City Union Bank", "brand:en": "City Union Bank", "brand:hi": "\u0938\u093f\u091f\u0940 \u092f\u0942\u0928\u093f\u092f\u0928 \u092c\u0948\u0902\u0915", "brand:ta": "\u0b9a\u0bbf\u0b9f\u0bcd\u0b9f\u0bbf \u0baf\u0bc2\u0ba9\u0bbf\u0baf\u0ba9\u0bcd \u0bb5\u0b99\u0bcd\u0b95\u0bbf", "brand:wikidata": "Q2040264", "building": "yes", "name": "City Union Bank", "name:en": "City Union Bank", "name:hi": "\u0938\u093f\u091f\u0940 \u092f\u0942\u0928\u093f\u092f\u0928 \u092c\u0948\u0902\u0915", "name:ta": "\u0b9a\u0bbf\u0b9f\u0bcd\u0b9f\u0bbf \u0baf\u0bc2\u0ba9\u0bbf\u0baf\u0ba9\u0bcd \u0bb5\u0b99\u0bcd\u0b95\u0bbf", "short_name": "CUB"}}, {"type": "way", "id": 1233058219, "nodes": [11439795225, 4373064802, 11439794809, 11439794756, 11439795225], "tags": {"addr:street": "Maruthamalai Road", "amenity": "bank", "atm": "yes", "brand": "South Indian Bank", "brand:wikidata": "Q2044973", "brand:wikipedia": "en:South Indian Bank", "building": "yes", "name": "South Indian Bank", "name:en": "South Indian bank", "source": "microsoft/BuildingFootprints;survey"}}, {"type": "way", "id": 1239568688, "nodes": [11515714494, 6407874942, 11515717694, 11515715141, 11515714494], "tags": {"addr:city": "coimbatore", "addr:country": "IN", "addr:district": "coimbatore", "addr:place": "vadavalli", "addr:state": "tamilnadu", "amenity": "atm", "brand": "axis", "building": "yes", "level": "0", "opening_hours": "24/7", "source": "microsoft/BuildingFootprints", "wheelchair": "no"}}, {"type": "way", "id": 1245010894, "nodes": [4036191705, 11573898414, 11573884887, 11573888410, 4036191705], "tags": {"addr:city": "Narasimmanaickenpalayam", "addr:street": "Mettupalayam-Coimbatore Road", "amenity": "atm", "brand": "State Bank of India", "brand:wikidata": "Q1340361", "building": "yes", "drive_through": "yes", "name": "State Bank of India", "operator": "State Bank of India", "operator:wikidata": "Q1340361", "short_name": "SBI", "source": "microsoft/BuildingFootprints"}}, {"type": "way", "id": 1245012868, "nodes": [11573832430, 11573891371, 11573899749, 4036195245, 11573832430], "tags": {"addr:street": "Mettupalayam-Coimbatore Road", "amenity": "bank", "atm": "yes", "brand": "State Bank of India", "brand:wikidata": "Q1340361", "brand:wikipedia": "en:State Bank of India", "building": "yes", "cash_in": "yes", "name": "State Bank of India", "operator": "State Bank of India", "short_name": "SBI", "source": "microsoft/BuildingFootprints"}}, {"type": "way", "id": 1245634855, "nodes": [11579852637, 11579850921, 6604153353, 11579853124, 11579852637], "tags": {"addr:city": "Coimbatore", "addr:country": "IN", "addr:district": "coimbatore", "addr:state": "tamilnadu", "addr:street": "Mettupalayam-Coimbatore Road", "addr:suburb": "Thudiyalur", "amenity": "bank", "amenity:ta": "\u0bb5\u0b99\u0bcd\u0b95\u0bbf", "atm": "yes", "brand": "Karur Vysya Bank", "brand:wikidata": "Q6373724", "building": "yes", "name": "Karur Vysya Bank", "name:ta": "\u0b95\u0bb0\u0bc2\u0bb0\u0bcd \u0bb5\u0bc8\u0bb8\u0bcd\u0baf\u0bbe \u0bb5\u0b99\u0bcd\u0b95\u0bbf", "opening_hours": "Mo-Su 10:00-16:00; PH closed", "source": "microsoft/BuildingFootprints"}}]}