{"version": 0.6, "generator": "Overpass API 0.7.62.8 e802775f", "osm3s": {"timestamp_osm_base": "2025-09-29T19:12:01Z", "copyright": "The data included in this document is from www.openstreetmap.org. The data is made available under ODbL."}, "elements": [{"type": "node", "id": 247177822, "lat": 11.1005451, "lon": 76.9637445, "tags": {"amenity": "hospital", "name": "SREC Health Center"}}, {"type": "node", "id": 282875097, "lat": 11.0212988, "lon": 76.9883526, "tags": {"amenity": "hospital", "healthcare": "hospital", "name": "Sri Ramakrishna Dental Hospital"}}, {"type": "node", "id": 321420767, "lat": 11.0213634, "lon": 76.9708723, "tags": {"amenity": "hospital", "healthcare": "hospital", "name": "Ellen Multispeciality Hospital"}}, {"type": "node", "id": 321420772, "lat": 11.0201233, "lon": 76.9710726, "tags": {"amenity": "hospital", "healthcare": "hospital", "name": "GP Hospital"}}, {"type": "node", "id": 321420833, "lat": 11.0110912, "lon": 76.9671438, "tags": {"addr:district": "Coimbatore", "addr:full": "Dr.Nanjappa Road", "addr:postcode": "641018", "addr:state": "Tamil Nadu", "addr:subdistrict": "Coimbatore South", "amenity": "clinic", "healthcare": "clinic", "name": "Arunn Surgery", "source": "OpenGovernmentData"}}, {"type": "node", "id": 330069980, "lat": 11.0028292, "lon": 76.9513725, "tags": {"amenity": "hospital", "healthcare": "hospital", "name": "Saravana Dental Care Hospital"}}, {"type": "node", "id": 330070075, "lat": 11.0089752, "lon": 76.9578034, "tags": {"amenity": "hospital", "healthcare": "hospital", "name": "Senthil Hospital"}}, {"type": "node", "id": 330070077, "lat": 11.0095256, "lon": 76.9619316, "tags": {"addr:block": "Coimbatore Corpn", "addr:district": "Coimbatore", "addr:full": "Vivekananda Road, Ram Nagar, Coimbatore - 641009", "addr:postcode": "641009", "addr:state": "Tamil Nadu", "addr:subdistrict": "Coimbatore South", "amenity": "hospital", "healthcare": "hospital", "name": "Dr. S. G. Rajarathinam Hospital", "phone": "+914222236730", "source": "OpenGovernmentData", "website": "https://dr-sg-rajarathnam-hospital.business.site/"}}, {"type": "node", "id": 337604253, "lat": 11.0004227, "lon": 76.9715023, "tags": {"addr:block": "Coimbatore Corpn", "addr:district": "Coimbatore", "addr:full": "Opp To Taluk Office, 5, Government Arts College Road, Coimbatore", "addr:postcode": "641018", "addr:state": "Tamil Nadu", "addr:subdistrict": "Coimbatore South", "amenity": "hospital", "healthcare": "hospital", "name": "K. G. Hospital, Coimbatore", "source": "OpenGovernmentData"}}, {"type": "node", "id": 343436821, "lat": 11.0165542, "lon": 76.955239, "tags": {"amenity": "hospital", "healthcare": "hospital", "name": "Sengaliappan Nursing Home"}}, {"type": "node", "id": 619724590, "lat": 10.9967694, "lon": 77.0037688}, {"type": "node", "id": 619724592, "lat": 10.9967439, "lon": 77.0040546}, {"type": "node", "id": 619724594, "lat": 10.9963013, "lon": 77.0037984}, {"type": "node", "id": 619724628, "lat": 11.0361865, "lon": 77.0329898}, {"type": "node", "id": 619724629, "lat": 11.0361502, "lon": 77.0326447}, {"type": "node", "id": 803091648, "lat": 10.9969296, "lon": 76.995705, "tags": {"amenity": "hospital", "building": "yes", "healthcare": "hospital", "name": "Bala Hospital"}}, {"type": "node", "id": 832767566, "lat": 11.0158724, "lon": 76.9594235, "tags": {"addr:district": "Coimbatore", "addr:full": "# 2 Swarnambika Lay-Out,Ramnagar", "addr:postcode": "641009", "addr:state": "Tamil Nadu", "amenity": "hospital", "healthcare": "hospital", "name": "Ganga Medical Centre and Hospitals Pvt. Ltd ,Ramnagar", "source": "OpenGovernmentData"}}, {"type": "node", "id": 832768798, "lat": 11.0152327, "lon": 76.9593766, "tags": {"amenity": "hospital", "healthcare": "hospital", "name": "Krishna Nursing Home"}}, {"type": "node", "id": 832776936, "lat": 11.0187962, "lon": 76.9603231, "tags": {"amenity": "pharmacy", "healthcare": "pharmacy", "name": "Apollo"}}, {"type": "node", "id": 832779637, "lat": 11.018058, "lon": 76.9604883, "tags": {"addr:block": "Coimbatore Corpn", "addr:district": "Coimbatore", "addr:full": "11Th Street, Tatabad, Gandipuram, Coimbatore", "addr:postcode": "641012", "addr:state": "Tamil Nadu", "addr:subdistrict": "Coimbatore South", "amenity": "hospital", "emergency": "yes", "healthcare": "hospital", "name": "Kongunad Hospital, Coimbatore", "source": "OpenGovernmentData"}}, {"type": "node", "id": 832779865, "lat": 11.01843, "lon": 76.9604642, "tags": {"addr:block": "Coimbatore Corpn", "addr:district": "Coimbatore", "addr:full": "Tatabad, Coimbatore, East Power House Road", "addr:postcode": "641012", "addr:state": "Tamil Nadu", "addr:subdistrict": "Coimbatore South", "amenity": "hospital", "emergency": "yes", "healthcare": "hospital", "name": "Sheela Clinic", "source": "OpenGovernmentData"}}, {"type": "node", "id": 1039493036, "lat": 11.0390101, "lon": 76.979517, "tags": {"addr:block": "Coimbatore Corpn", "addr:district": "Coimbatore", "addr:full": "Anna Nagar,Ganapathy, Coimbatore, Sathy Main Road", "addr:postcode": "641006", "addr:state": "Tamil Nadu", "addr:subdistrict": "Coimbatore South", "amenity": "hospital", "emergency": "yes", "healthcare": "hospital", "name": "Surya Hospital, Coimbatore", "name:ta": "\u0b9a\u0bc2\u0bb0\u0bcd\u0baf\u0bbe \u0bae\u0bb0\u0bc1\u0ba4\u0bcd\u0ba4\u0bc1\u0bb5\u0bae\u0ba9\u0bc8", "source": "OpenGovernmentData"}}, {"type": "node", "id": 1039593602, "lat": 11.039955, "lon": 76.9810407, "tags": {"amenity": "dentist", "healthcare": "dentist"}}, {"type": "node", "id": 1051328428, "lat": 10.9560967, "lon": 76.9540004, "tags": {"amenity": "hospital", "name": "Vasan eye Care Hospital"}}, {"type": "node", "id": 1423948022, "lat": 11.0188398, "lon": 77.0073136, "tags": {"addr:district": "Coimbatore", "addr:full": "P.O. Box. No.1674,Peelamedu,Near Psg College Of Technology", "addr:postcode": "641004", "addr:state": "Tamil Nadu", "amenity": "hospital", "name": "PSG Hospitals", "name:ta": "\u0baa\u0bc2 \u0b9a\u0bbe \u0b95\u0bcb \u0bae\u0bb0\u0bc1\u0ba4\u0bcd\u0ba4\u0bc1\u0bb5\u0bae\u0ba9\u0bc8", "source": "OpenGovernmentData", "wheelchair": "limited"}}, {"type": "node", "id": 1425221969, "lat": 11.026167, "lon": 76.9499384, "tags": {"addr:district": "Coimbatore", "addr:full": "P.B.No -2750, Narayana Guru Hospital, Road Sai Baba Colony", "addr:postcode": "641011", "addr:state": "Tamil Nadu", "addr:subdistrict": "Coimbatore South", "amenity": "hospital", "emergency": "yes", "healthcare": "hospital", "name": "K T V R Group Hospital", "source": "OpenGovernmentData"}}, {"type": "node", "id": 1463889987, "lat": 11.0469105, "lon": 76.9473562}, {"type": "node", "id": 1463889988, "lat": 11.0469182, "lon": 76.9480887}, {"type": "node", "id": 1463889990, "lat": 11.0470638, "lon": 76.9473546}, {"type": "node", "id": 1463889991, "lat": 11.0470714, "lon": 76.9480871}, {"type": "node", "id": 1464278715, "lat": 11.0257863, "lon": 76.9522216}, {"type": "node", "id": 1464278732, "lat": 11.0264718, "lon": 76.9527517}, {"type": "node", "id": 1464278789, "lat": 11.0149404, "lon": 76.9543844, "tags": {"addr:district": "Coimbatore", "addr:full": "#1091, Mettupalayam Road ,North Coimbatore Bus Stop", "addr:postcode": "641002", "addr:state": "Tamil Nadu", "amenity": "hospital", "healthcare": "hospital", "name": "Coimbatore Bone and Joint Foundation (P) Ltd.", "source": "OpenGovernmentData"}}, {"type": "node", "id": 1464278866, "lat": 11.0258065, "lon": 76.9527804}, {"type": "node", "id": 1464278880, "lat": 11.0264662, "lon": 76.9521943}, {"type": "node", "id": 1466917439, "lat": 11.0337824, "lon": 76.9517175, "tags": {"addr:block": "Coimbatore Corpn", "addr:district": "Coimbatore", "addr:full": "Rs Puram, Near Flower Market, Sukrawar Pettai,Coimbatore", "addr:postcode": "641002", "addr:state": "Tamil Nadu", "addr:subdistrict": "Coimbatore South", "amenity": "hospital", "healthcare": "hospital", "name": "Womens Medical Centre, Coimbatore", "source": "OpenGovernmentData"}}, {"type": "node", "id": 1467928839, "lat": 10.9997961, "lon": 76.9799441, "tags": {"addr:district": "Coimbatore", "addr:full": "232, Race Course Coimatore", "addr:postcode": "641018", "addr:state": "Tamil Nadu", "amenity": "hospital", "designation": "Hospital", "emergency": "yes", "healthcare": "hospital", "name": "Masonic Medical Centre For Children", "source": "OpenGovernmentData"}}, {"type": "node", "id": 1468079158, "lat": 11.0264568, "lon": 76.9448591, "tags": {"amenity": "hospital", "healthcare": "hospital", "name": "Somu medicals"}}, {"type": "node", "id": 1468079184, "lat": 11.0265516, "lon": 76.9443924, "tags": {"amenity": "hospital", "healthcare": "hospital", "name": "Akila Medicals"}}, {"type": "node", "id": 1468079553, "lat": 11.0256249, "lon": 76.9372845, "tags": {"amenity": "hospital", "healthcare": "hospital", "healthcare:speciality": "general", "name": "Dr.U.S.Prakash's Clinic"}}, {"type": "node", "id": 1468324438, "lat": 10.9969248, "lon": 77.0008135, "tags": {"addr:postcode": "641045", "addr:street": "Trichy Road", "amenity": "pharmacy", "healthcare": "pharmacy", "name": "Prakash medicals"}}, {"type": "node", "id": 1468324461, "lat": 10.9972171, "lon": 77.0003871, "tags": {"amenity": "pharmacy", "healthcare": "pharmacy", "name": "Revathi medicals"}}, {"type": "node", "id": 1469101395, "lat": 11.0825506, "lon": 76.997422, "tags": {"amenity": "hospital", "emergency": "yes", "healthcare": "hospital", "name": "KG Eye Hospital", "source": "Self"}}, {"type": "node", "id": 1469149130, "lat": 11.0441103, "lon": 76.9856071, "tags": {"addr:block": "Coimbatore Corpn", "addr:district": "Coimbatore", "addr:full": "Ganapathi, Coimbatore, Athipalayam Pirivu", "addr:postcode": "641006", "addr:state": "Tamil Nadu", "addr:subdistrict": "Coimbatore South", "amenity": "hospital", "name": "Shree Siva Hospital, Ganapathy,", "source": "OpenGovernmentData"}}, {"type": "node", "id": 1470399520, "lat": 11.0006257, "lon": 76.9710763, "tags": {"amenity": "pharmacy", "healthcare": "pharmacy"}}, {"type": "node", "id": 1471791399, "lat": 11.0193537, "lon": 76.9603411, "tags": {"amenity": "pharmacy", "healthcare": "pharmacy", "name": "arya vaidhya salai"}}, {"type": "node", "id": 1471928725, "lat": 11.0556356, "lon": 76.9975108}, {"type": "node", "id": 1471928727, "lat": 11.0556602, "lon": 76.9980766}, {"type": "node", "id": 1471928730, "lat": 11.0560689, "lon": 76.9974912}, {"type": "node", "id": 1471928732, "lat": 11.0560935, "lon": 76.998057}, {"type": "node", "id": 1472189985, "lat": 11.0243604, "lon": 76.9771457}, {"type": "node", "id": 1472192499, "lat": 11.0254581, "lon": 76.9726262, "tags": {"amenity": "hospital", "healthcare": "hospital", "name": "Sai Shraddha Hospitality"}}, {"type": "node", "id": 1472211318, "lat": 11.0144183, "lon": 76.9437894, "tags": {"amenity": "hospital", "healthcare": "hospital", "name": "Vega ENT Hospitals"}}, {"type": "node", "id": 1472211741, "lat": 11.0142906, "lon": 76.9449521, "tags": {"addr:district": "Coimbatore", "addr:full": "R S Puram", "addr:postcode": "641002", "addr:state": "Tamil Nadu", "amenity": "hospital", "healthcare": "hospital", "name": "Sitalakshmi Hospital", "source": "Local Knowledge"}}, {"type": "node", "id": 1472212062, "lat": 11.0147975, "lon": 76.9475002, "tags": {"addr:district": "Coimbatore", "addr:full": "R S Puram", "addr:postcode": "641002", "addr:state": "Tamil Nadu", "amenity": "hospital", "healthcare": "hospital", "name": "Manonmani Hospital", "source": "Local Knowledge"}}, {"type": "node", "id": 1472212557, "lat": 11.0148238, "lon": 76.9487649, "tags": {"addr:district": "Coimbatore", "addr:full": "48, Cowley Brown Road, R.S. Puram", "addr:postcode": "641002", "addr:state": "Tamil Nadu", "amenity": "clinic", "healthcare": "clinic", "healthcare:speciality": "multi speciality", "name": "Balaji Nursing Home", "source": "OpenGovernmentData"}}, {"type": "node", "id": 1472215145, "lat": 11.0152003, "lon": 76.9498136, "tags": {"amenity": "hospital", "healthcare": "hospital", "name": "Preetam's Cardio Care"}}, {"type": "node", "id": 1472215560, "lat": 11.0152582, "lon": 76.9519379, "tags": {"amenity": "clinic", "healthcare": "clinic", "name": "Kumaran Clinic"}}, {"type": "node", "id": 1472230522, "lat": 11.0097731, "lon": 76.9503293, "tags": {"addr:district": "Coimbatore", "addr:full": "558, D B Road R S Puram", "addr:postcode": "641002", "addr:state": "Tamil Nadu", "addr:subdistrict": "Coimbatore South", "amenity": "hospital", "check_date": "2024-10-24", "healthcare": "hospital", "name": "Rasi Hospital", "name:ta": "\u0bb0\u0bbe\u0b9a\u0bbf \u0bae\u0bb0\u0bc1\u0ba4\u0bcd\u0ba4\u0bc1\u0bb5\u0bae\u0ba9\u0bc8", "source": "OpenGovernmentData"}}, {"type": "node", "id": 1472231440, "lat": 11.0083777, "lon": 76.9510775, "tags": {"amenity": "pharmacy", "healthcare": "pharmacy"}}, {"type": "node", "id": 1472620620, "lat": 11.0038847, "lon": 76.951619, "tags": {"amenity": "pharmacy", "healthcare": "pharmacy", "name": "Araya Vaidya Pharmacy"}}, {"type": "node", "id": 1473802712, "lat": 11.0193391, "lon": 76.9635166, "tags": {"amenity": "hospital", "healthcare": "hospital", "name": "City Hospital"}}, {"type": "node", "id": 1473802717, "lat": 11.0207714, "lon": 76.9688485, "tags": {"amenity": "pharmacy", "healthcare": "pharmacy", "name": "Chinnaiah Medicals"}}, {"type": "node", "id": 1473802733, "lat": 11.0203554, "lon": 76.966338, "tags": {"amenity": "pharmacy", "healthcare": "pharmacy", "name": "Pasumai Pharmacy"}}, {"type": "node", "id": 1473802741, "lat": 11.0190021, "lon": 76.962084, "tags": {"amenity": "hospital", "healthcare": "hospital", "name": "Bethel Hospital"}}, {"type": "node", "id": 1473830522, "lat": 11.010593, "lon": 76.950234, "tags": {"amenity": "hospital", "healthcare": "hospital", "name": "Arasu Medicals"}}, {"type": "node", "id": 1473830523, "lat": 11.0134549, "lon": 76.9496753, "tags": {"addr:district": "Coimbatore", "addr:full": "582-A , D B Road, R, S, Puram", "addr:postcode": "641002", "addr:state": "Tamil Nadu", "addr:subdistrict": "Coimbatore South", "amenity": "hospital", "health_specialty:optometry": "yes", "healthcare": "hospital", "name": "The Eye Foundaton", "source": "OpenGovernmentData"}}, {"type": "node", "id": 1474413414, "lat": 10.9943793, "lon": 76.9664663, "tags": {"amenity": "hospital", "healthcare": "hospital", "name": "Moses Eye Hospital"}}, {"type": "node", "id": 1474451371, "lat": 10.9935069, "lon": 76.9756194, "tags": {"amenity": "hospital", "emergency": "yes", "healthcare": "hospital", "name": "Thayarammal poly clinic"}}, {"type": "node", "id": 1474518439, "lat": 10.9969617, "lon": 76.9956179, "tags": {"amenity": "pharmacy", "dispensing": "yes", "healthcare": "pharmacy", "name": "Dheepmeena pharmacy"}}, {"type": "node", "id": 1474518445, "lat": 11.0124743, "lon": 76.9862396, "tags": {"addr:district": "Coimbatore", "addr:full": "No. 777, Puliyakulam Road, Laxmi Mills Jn, P N Palayam", "addr:postcode": "641037", "addr:state": "Tamil Nadu", "amenity": "hospital", "emergency": "yes", "healthcare": "hospital", "name": "Vasan Eye Care Hospital", "name:en": "Vasan Eye Care Hospital", "source": "OpenGovernmentData"}}, {"type": "node", "id": 1474518448, "lat": 11.009415, "lon": 76.9893791, "tags": {"addr:district": "Coimbatore", "addr:full": "738-B, Pulia Klam Road Puliakulam", "addr:postcode": "641045", "addr:state": "Tamil Nadu", "amenity": "hospital", "emergency": "yes", "healthcare": "hospital", "name": "Coimbatore Kidney Centre", "source": "OpenGovernmentData"}}, {"type": "node", "id": 1474803277, "lat": 10.9922978, "lon": 76.9598791, "tags": {"amenity": "pharmacy", "healthcare": "pharmacy", "name": "Ganesh Medicals"}}, {"type": "node", "id": 1474872830, "lat": 10.9978977, "lon": 76.9893923, "tags": {"amenity": "hospital", "emergency": "no", "healthcare": "hospital", "name": "Clinic - Dr.Rajashree"}}, {"type": "node", "id": 1474923291, "lat": 10.9414068, "lon": 76.9369908, "tags": {"amenity": "hospital", "name": "K. J. Hospital"}}, {"type": "node", "id": 1474924005, "lat": 10.9489142, "lon": 76.9354632, "tags": {"amenity": "pharmacy", "name": "Thulsi Pharmacy", "source": "Survey"}}, {"type": "node", "id": 1680237146, "lat": 10.984126, "lon": 76.9301849}, {"type": "node", "id": 1680237151, "lat": 10.9841531, "lon": 76.9303173}, {"type": "node", "id": 1680237153, "lat": 10.9845792, "lon": 76.9300888}, {"type": "node", "id": 1680237161, "lat": 10.9846063, "lon": 76.9302212}, {"type": "node", "id": 1829589398, "lat": 11.0827492, "lon": 76.9971928}, {"type": "node", "id": 1829589415, "lat": 11.0823723, "lon": 76.9976024}, {"type": "node", "id": 1829589421, "lat": 11.0825115, "lon": 76.9973268}, {"type": "node", "id": 1829589430, "lat": 11.0826042, "lon": 76.9975093}, {"type": "node", "id": 1829589442, "lat": 11.0826194, "lon": 76.9973367}, {"type": "node", "id": 1829589445, "lat": 11.0824196, "lon": 76.9971565}, {"type": "node", "id": 1829589446, "lat": 11.0824963, "lon": 76.9974994}, {"type": "node", "id": 1829589448, "lat": 11.0827019, "lon": 76.9976387}, {"type": "node", "id": 1830374762, "lat": 11.0130032, "lon": 76.9804627}, {"type": "node", "id": 1830374763, "lat": 11.0121262, "lon": 76.9809175}, {"type": "node", "id": 1830374764, "lat": 11.0125175, "lon": 76.9801115}, {"type": "node", "id": 1830374765, "lat": 11.0119917, "lon": 76.980456}, {"type": "node", "id": 1830374766, "lat": 11.0126832, "lon": 76.9804325}, {"type": "node", "id": 1830374767, "lat": 11.0128091, "lon": 76.9806139}, {"type": "node", "id": 1830374768, "lat": 11.0120255, "lon": 76.9806246}, {"type": "node", "id": 1830374769, "lat": 11.0129172, "lon": 76.9801997}, {"type": "node", "id": 1830374770, "lat": 11.0129242, "lon": 76.9800033}, {"type": "node", "id": 1830374771, "lat": 11.0123761, "lon": 76.9802409}, {"type": "node", "id": 1830374772, "lat": 11.0126306, "lon": 76.9804507}, {"type": "node", "id": 1830374773, "lat": 11.0131013, "lon": 76.9805074}, {"type": "node", "id": 1830374774, "lat": 11.0119431, "lon": 76.9803102}, {"type": "node", "id": 1830374775, "lat": 11.0128508, "lon": 76.9805145}, {"type": "node", "id": 1830374776, "lat": 11.0114652, "lon": 76.9809622}, {"type": "node", "id": 1830374777, "lat": 11.0115725, "lon": 76.9803822}, {"type": "node", "id": 1830374778, "lat": 11.0124895, "lon": 76.9805989}, {"type": "node", "id": 1830374779, "lat": 11.0120556, "lon": 76.9803463}, {"type": "node", "id": 1830374780, "lat": 11.0121691, "lon": 76.9807043}, {"type": "node", "id": 1830374781, "lat": 11.0116379, "lon": 76.9805784}, {"type": "node", "id": 1830374782, "lat": 11.0109834, "lon": 76.9805861}, {"type": "node", "id": 1830374783, "lat": 11.0111319, "lon": 76.9807072}, {"type": "node", "id": 1830374784, "lat": 11.012632, "lon": 76.9801098}, {"type": "node", "id": 1830374785, "lat": 11.0114578, "lon": 76.9805874}, {"type": "node", "id": 1830374786, "lat": 11.0114285, "lon": 76.9808584}, {"type": "node", "id": 1830374787, "lat": 11.0112135, "lon": 76.9809375}, {"type": "node", "id": 1830374788, "lat": 11.0116288, "lon": 76.980766}, {"type": "node", "id": 1830374789, "lat": 11.0127647, "lon": 76.9802515}, {"type": "node", "id": 1830374790, "lat": 11.0117294, "lon": 76.981059}, {"type": "node", "id": 1830374791, "lat": 11.0128195, "lon": 76.9808411}, {"type": "node", "id": 1830374792, "lat": 11.0112497, "lon": 76.9813845}, {"type": "node", "id": 1830374793, "lat": 11.0115761, "lon": 76.9809214}, {"type": "node", "id": 1830375318, "lat": 11.0110389, "lon": 76.9803525}, {"type": "node", "id": 1830375323, "lat": 11.0114771, "lon": 76.9801946}, {"type": "node", "id": 1830375325, "lat": 11.0115334, "lon": 76.9803566}, {"type": "node", "id": 1830375327, "lat": 11.0110951, "lon": 76.9805144}, {"type": "node", "id": 1913565236, "lat": 11.0241826, "lon": 76.9731186, "tags": {"addr:district": "Coimbatore", "addr:full": "Sathy Main Road, Alamu Nagar Road, Near Gp Theatre, Gandhipuram", "addr:postcode": "641012", "addr:state": "Tamil Nadu", "addr:subdistrict": "Coimbatore South", "amenity": "hospital", "healthcare": "hospital", "name": "Ashwin Hospital", "source": "OpenGovernmentData"}}, {"type": "node", "id": 1913565274, "lat": 11.030742, "lon": 76.975725, "tags": {"amenity": "pharmacy", "check_date": "2024-12-17", "healthcare": "pharmacy", "name": "Apollo Pharma"}}, {"type": "node", "id": 1913566088, "lat": 11.034999, "lon": 76.978383, "tags": {"amenity": "pharmacy", "healthcare": "pharmacy", "name": "Tulsi Pharmacy"}}, {"type": "node", "id": 2038597026, "lat": 11.0000659, "lon": 76.994925}, {"type": "node", "id": 2038597091, "lat": 10.9992599, "lon": 76.9951579}, {"type": "node", "id": 2038597166, "lat": 10.9994406, "lon": 76.9958615}, {"type": "node", "id": 2038597237, "lat": 10.9999627, "lon": 76.9957967}, {"type": "node", "id": 2038598189, "lat": 10.9999968, "lon": 76.9955821, "tags": {"access": "private", "barrier": "gate", "entrance": "exit"}}, {"type": "node", "id": 2393648167, "lat": 11.0500734, "lon": 76.9836718, "tags": {"amenity": "pharmacy"}}, {"type": "node", "id": 3204361323, "lat": 10.995609, "lon": 76.9917076, "tags": {"amenity": "hospital", "healthcare": "hospital", "name": "Arya Vaidya Pharmacy"}}, {"type": "node", "id": 3302155213, "lat": 10.9414625, "lon": 76.9353456, "tags": {"amenity": "pharmacy", "brand": "Apollo Pharmacy", "brand:wikidata": "Q62562612", "healthcare": "pharmacy", "name": "Apollo Pharmacy"}}, {"type": "node", "id": 3622806349, "lat": 11.041273, "lon": 77.0413718}, {"type": "node", "id": 3622806350, "lat": 11.0407333, "lon": 77.0406637}, {"type": "node", "id": 3622806351, "lat": 11.0404569, "lon": 77.0402614}, {"type": "node", "id": 3622806352, "lat": 11.0415599, "lon": 77.041742}, {"type": "node", "id": 3622806353, "lat": 11.042276, "lon": 77.041286}, {"type": "node", "id": 3622806354, "lat": 11.0424129, "lon": 77.0415944}, {"type": "node", "id": 3622806355, "lat": 11.0436028, "lon": 77.0414147}, {"type": "node", "id": 3622806356, "lat": 11.0436344, "lon": 77.0417232}, {"type": "node", "id": 3622806357, "lat": 11.0447584, "lon": 77.0416159}, {"type": "node", "id": 3622806358, "lat": 11.0445189, "lon": 77.0398832}, {"type": "node", "id": 3622806359, "lat": 11.044282, "lon": 77.0399154}, {"type": "node", "id": 3622806360, "lat": 11.0442293, "lon": 77.0394943}, {"type": "node", "id": 3622806361, "lat": 11.0424102, "lon": 77.0398108}, {"type": "node", "id": 3622806362, "lat": 11.0423839, "lon": 77.0394728}, {"type": "node", "id": 3622806363, "lat": 11.0412019, "lon": 77.0395989}, {"type": "node", "id": 3622806364, "lat": 11.0413888, "lon": 77.0401434}, {"type": "node", "id": 3781594981, "lat": 10.995169, "lon": 76.9694279}, {"type": "node", "id": 3781594983, "lat": 10.9952465, "lon": 76.9712348}, {"type": "node", "id": 3781594984, "lat": 10.9962704, "lon": 76.9694559}, {"type": "node", "id": 3781594985, "lat": 10.9963113, "lon": 76.9692928}, {"type": "node", "id": 3781594986, "lat": 10.9965273, "lon": 76.9710755}, {"type": "node", "id": 3781594987, "lat": 10.9971565, "lon": 76.9693725}, {"type": "node", "id": 3781623526, "lat": 10.957713, "lon": 76.9543156, "tags": {"addr:district": "Coimbatore", "addr:full": "No 450-D, Palakkad Main Road, Kuniamuthoor", "addr:postcode": "641008", "addr:state": "Tamil Nadu", "amenity": "hospital", "name": "Vasan Eye Care Hospital, Kuniamuthoor", "source": "OpenGovernmentData"}}, {"type": "node", "id": 3834227961, "lat": 11.0351247, "lon": 76.8758332}, {"type": "node", "id": 3834227962, "lat": 11.0350563, "lon": 76.8771635}, {"type": "node", "id": 3834227963, "lat": 11.0349352, "lon": 76.8772172}, {"type": "node", "id": 3834227964, "lat": 11.0345772, "lon": 76.8771957}, {"type": "node", "id": 3834227965, "lat": 11.0345298, "lon": 76.8766646}, {"type": "node", "id": 3834227966, "lat": 11.0339559, "lon": 76.8766646}, {"type": "node", "id": 3834227967, "lat": 11.0338558, "lon": 76.8765842}, {"type": "node", "id": 3834227968, "lat": 11.0338295, "lon": 76.8759619}, {"type": "node", "id": 3834227969, "lat": 11.0340243, "lon": 76.8758117}, {"type": "node", "id": 4077964742, "lat": 10.9948659, "lon": 76.9700176}, {"type": "node", "id": 4077964743, "lat": 10.9949828, "lon": 76.9712233}, {"type": "node", "id": 4077964744, "lat": 10.9948554, "lon": 76.969484}, {"type": "node", "id": 4077964748, "lat": 10.9972206, "lon": 76.9692382}, {"type": "node", "id": 4077964749, "lat": 10.9978409, "lon": 76.9692544}, {"type": "node", "id": 4077964750, "lat": 10.9978509, "lon": 76.9700585}, {"type": "node", "id": 4077964751, "lat": 10.9979059, "lon": 76.9702012}, {"type": "node", "id": 4077964752, "lat": 10.9979705, "lon": 76.9709713}, {"type": "node", "id": 4078505530, "lat": 11.0173902, "lon": 76.9769123, "tags": {"addr:district": "Coimbatore", "addr:full": "No. 238, Avarampalayam Road, Near Womens Poly Technic, Gandhipuram", "addr:postcode": "641044", "addr:state": "Tamil Nadu", "addr:subdistrict": "Coimbatore South", "amenity": "clinic", "healthcare": "clinic", "name": "Iswarya Fertility Test Tube Baby and Research Centre", "name:en": "Iswarya Fertility Test Tube Baby and Research Centre", "source": "OpenGovernmentData"}}, {"type": "node", "id": 4185045390, "lat": 11.0149765, "lon": 76.9642774, "tags": {"addr:housenumber": "78", "addr:street": "Gokale Street", "amenity": "clinic", "email": "claritymri@gmail.com", "healthcare": "clinic", "name": "Clarity Imaging Centre", "name:en": "Clarity Imaging Centre", "phone": "+91-422-2234848", "website": "clarityimaging.net"}}, {"type": "node", "id": 4203547389, "lat": 11.0234149, "lon": 76.9103076, "tags": {"addr:housenumber": "1", "addr:street": "Maruthamalai Road", "amenity": "clinic", "name": "Microbiological Laboratory", "phone": "+91-422-4342018", "website": "https://microlabindia.com/"}}, {"type": "node", "id": 4224994193, "lat": 11.0247829, "lon": 76.9059765, "tags": {"addr:street": "Thondamuthur Main road", "amenity": "dentist", "check_date:opening_hours": "2024-09-28", "name": "Sree Krishna", "opening_hours": "Th-Tu 10:00-21:00", "phone": "+91-9585500171"}}, {"type": "node", "id": 4259650392, "lat": 11.0018351, "lon": 77.0328061, "tags": {"addr:street": "Tiruchi Road", "amenity": "hospital", "healthcare": "hospital", "name": "Ortho One"}}, {"type": "node", "id": 4275430420, "lat": 11.0827084, "lon": 76.9427442, "tags": {"addr:city": "Thudiyalur", "addr:district": "coimbatore", "addr:place": "Thudiyalur", "addr:place:ta": "\u0ba4\u0bc1\u0b9f\u0bbf\u0baf\u0bb2\u0bc2\u0bb0\u0bcd", "addr:postcode": "641034", "addr:state": "\u0ba4\u0bae\u0bbf\u0bb4\u0bcd\u0ba8\u0bbe\u0b9f\u0bc1", "addr:street": "Idikarai Road", "addr:street:ta": "\u0b87\u0b9f\u0bbf\u0b95\u0bb0\u0bc8 \u0b9a\u0bbe\u0bb2\u0bc8", "amenity": "hospital", "amenity:ta": "\u0bae\u0bb0\u0bc1\u0ba4\u0bcd\u0ba4\u0bc1\u0bb5\u0bae\u0ba9\u0bc8", "emergency": "yes", "healthcare": "hospital", "name": "Government Urban Primary Health Center", "name:ta": "\u0ba8\u0b95\u0bb0\u0bcd\u0baa\u0bcd\u0baa\u0bc1\u0bb1 \u0b85\u0bb0\u0b9a\u0bc1 \u0b86\u0bb0\u0bae\u0bcd\u0baa \u0b9a\u0bc1\u0b95\u0bbe\u0ba4\u0bbe\u0bb0 \u0ba8\u0bbf\u0bb2\u0bc8\u0baf\u0bae\u0bcd", "opening_hours": "sunrise-sunset", "operator": "Government", "operator:type": "public"}}, {"type": "node", "id": 4315800697, "lat": 11.0153158, "lon": 76.9539881, "tags": {"addr:block": "Coimbatore Corpn", "addr:district": "Coimbatore", "addr:full": "Cowley Brown Road, R S Puram West", "addr:postcode": "641002", "addr:state": "Tamil Nadu", "addr:street": "Cowley Brown Rd", "addr:subdistrict": "Coimbatore South", "amenity": "hospital", "healthcare": "hospital", "name": "Aravind Eye Hospital (City Centre)", "phone": "91-422-2540400", "source": "OpenGovernmentData"}}, {"type": "node", "id": 4338438493, "lat": 10.9923903, "lon": 76.9934918, "tags": {"addr:housenumber": "1/150", "addr:postcode": "641045", "addr:street": "Nachi Angannan Thevar Street", "amenity": "clinic", "email": "sreerasa@gmail.com", "healthcare": "clinic", "name": "Acupuncture Home", "opening_hours": "Mo-Sa 18:00-21:00", "phone": "9894728979"}}, {"type": "node", "id": 4341285025, "lat": 11.0342408, "lon": 76.978312, "tags": {"amenity": "dentist", "healthcare": "dentist", "name": "BM Dental Clinic", "operator": "Dr. M Sathya Vani BDS", "phone": "9940977577"}}, {"type": "node", "id": 4373086692, "lat": 11.014841, "lon": 76.9488568, "tags": {"addr:street": "Cowley Brown Rd", "amenity": "pharmacy", "healthcare": "pharmacy", "name:en": "Sri Kumaran"}}, {"type": "node", "id": 4379089792, "lat": 11.0258512, "lon": 76.906045, "tags": {"amenity": "pharmacy", "name:en": "Arasu"}}, {"type": "node", "id": 4379089793, "lat": 11.0140006, "lon": 76.9543624, "tags": {"addr:district": "Coimbatore", "addr:full": "No.5(2) Gajalakshmi Theatre Road Near Valarmathi Bus Stop", "addr:postcode": "641601", "addr:state": "Tamil Nadu", "addr:street": "Venkitasamy Road", "amenity": "hospital", "healthcare": "hospital", "name": "Lotus Eye Care Hospital, Coimbatore", "name:en": "Lotus Eye Hospital", "source": "OpenGovernmentData"}}, {"type": "node", "id": 4402079969, "lat": 11.0058748, "lon": 76.9860068}, {"type": "node", "id": 4402079970, "lat": 11.0058828, "lon": 76.9861979}, {"type": "node", "id": 4402079971, "lat": 11.0054518, "lon": 76.9861897}, {"type": "node", "id": 4402079972, "lat": 11.0054558, "lon": 76.9859824}, {"type": "node", "id": 4402079982, "lat": 11.0051924, "lon": 76.9879176, "tags": {"amenity": "hospital", "healthcare": "hospital", "name": "ECHS"}}, {"type": "node", "id": 4402079983, "lat": 11.0053321, "lon": 76.9876533, "tags": {"amenity": "hospital", "healthcare": "hospital", "name": "ECHS Polyclinic"}}, {"type": "node", "id": 4407829092, "lat": 11.0248424, "lon": 76.9564023, "tags": {"addr:district": "Coimbatore", "addr:full": "Sivananda Colony, Tatabad", "addr:postcode": "641012", "addr:state": "Tamil Nadu", "amenity": "hospital", "healthcare": "hospital", "name:en": "BKR Heart Center", "source": "Local Knowledge"}}, {"type": "node", "id": 4421640990, "lat": 11.0247244, "lon": 76.9055811, "tags": {"addr:block": "Coimbatore Corpn", "addr:district": "Coimbatore", "addr:full": "Vadavalli-Thondamuthur Road, Marutha Nagar, Vadavalli", "addr:postcode": "641041", "addr:state": "Tamil Nadu", "addr:street": "Thondamuthur Main road", "addr:subdistrict": "Coimbatore South", "amenity": "hospital", "name": "Baalaje Hospital", "name:en": "Baalaje Hospital", "source": "OpenGovernmentData"}}, {"type": "node", "id": 4426171975, "lat": 11.0782349, "lon": 76.9409348, "tags": {"addr:district": "Coimbatore", "addr:full": "A Unit 07, S L Hospital (P) Ltd. 61, Pongiammal St, Ratinapuri", "addr:postcode": "641027", "addr:state": "Tamil Nadu", "amenity": "hospital", "amenity:ta": "\u0bae\u0bb0\u0bc1\u0ba4\u0bcd\u0ba4\u0bc1\u0bb5\u0bae\u0ba9\u0bc8", "healthcare": "hospital", "name": "Sri Lakshmi Hospital, Coimbatore", "name:ta": "\u0bb8\u0bcd\u0bb0\u0bc0 \u0bb2\u0b95\u0bcd\u0bb7\u0bcd\u0bae\u0bbf \u0bae\u0bb0\u0bc1\u0ba4\u0bcd\u0ba4\u0bc1\u0bb5\u0bae\u0ba9\u0bc8", "operator:type": "private", "phone": "+914222644133", "source": "OpenGovernmentData", "website": "https://www.smch.in/"}}, {"type": "node", "id": 4456097690, "lat": 11.0251453, "lon": 76.9025849}, {"type": "node", "id": 4470920289, "lat": 11.008577, "lon": 76.9563626, "tags": {"addr:block": "Coimbatore Corpn", "addr:district": "Coimbatore", "addr:full": "43, Sanmugam Road, Poo Market Bus Stop, Puthiyavan Nagar, Sukrawar Pettai, R.S. Puram, Rr Layout", "addr:postcode": "641002", "addr:state": "Tamil Nadu", "addr:street": "Shanmugam Road", "addr:street:ta": "\u0b9a\u0ba3\u0bcd\u0bae\u0bc1\u0b95\u0bae\u0bcd \u0b9a\u0bbe\u0bb2\u0bc8", "addr:subdistrict": "Coimbatore South", "amenity": "clinic", "healthcare": "clinic", "name:en": "Rex Ortho Hospital", "name:ta": "\u0bb0\u0bc6\u0b95\u0bcd\u0bb8\u0bcd \u0b8e\u0bb2\u0bc1\u0bae\u0bcd\u0baa\u0bbf\u0baf\u0bb2\u0bcd \u0bae\u0bb0\u0bc1\u0ba4\u0bcd\u0ba4\u0bc1\u0bb5\u0bae\u0ba9\u0bc8", "source": "survey"}}, {"type": "node", "id": 4472726820, "lat": 11.0148532, "lon": 76.9489909, "tags": {"addr:district": "Coimbatore", "addr:full": "46, Cowley Brown Road, R.S.Puram", "addr:postcode": "641002", "addr:state": "Tamil Nadu", "addr:subdistrict": "Coimbatore South", "amenity": "hospital", "healthcare": "hospital", "name": "Vijaya Hospitals", "name:en": "Vijaya Hospital", "source": "OpenGovernmentData"}}, {"type": "node", "id": 4510663590, "lat": 11.0265248, "lon": 76.9475939, "tags": {"addr:district": "Coimbatore", "addr:full": "80 N S R Road Saibaba Cilony", "addr:postcode": "641011", "addr:state": "Tamil Nadu", "addr:street": "NSR Road", "addr:subdistrict": "Coimbatore South", "amenity": "hospital", "healthcare": "hospital", "name": "Shri Hari Hospital, Coimbatore", "source": "OpenGovernmentData"}}, {"type": "node", "id": 4571552072, "lat": 11.0354039, "lon": 76.9304803, "tags": {"addr:city": "Coimbatore", "addr:postcode": "641025", "addr:street": "Kovilmedu Road", "amenity": "hospital", "emergency": "yes", "healthcare": "hospital", "name": "Bethesda Hospital"}}, {"type": "node", "id": 4571573811, "lat": 11.0335068, "lon": 76.929457, "tags": {"addr:block": "Coimbatore Corpn", "addr:city": "Coimbatore", "addr:district": "Coimbatore", "addr:full": "13/82, A And B Thadagam Road, Kolimedu, Velandipalayam, Coimbatore", "addr:postcode": "641025", "addr:state": "Tamil Nadu", "addr:street": "Kovilmedu Road", "addr:subdistrict": "Coimbatore South", "amenity": "hospital", "amenity:ta": "\u0bae\u0bb0\u0bc1\u0ba4\u0bcd\u0ba4\u0bc1\u0bb5\u0bae\u0ba9\u0bc8", "healthcare": "hospital", "name": "Kiruba Hospital, Koilmedu,Coimbatore", "name:ta": "\u0b95\u0bbf\u0bb0\u0bc1\u0baa\u0bbe \u0bae\u0bb0\u0bc1\u0ba4\u0bcd\u0ba4\u0bc1\u0bb5\u0bae\u0ba9\u0bc8", "source": "OpenGovernmentData"}}, {"type": "node", "id": 4594346691, "lat": 11.0070427, "lon": 77.0119571}, {"type": "node", "id": 4594346692, "lat": 11.00704, "lon": 77.0118176}, {"type": "node", "id": 4594346693, "lat": 11.0068694, "lon": 77.0118209}, {"type": "node", "id": 4594346694, "lat": 11.006872, "lon": 77.0119604}, {"type": "node", "id": 4603303688, "lat": 11.0093491, "lon": 77.0024216, "tags": {"addr:district": "Coimbatore", "addr:full": "30, Ram Gardens, Sowripalayam Road Udayampalayam", "addr:postcode": "641028", "addr:state": "Tamil Nadu", "addr:subdistrict": "Coimbatore South", "amenity": "hospital", "healthcare": "hospital", "name": "G R Hospital", "source": "OpenGovernmentData"}}, {"type": "node", "id": 4605693890, "lat": 11.025203, "lon": 76.9016588}, {"type": "node", "id": 4703147672, "lat": 11.0080012, "lon": 76.9362691, "tags": {"amenity": "hospital", "name": "TNAU Hospital"}}, {"type": "node", "id": 4727144593, "lat": 11.0215875, "lon": 76.9171461}, {"type": "node", "id": 4815778337, "lat": 11.0151259, "lon": 76.9516784, "tags": {"amenity": "clinic", "healthcare": "clinic", "name:en": "Apollo Clinic"}}, {"type": "node", "id": 4825348621, "lat": 11.087657, "lon": 77.003366, "tags": {"amenity": "hospital", "healthcare": "hospital", "name:en": "Vimal jothi"}}, {"type": "node", "id": 4878934413, "lat": 11.0037607, "lon": 76.9560947, "tags": {"amenity": "pharmacy", "healthcare": "pharmacy", "name": "Sri Vaari pharmacy"}}, {"type": "node", "id": 4888977392, "lat": 10.9488443, "lon": 76.97752}, {"type": "node", "id": 4888977393, "lat": 10.9488785, "lon": 76.9778285}, {"type": "node", "id": 4888977394, "lat": 10.9486863, "lon": 76.9778499}, {"type": "node", "id": 4888977395, "lat": 10.9486468, "lon": 76.9775442}, {"type": "node", "id": 4888977399, "lat": 10.9538276, "lon": 76.9732811}, {"type": "node", "id": 4888977400, "lat": 10.953831, "lon": 76.9736492}, {"type": "node", "id": 4888977401, "lat": 10.9538901, "lon": 76.9739111}, {"type": "node", "id": 4888977402, "lat": 10.9537546, "lon": 76.9739359}, {"type": "node", "id": 4888977403, "lat": 10.9537164, "lon": 76.9736988}, {"type": "node", "id": 4888977404, "lat": 10.9537059, "lon": 76.9732847}, {"type": "node", "id": 4888987310, "lat": 10.9543156, "lon": 76.9728608}, {"type": "node", "id": 4888987311, "lat": 10.9544623, "lon": 76.9734796}, {"type": "node", "id": 4888987312, "lat": 10.954327, "lon": 76.973503}, {"type": "node", "id": 4888987313, "lat": 10.9542514, "lon": 76.973162}, {"type": "node", "id": 4888987314, "lat": 10.9541803, "lon": 76.9731761}, {"type": "node", "id": 4888987315, "lat": 10.9541276, "lon": 76.9728912}, {"type": "node", "id": 4888987316, "lat": 10.9578869, "lon": 76.9721948}, {"type": "node", "id": 4888987317, "lat": 10.9579729, "lon": 76.9725585}, {"type": "node", "id": 4888987318, "lat": 10.9577993, "lon": 76.972601}, {"type": "node", "id": 4888987319, "lat": 10.9577134, "lon": 76.9722373}, {"type": "node", "id": 4888989028, "lat": 10.9582958, "lon": 76.9709006}, {"type": "node", "id": 4888989029, "lat": 10.9583256, "lon": 76.9710524}, {"type": "node", "id": 4888989030, "lat": 10.9582225, "lon": 76.9710757}, {"type": "node", "id": 4888989031, "lat": 10.9582408, "lon": 76.9711808}, {"type": "node", "id": 4888989032, "lat": 10.9581124, "lon": 76.9712041}, {"type": "node", "id": 4888989033, "lat": 10.9580574, "lon": 76.970952}, {"type": "node", "id": 4889052928, "lat": 10.9872045, "lon": 76.9334235}, {"type": "node", "id": 4889052929, "lat": 10.9869753, "lon": 76.9338952}, {"type": "node", "id": 4889052930, "lat": 10.9865627, "lon": 76.9336851}, {"type": "node", "id": 4889052931, "lat": 10.9867919, "lon": 76.933204}, {"type": "node", "id": 4889052932, "lat": 10.9874229, "lon": 76.9357165}, {"type": "node", "id": 4889052933, "lat": 10.9873931, "lon": 76.935901}, {"type": "node", "id": 4889052934, "lat": 10.9872648, "lon": 76.93588}, {"type": "node", "id": 4889052935, "lat": 10.9872923, "lon": 76.9356978}, {"type": "node", "id": 4903163539, "lat": 10.9682651, "lon": 76.9784901}, {"type": "node", "id": 4903163540, "lat": 10.968309, "lon": 76.9787096}, {"type": "node", "id": 4903163541, "lat": 10.9680016, "lon": 76.9786446}, {"type": "node", "id": 4903163542, "lat": 10.9680455, "lon": 76.9784372}, {"type": "node", "id": 4903200281, "lat": 10.9979482, "lon": 77.0169652}, {"type": "node", "id": 4903200282, "lat": 10.9979642, "lon": 77.0171566}, {"type": "node", "id": 4903200283, "lat": 10.9978175, "lon": 77.0171683}, {"type": "node", "id": 4903200284, "lat": 10.9978107, "lon": 77.0169722}, {"type": "node", "id": 4961511857, "lat": 11.0228834, "lon": 76.9766093}, {"type": "node", "id": 4961511858, "lat": 11.023015, "lon": 76.9771872}, {"type": "node", "id": 4961511859, "lat": 11.0243182, "lon": 76.9758367}, {"type": "node", "id": 4961511860, "lat": 11.0228426, "lon": 76.9758944}, {"type": "node", "id": 5042400524, "lat": 11.0078719, "lon": 76.9663418, "tags": {"addr:district": "Coimbatore", "addr:full": "373 , Dr Nanjappa Road", "addr:postcode": "641018", "addr:state": "Tamil Nadu", "amenity": "clinic", "healthcare": "clinic", "name": "Dr N S Palaniappan Nursing Home", "name:en": "Dr. N.S. Palaniappan nursing home", "source": "OpenGovernmentData"}}, {"type": "node", "id": 5104357826, "lat": 10.9547118, "lon": 76.9893223, "tags": {"amenity": "clinic", "name:fr": "Dr Hari"}}, {"type": "node", "id": 5338398362, "lat": 10.9905526, "lon": 76.9607735, "tags": {"amenity": "pharmacy", "healthcare": "pharmacy", "name": "Chitra pharmacy"}}, {"type": "node", "id": 5338403022, "lat": 10.9842757, "lon": 76.9297655, "tags": {"amenity": "hospital", "healthcare": "hospital", "name": "Telugupalayam Hospital"}}, {"type": "node", "id": 5640849569, "lat": 10.996304, "lon": 77.004086}, {"type": "node", "id": 5643927426, "lat": 10.9969428, "lon": 76.9993022, "tags": {"addr:district": "Coimbatore", "addr:full": "Ramanathapuram", "addr:postcode": "641045", "addr:state": "Tamil Nadu", "amenity": "hospital", "healthcare": "hospital", "name": "Leo Ortho care Hospital", "source": "Local Knowledge"}}, {"type": "node", "id": 5646145441, "lat": 11.0005656, "lon": 77.0300317, "tags": {"healthcare": "alternative", "name": "Rahul Acupuncture"}}, {"type": "node", "id": 5774631561, "lat": 11.0242987, "lon": 76.9582327, "tags": {"addr:district": "Coimbatore", "addr:full": "Sivananda Colony, Tatabad", "addr:housenumber": "80", "addr:postcode": "641012", "addr:state": "Tamil Nadu", "addr:street": "Sivananda Colony Main Road", "amenity": "hospital", "healthcare": "hospital", "name": "Eye Trust Hospital", "name:en": "Eye Trust", "phone": "0422-4366927", "source": "Local Knowledge"}}, {"type": "node", "id": 5837579825, "lat": 11.021742, "lon": 77.0190105, "tags": {"amenity": "clinic", "healthcare": "clinic", "name:en": "Microbiological Lab"}}, {"type": "node", "id": 6035837217, "lat": 10.9627046, "lon": 76.9863527}, {"type": "node", "id": 6035837218, "lat": 10.9626448, "lon": 76.9868325}, {"type": "node", "id": 6035837219, "lat": 10.9624192, "lon": 76.9867717}, {"type": "node", "id": 6035837220, "lat": 10.9624922, "lon": 76.9863053}, {"type": "node", "id": 6110277692, "lat": 11.0108916, "lon": 76.965985}, {"type": "node", "id": 6110277693, "lat": 11.0108957, "lon": 76.9662213}, {"type": "node", "id": 6110277694, "lat": 11.0106993, "lon": 76.9662341}, {"type": "node", "id": 6110277695, "lat": 11.0106993, "lon": 76.9659914}, {"type": "node", "id": 6261616468, "lat": 10.9494267, "lon": 76.9290675}, {"type": "node", "id": 6261616469, "lat": 10.9495731, "lon": 76.9291458}, {"type": "node", "id": 6261616470, "lat": 10.9495016, "lon": 76.9292845}, {"type": "node", "id": 6261616471, "lat": 10.9493552, "lon": 76.9292061}, {"type": "node", "id": 6273310047, "lat": 11.0315895, "lon": 76.8879894}, {"type": "node", "id": 6332623378, "lat": 10.9560648, "lon": 76.9239613}, {"type": "node", "id": 6332623380, "lat": 10.9559469, "lon": 76.9240438}, {"type": "node", "id": 6332623381, "lat": 10.9558433, "lon": 76.9239467}, {"type": "node", "id": 6356066271, "lat": 11.0080543, "lon": 77.0201768}, {"type": "node", "id": 6356066449, "lat": 11.0099249, "lon": 77.0200564}, {"type": "node", "id": 6356066450, "lat": 11.0100254, "lon": 77.0221037}, {"type": "node", "id": 6356066451, "lat": 11.0098304, "lon": 77.0229286}, {"type": "node", "id": 6356066452, "lat": 11.0099486, "lon": 77.0247411}, {"type": "node", "id": 6356066453, "lat": 11.00827, "lon": 77.0253793}, {"type": "node", "id": 6356066454, "lat": 11.0078681, "lon": 77.0242473}, {"type": "node", "id": 6356066455, "lat": 11.0074484, "lon": 77.024458}, {"type": "node", "id": 6356066456, "lat": 11.0078858, "lon": 77.0203997}, {"type": "node", "id": 6356066457, "lat": 11.0080395, "lon": 77.0203936}, {"type": "node", "id": 6356066458, "lat": 11.0084828, "lon": 77.0200805}, {"type": "node", "id": 6356067518, "lat": 11.0092807, "lon": 77.0240486, "tags": {"amenity": "hospital", "healthcare": "hospital", "name": "ESI Hospital", "operator": "Employees' State Insurance", "operator:short": "ESI", "operator:type": "private", "operator:wikidata": "Q3595726", "operator:wikipedia": "hi:\u0915\u0930\u094d\u092e\u091a\u093e\u0930\u0940 \u0930\u093e\u091c\u094d\u200d\u092f \u092c\u0940\u092e\u093e \u0928\u093f\u0917\u092e"}}, {"type": "node", "id": 6392075888, "lat": 11.0794799, "lon": 76.9409445, "tags": {"addr:place": "Thudiyalur", "addr:street": "Thudialur to Kanuvai Road", "alt_name": "baagerathi hospital", "amenity": "hospital", "healthcare": "hospital", "name": "bhagirathi hospital", "name:ta": "\u0baa\u0bbe\u0b95\u0bc0\u0bb0\u0ba4\u0bbf \u0bae\u0bb0\u0bc1\u0ba4\u0bcd\u0ba4\u0bc1\u0bb5\u0bae\u0ba9\u0bc8"}}, {"type": "node", "id": 6392099850, "lat": 11.0706105, "lon": 76.9421511}, {"type": "node", "id": 6392099851, "lat": 11.0704144, "lon": 76.9419163}, {"type": "node", "id": 6392099852, "lat": 11.070593, "lon": 76.9419226}, {"type": "node", "id": 6392099853, "lat": 11.0704471, "lon": 76.9421525}, {"type": "node", "id": 6404096355, "lat": 11.0803127, "lon": 76.9427166, "tags": {"amenity": "pharmacy", "healthcare": "pharmacy", "level": "0", "name": "thulasi pharmacy", "wheelchair": "no"}}, {"type": "node", "id": 6436348985, "lat": 11.0203396, "lon": 77.018377, "tags": {"amenity": "pharmacy", "healthcare": "pharmacy", "name:en": "Matha Medicals"}}, {"type": "node", "id": 6436701885, "lat": 11.0206016, "lon": 77.0182915, "tags": {"amenity": "clinic", "healthcare": "clinic", "name:en": "Ko Cosmetic"}}, {"type": "node", "id": 6437344555, "lat": 11.0273466, "lon": 76.9502755}, {"type": "node", "id": 6437344556, "lat": 11.0271283, "lon": 76.9500054}, {"type": "node", "id": 6437344557, "lat": 11.0273288, "lon": 76.9499935}, {"type": "node", "id": 6437344558, "lat": 11.0271521, "lon": 76.950276}, {"type": "node", "id": 6483712485, "lat": 11.0364256, "lon": 77.015101, "tags": {"addr:street": "Vilankuruchi Road", "amenity": "clinic", "name:en": "Bioline"}}, {"type": "node", "id": 6914767991, "lat": 11.0187223, "lon": 76.9612328, "tags": {"addr:district": "Coimbatore", "addr:full": "223, Dr. Rajendra Prasad Road (100 Feet Road), Gandhipuram", "addr:postcode": "641012", "addr:state": "Tamil Nadu", "addr:subdistrict": "Coimbatore South", "amenity": "hospital", "healthcare": "hospital", "name": "Bethel Hospital Pvt. Ltd. - Coimbatore", "source": "OpenGovernmentData"}}, {"type": "node", "id": 6914767996, "lat": 11.0419411, "lon": 77.0379131, "tags": {"addr:district": "Coimbatore", "addr:full": "Kalapatti Main Road Near Sitra Civil Aerodrome Post", "addr:postcode": "641014", "addr:state": "Tamil Nadu", "amenity": "hospital", "healthcare": "hospital", "name": "Park Hospital, Coimbatore", "source": "OpenGovernmentData"}}, {"type": "node", "id": 6914880547, "lat": 11.0291808, "lon": 76.9019419, "tags": {"addr:block": "Coimbatore Corpn", "addr:district": "Coimbatore", "addr:full": "84/2, Alamaram Busstop,Vadavalli, Coimbatore, Maruthamalai Main Road", "addr:postcode": "641041", "addr:state": "Tamil Nadu", "addr:subdistrict": "Coimbatore South", "amenity": "hospital", "name": "Mouthi Hospital Vadavalli, Coimbatore", "source": "OpenGovernmentData"}}, {"type": "node", "id": 6914895660, "lat": 11.0120021, "lon": 76.9494063, "tags": {"addr:district": "Coimbatore", "addr:full": "69, West Venkatasamy Road, R S Puram", "addr:postcode": "641002", "addr:state": "Tamil Nadu", "addr:subdistrict": "Coimbatore South", "amenity": "hospital", "healthcare": "hospital", "name": "Vikaram ENT Hospital, Coimbatore", "source": "OpenGovernmentData"}}, {"type": "node", "id": 6914896216, "lat": 10.998556, "lon": 76.9918562, "tags": {"addr:district": "Coimbatore", "addr:full": "1-B,Ariyan Soap Colony,Police Kandasamy Street,Ramanathapuram", "addr:postcode": "641045", "addr:state": "Tamil Nadu", "addr:subdistrict": "Coimbatore South", "amenity": "hospital", "healthcare": "hospital", "name": "R. A. Hospital", "source": "OpenGovernmentData"}}, {"type": "node", "id": 6914896226, "lat": 11.0546916, "lon": 77.0639178, "tags": {"addr:district": "Coimbatore", "addr:full": "No. 78B, Kowai Road, Unnur", "addr:postcode": "641653", "addr:state": "Tamil Nadu", "amenity": "hospital", "healthcare": "hospital", "name": "R V Hospital, Coimbatore", "source": "OpenGovernmentData"}}, {"type": "node", "id": 6914911765, "lat": 10.9927872, "lon": 76.9550228, "tags": {"addr:district": "Coimbatore", "addr:full": "No. 608, Big Bazaar Street", "addr:postcode": "641001", "addr:state": "Tamil Nadu", "amenity": "hospital", "healthcare": "hospital", "name": "Vasavi Hospital", "source": "OpenGovernmentData"}}, {"type": "node", "id": 6914927152, "lat": 11.0218408, "lon": 76.9152537, "tags": {"addr:district": "Coimbatore", "addr:full": "285-A Marudhamalai Main Rod , Mullai Nagar", "addr:postcode": "641041", "addr:state": "Tamil Nadu", "amenity": "hospital", "check_date": "2023-02-04", "name": "Vallalar Hospitals (Pvt) Ltd", "name:en": "Vallalar Hospitals (Pvt) Ltd", "name:ta": "\u0bb5\u0bb3\u0bcd\u0bb3\u0bb2\u0bbe\u0bb0\u0bcd \u0bae\u0bb0\u0bc1\u0ba4\u0bcd\u0ba4\u0bc1\u0bb5\u0bae\u0ba9\u0bc8", "source": "OpenGovernmentData"}}, {"type": "node", "id": 6914937640, "lat": 11.0231203, "lon": 76.9776419, "tags": {"addr:district": "Coimbatore", "addr:full": "395, Sarojini Naidu Road, Sidhapudur, Back Side Of Gandhipuram", "addr:postcode": "641044", "addr:state": "Tamil Nadu", "addr:subdistrict": "Coimbatore South", "amenity": "hospital", "healthcare": "hospital", "name": "Sri Ramakrishna Hospital, Coimbatore", "source": "OpenGovernmentData"}}, {"type": "node", "id": 6914937646, "lat": 10.9972817, "lon": 76.9598213, "tags": {"addr:district": "Coimbatore", "addr:full": "297&298, D B Road, R S Puram", "addr:postcode": "641002", "addr:state": "Tamil Nadu", "addr:subdistrict": "Coimbatore South", "amenity": "hospital", "healthcare": "hospital", "name": "Sri Ramana Hospital", "source": "OpenGovernmentData"}}, {"type": "node", "id": 6914937656, "lat": 10.9949528, "lon": 76.9755752, "tags": {"addr:district": "Coimbatore", "addr:full": "1,2, Sundaresa Lay-Out,Trichy Road", "addr:postcode": "641018", "addr:state": "Tamil Nadu", "amenity": "clinic", "healthcare": "clinic", "name": "Sri Rani Poly Clinic", "source": "OpenGovernmentData"}}, {"type": "node", "id": 6914937682, "lat": 11.0474918, "lon": 76.9930659, "tags": {"addr:block": "Coimbatore Corpn", "addr:district": "Coimbatore", "addr:full": "Bharathi Nagar,Ganapathi, Coimbatore, Nehru Nagar,Police Qts Road", "addr:postcode": "641006", "addr:state": "Tamil Nadu", "addr:subdistrict": "Coimbatore South", "amenity": "hospital", "name": "Sri Sakthi Hospital, Ganapathi, Coimbatore", "source": "OpenGovernmentData"}}, {"type": "node", "id": 6915000695, "lat": 11.0116059, "lon": 76.9606769, "tags": {"addr:district": "Coimbatore", "addr:full": "123, Sashtri Road, Ram Nagar", "addr:postcode": "641009", "addr:state": "Tamil Nadu", "amenity": "clinic", "healthcare": "clinic", "name": "Sri Meru Nursing Home, Coimbatore", "source": "OpenGovernmentData"}}, {"type": "node", "id": 6915018746, "lat": 11.072535, "lon": 77.0017429, "tags": {"addr:district": "Coimbatore", "addr:full": "12/93 A, Sathy-Mettupalayam South West Street, Sirumugai", "addr:postcode": "641302", "addr:state": "Tamil Nadu", "amenity": "clinic", "healthcare": "clinic", "name": "Sri Loga Clinic", "source": "OpenGovernmentData"}}, {"type": "node", "id": 6915018753, "lat": 11.0891666, "lon": 76.9384105, "tags": {"addr:district": "Coimbatore", "addr:full": "3/3318, Mtp Road, K.Vadamadurai", "addr:postcode": "641017", "addr:state": "Tamil Nadu", "amenity": "hospital", "healthcare": "hospital", "name": "Sri Maruthi Medical Center and Hospital", "source": "OpenGovernmentData"}}, {"type": "node", "id": 6915358911, "lat": 10.9627735, "lon": 76.9574609, "tags": {"addr:district": "Coimbatore", "addr:full": "# 25, Rajagopal Nagar, Kuniamuthur, Opposite Kaveriammal Kalyana Mandapam", "addr:postcode": "641008", "addr:state": "Tamil Nadu", "addr:subdistrict": "Coimbatore South", "amenity": "clinic", "name": "Mallika Nursing Home", "source": "OpenGovernmentData"}}, {"type": "node", "id": 6915464620, "lat": 11.0150799, "lon": 76.9517022, "tags": {"addr:district": "Coimbatore", "addr:full": "19,Cowley Brown Road, R.S Puram,Cbe-02", "addr:postcode": "641002", "addr:state": "Tamil Nadu", "amenity": "hospital", "healthcare": "hospital", "name": "Veeku Hospital", "source": "OpenGovernmentData"}}, {"type": "node", "id": 6917388569, "lat": 11.0631074, "lon": 76.9985509, "tags": {"amenity": "hospital", "healthcare": "hospital", "healthcare:speciality": "paediatrics", "name": "Pranav Clinic"}}, {"type": "node", "id": 6926049956, "lat": 10.962127, "lon": 76.9556397, "tags": {"addr:district": "Coimbatore", "addr:full": "414/1- Palakad Main Road", "addr:postcode": "641008", "addr:state": "Tamil Nadu", "amenity": "hospital", "name": "Gowtham Hospital", "source": "OpenGovernmentData"}}, {"type": "node", "id": 6926055606, "lat": 11.0335424, "lon": 77.0376261, "tags": {"addr:district": "Coimbatore", "addr:full": "18-G, Ashok Layout, Civil Aerodrome Road", "addr:postcode": "641014", "addr:state": "Tamil Nadu", "amenity": "hospital", "healthcare": "hospital", "name": "St Lukes Hospital, Coimbatore", "source": "OpenGovernmentData"}}, {"type": "node", "id": 6926183495, "lat": 10.9981558, "lon": 76.9994865, "tags": {"addr:district": "Coimbatore", "addr:full": "Trichy Road Sowripalayam Pirivu Ramanathapuram", "addr:postcode": "641045", "addr:state": "Tamil Nadu", "amenity": "hospital", "healthcare": "hospital", "name": "N.M. Hospital", "source": "OpenGovernmentData"}}, {"type": "node", "id": 6926369631, "lat": 11.0264336, "lon": 76.9423118, "tags": {"addr:district": "Coimbatore", "addr:full": "129, Narasimhanaicken Palayam", "addr:postcode": "641031", "addr:state": "Tamil Nadu", "addr:subdistrict": "Coimbatore South", "amenity": "hospital", "healthcare": "hospital", "name": "Sri Guru Hospital Pvt Ltd", "source": "OpenGovernmentData"}}, {"type": "node", "id": 6926437444, "lat": 11.0418035, "lon": 76.9477855, "tags": {"addr:block": "Coimbatore Corpn", "addr:district": "Coimbatore", "addr:full": "20/A, Coimbatore, Goundampalayam", "addr:postcode": "641030", "addr:state": "Tamil Nadu", "addr:subdistrict": "Coimbatore South", "amenity": "hospital", "name": "H. S. Hospital", "source": "OpenGovernmentData"}}, {"type": "node", "id": 6928304820, "lat": 11.0144375, "lon": 76.9504979, "tags": {"addr:district": "Coimbatore", "addr:full": "New No.52 ,Old No.133 , East Bashyakaralu Road,R.S. Puram,End Of Maruthi Theatre Road", "addr:postcode": "641002", "addr:state": "Tamil Nadu", "amenity": "hospital", "healthcare": "hospital", "name": "Vedanayagam Hospital (P) Limited", "source": "OpenGovernmentData"}}, {"type": "node", "id": 6928594608, "lat": 10.9986666, "lon": 77.0143291, "tags": {"addr:district": "Coimbatore", "addr:full": "2100,Trichy Road, Rajalakshmi Mills Stop", "addr:postcode": "641005", "addr:state": "Tamil Nadu", "amenity": "hospital", "healthcare": "hospital", "name": "VGM Hospital", "source": "OpenGovernmentData"}}, {"type": "node", "id": 6928752789, "lat": 11.0026291, "lon": 77.0406497, "tags": {"addr:district": "Coimbatore", "addr:full": "687,Trichy Road ,Ramanathapuram, Opposite Alvernia School", "addr:postcode": "641045", "addr:state": "Tamil Nadu", "addr:subdistrict": "Coimbatore South", "amenity": "hospital", "healthcare": "hospital", "name": "Dr. Muthu's Ortho Centre-Coimbatore", "source": "OpenGovernmentData"}}, {"type": "node", "id": 6928817376, "lat": 11.0430968, "lon": 76.9241157, "tags": {"addr:district": "Coimbatore", "addr:full": "Plot No 1, Raju Garden, Thadagam Road, T V S Nagar, Edayarpalayam Post", "addr:postcode": "641025", "addr:state": "Tamil Nadu", "amenity": "hospital", "healthcare": "hospital", "name": "Sree Abishek Hospitals", "source": "OpenGovernmentData"}}, {"type": "node", "id": 6928852611, "lat": 11.0560065, "lon": 77.0164575, "tags": {"addr:block": "Coimbatore Corpn", "addr:district": "Coimbatore", "addr:full": "Vilankurichi, Coimbatore, Bharathi Nagar", "addr:postcode": "641035", "addr:state": "Tamil Nadu", "addr:subdistrict": "Coimbatore South", "amenity": "hospital", "healthcare:speciality": "diabetology;gynaecology", "name": "Sree Andal Hospital", "source": "OpenGovernmentData"}}, {"type": "node", "id": 6929292296, "lat": 10.9958401, "lon": 76.9915813, "tags": {"addr:district": "Coimbatore", "addr:full": "Post Box No : 7012 ,Trichy Road ,Ramanathapuram", "addr:postcode": "641045", "addr:state": "Tamil Nadu", "amenity": "hospital", "healthcare": "hospital", "name": "The Arya Vaidya Chikitsalayam and Research Institue", "source": "OpenGovernmentData"}}, {"type": "node", "id": 6929951553, "lat": 11.041741, "lon": 76.9835246, "tags": {"addr:district": "Coimbatore", "addr:full": "Sathy Main Road, (Near Bsnal Exchange)Ganapathy", "addr:postcode": "641006", "addr:state": "Tamil Nadu", "amenity": "hospital", "healthcare": "hospital", "name": "Kovai Ent Hospital and Research Centre", "source": "OpenGovernmentData"}}, {"type": "node", "id": 6929967231, "lat": 11.0159329, "lon": 76.9613153, "tags": {"addr:district": "Coimbatore", "addr:full": "15, Vivekanand Road, Ramnagar", "addr:postcode": "641009", "addr:state": "Tamil Nadu", "amenity": "hospital", "healthcare": "hospital", "name": "Kovai Diabetes Speciality Centre and Hospital", "name:en": "Kovai Diabetes Speciality Centre and Hospital", "source": "OpenGovernmentData"}}, {"type": "node", "id": 6929976817, "lat": 10.9589868, "lon": 76.9788824, "tags": {"addr:district": "Coimbatore", "addr:full": "135-A Saradha Mill Road Sundarapuram", "addr:postcode": "641024", "addr:state": "Tamil Nadu", "addr:subdistrict": "Coimbatore North", "amenity": "hospital", "name": "Koushikha Hospital", "source": "OpenGovernmentData"}}, {"type": "node", "id": 6930487814, "lat": 11.0545152, "lon": 77.0652106, "tags": {"addr:district": "Coimbatore", "addr:full": "Chinniampalayam Venkateshwara Hospital, Avinashi Road", "addr:postcode": "641062", "addr:state": "Tamil Nadu", "amenity": "hospital", "healthcare": "hospital", "name": "Chinniampalayam Venkateshwara Hospital", "source": "OpenGovernmentData"}}, {"type": "node", "id": 6932012014, "lat": 10.9946605, "lon": 76.9793813, "tags": {"addr:district": "Coimbatore", "addr:full": "No.1287, Trichy Road, Opposite Icici Bank", "addr:postcode": "641018", "addr:state": "Tamil Nadu", "addr:subdistrict": "Coimbatore South", "amenity": "hospital", "healthcare": "hospital", "name": "Richmond Hospital", "source": "OpenGovernmentData"}}, {"type": "node", "id": 6932159823, "lat": 11.0290235, "lon": 76.932096, "tags": {"addr:block": "Coimbatore Corpn", "addr:district": "Coimbatore", "addr:full": "Near Avila Convent,Velandipalayam, Coimbatore, Thadagam Road", "addr:postcode": "641025", "addr:state": "Tamil Nadu", "addr:subdistrict": "Coimbatore South", "amenity": "hospital", "healthcare": "hospital", "name": "Ranga Hospital, Velandipalayam", "source": "OpenGovernmentData"}}, {"type": "node", "id": 6932162502, "lat": 11.018513, "lon": 76.9445555, "tags": {"addr:district": "Coimbatore", "addr:full": "119, 120, West Periaswamy Road R S Puram u", "addr:postcode": "641002", "addr:state": "Tamil Nadu", "addr:subdistrict": "Coimbatore South", "amenity": "hospital", "healthcare": "hospital", "name": "Rao Hospital", "source": "OpenGovernmentData"}}, {"type": "node", "id": 6932200240, "lat": 11.017244, "lon": 76.9990446, "tags": {"addr:district": "Coimbatore", "addr:full": "10Th Cross, Thirumagal Nagar, Peelamedu, Pudur", "addr:postcode": "641004", "addr:state": "Tamil Nadu", "addr:subdistrict": "Coimbatore South", "amenity": "hospital", "healthcare": "hospital", "name": "Joseph Hospital, Coimbatore", "source": "OpenGovernmentData"}}, {"type": "node", "id": 6932203509, "lat": 11.01362, "lon": 77.0222618, "tags": {"addr:district": "Coimbatore", "addr:full": "13/1, Bharathi Nagar, Kamarajar Road, Uppilipalayam Post", "addr:postcode": "641015", "addr:state": "Tamil Nadu", "addr:subdistrict": "Coimbatore South", "amenity": "hospital", "healthcare": "hospital", "name": "Ramvel Hospital", "source": "OpenGovernmentData"}}, {"type": "node", "id": 6933038573, "lat": 10.9943683, "lon": 76.9642074, "tags": {"addr:district": "Coimbatore", "addr:full": "37, Ismail Rowther Street", "addr:postcode": "641001", "addr:state": "Tamil Nadu", "amenity": "hospital", "healthcare": "hospital", "name": "Immaculate Conception Convent Hospital", "source": "OpenGovernmentData"}}, {"type": "node", "id": 6933048462, "lat": 11.0898944, "lon": 76.9423681, "tags": {"addr:district": "Coimbatore", "addr:full": "5/33, Nggo Colony Mettupalayam Road", "addr:postcode": "641022", "addr:state": "Tamil Nadu", "amenity": "clinic", "healthcare": "clinic", "name": "Sree Ramm Nursing Home", "source": "OpenGovernmentData"}}, {"type": "node", "id": 6933115102, "lat": 11.0321465, "lon": 76.9761197, "tags": {"addr:district": "Coimbatore", "addr:full": "Ganapathy, Coimbatore, Raju Naidu Street No.2", "addr:postcode": "641006", "addr:state": "Tamil Nadu", "alt_name": "Paari Hospital", "amenity": "clinic", "healthcare": "clinic", "name": "Paari Nursing Home", "source": "OpenGovernmentData"}}, {"type": "node", "id": 6933992416, "lat": 10.9553739, "lon": 76.9898473, "tags": {"addr:block": "Coimbatore Corpn", "addr:district": "Coimbatore", "addr:full": "7A, Pothanur,Near Muthoot Finance, Coimbatore, Chettipalayam Road", "addr:postcode": "641023", "addr:state": "Tamil Nadu", "addr:subdistrict": "Coimbatore South", "amenity": "clinic", "name": "S.M.Clinic, Podhanur, Coimbatore", "source": "OpenGovernmentData"}}, {"type": "node", "id": 6934018833, "lat": 11.0091245, "lon": 76.9454058, "tags": {"addr:district": "Coimbatore", "addr:full": "81/83, T V Sami Road West, Opp To Kamatchiamman Temple, R S Puram", "addr:postcode": "641002", "addr:state": "Tamil Nadu", "amenity": "hospital", "healthcare": "hospital", "name": "Vasan Eye Care Hospital, Coimbatore", "source": "OpenGovernmentData"}}, {"type": "node", "id": 6934039564, "lat": 10.9980729, "lon": 77.0001926, "tags": {"addr:district": "Coimbatore", "addr:full": "No-17-A,Sowripalayam Pirivu Road, Ramanathapuram, Trichy Road", "addr:postcode": "641045", "addr:state": "Tamil Nadu", "addr:subdistrict": "Coimbatore South", "amenity": "clinic", "healthcare": "clinic", "name": "Sri Durga Poly Clinic", "source": "OpenGovernmentData"}}, {"type": "node", "id": 6934126430, "lat": 11.0597504, "lon": 76.9441089, "tags": {"addr:district": "Coimbatore", "addr:full": "11-H, S.M. Palayam Road, G.N. Mills (Po)", "addr:postcode": "641029", "addr:state": "Tamil Nadu", "amenity": "clinic", "name": "Parthiban Nursing Home", "source": "OpenGovernmentData"}}, {"type": "node", "id": 6934150425, "lat": 11.0276019, "lon": 76.9415045, "tags": {"addr:district": "Coimbatore", "addr:full": "Old No: 3, New No: 15 Chinnammal Street, Kk Pudur", "addr:postcode": "641038", "addr:state": "Tamil Nadu", "amenity": "clinic", "healthcare": "clinic", "name": "Siloam Thomas Eye Hospital", "source": "OpenGovernmentData"}}, {"type": "node", "id": 6934246107, "lat": 11.0424742, "lon": 76.9476856, "tags": {"addr:block": "Tiruppur Corp", "addr:district": "Tiruppur", "addr:full": "Mangalam Rd, Karuvampalayam, Tiruppur", "addr:postcode": "641687", "addr:state": "Tamil Nadu", "addr:subdistrict": "Avanashi", "amenity": "hospital", "name": "Krithika Hospital , Tiruppur", "source": "OpenGovernmentData"}}, {"type": "node", "id": 6934271101, "lat": 11.0129421, "lon": 76.9629608, "tags": {"addr:district": "Coimbatore", "addr:full": "No. 10, Kalidas Road, Ram Nagar", "addr:postcode": "641009", "addr:state": "Tamil Nadu", "amenity": "hospital", "healthcare": "hospital", "name": "M. V. Eye Care Centre", "source": "OpenGovernmentData"}}, {"type": "node", "id": 6934271130, "lat": 11.0406116, "lon": 77.0401856, "tags": {"addr:block": "Coimbatore Corpn", "addr:district": "Coimbatore", "addr:full": "770, 12, Avinashi Rd, Tnhb Colony, Indira Nagar, Civil Aerodrome Post, Peelamedu", "addr:postcode": "641014", "addr:state": "Tamil Nadu", "addr:subdistrict": "Coimbatore South", "amenity": "hospital", "healthcare": "hospital", "name": "Lotus Eye Care Hospital Ltd, Coimbatore", "source": "OpenGovernmentData"}}, {"type": "node", "id": 6934340596, "lat": 11.0168636, "lon": 76.9756664, "tags": {"addr:district": "Coimbatore", "addr:full": "41,Bharathiyur Road,New Siddhapudur,Coimbatore", "addr:postcode": "641044", "addr:state": "Tamil Nadu", "addr:subdistrict": "Coimbatore South", "amenity": "hospital", "healthcare": "hospital", "name": "Nandha Hospital", "source": "OpenGovernmentData"}}, {"type": "node", "id": 6934340612, "lat": 10.994101, "lon": 76.9569379, "tags": {"addr:district": "Coimbatore", "addr:full": "14/11-A, Bazaar Street, Madukkarai", "addr:postcode": "641105", "addr:state": "Tamil Nadu", "amenity": "hospital", "healthcare": "hospital", "name": "Nataraj Medical Care Center Private Limited", "source": "OpenGovernmentData"}}, {"type": "node", "id": 6934340734, "lat": 10.9962048, "lon": 77.0082217, "tags": {"addr:district": "Coimbatore", "addr:full": "657, Trichy Road, Singanallur, Opp To Andal Kalyana Mandapam", "addr:postcode": "641005", "addr:state": "Tamil Nadu", "amenity": "hospital", "healthcare": "hospital", "name": "Ortho One Orthopaedic Speciality Center(A Unit Of Spine Arthroscopic and Joint Replacement Center Pvt Ltd)", "source": "OpenGovernmentData"}}, {"type": "node", "id": 6934340771, "lat": 11.0427427, "lon": 76.9477212, "tags": {"addr:district": "Coimbatore", "addr:full": "5 / 25, M T P Road, Kavundampalayam", "addr:postcode": "641030", "addr:state": "Tamil Nadu", "amenity": "hospital", "name": "Padmavathy Hospital", "source": "OpenGovernmentData"}}, {"type": "node", "id": 6934424352, "lat": 11.002695, "lon": 76.9513442, "tags": {"addr:district": "Coimbatore", "addr:full": "356, D.B.Road, R.S.Puram", "addr:postcode": "641002", "addr:state": "Tamil Nadu", "amenity": "clinic", "healthcare": "clinic", "name": "Shree Saravana Nursing Home", "source": "OpenGovernmentData"}}, {"type": "node", "id": 6934430447, "lat": 11.0265389, "lon": 76.9470734, "tags": {"addr:district": "Coimbatore", "addr:full": "109, N.S.R. Road, Near Pullamaram Bus Stop Sai Baba Colony", "addr:postcode": "641011", "addr:state": "Tamil Nadu", "amenity": "hospital", "healthcare": "hospital", "name": "Vishnu Ent Hospital - Coimbatore", "source": "OpenGovernmentData"}}, {"type": "node", "id": 6934738477, "lat": 11.0190567, "lon": 76.9625585, "tags": {"addr:district": "Coimbatore", "addr:full": "#205 100 Feet Road Tatabad", "addr:postcode": "641012", "addr:state": "Tamil Nadu", "amenity": "hospital", "healthcare": "hospital", "name": "The Balakrishnan Hospital", "source": "OpenGovernmentData"}}, {"type": "node", "id": 6934957192, "lat": 11.0089711, "lon": 76.9989473, "tags": {"addr:district": "Coimbatore", "addr:full": "1, Karthik Nagar, Sowripalayam Road", "addr:postcode": "641028", "addr:state": "Tamil Nadu", "addr:subdistrict": "Coimbatore South", "amenity": "clinic", "healthcare": "clinic", "name": "Swathi Poly Clinic", "source": "OpenGovernmentData"}}, {"type": "node", "id": 6935186143, "lat": 11.010795, "lon": 76.961735, "tags": {"addr:district": "Coimbatore", "addr:full": "90,Vivekananda Road,Senguptha Steet Junction,Ram Nagar", "addr:postcode": "641007", "addr:state": "Tamil Nadu", "amenity": "clinic", "healthcare": "clinic", "name": "Ponnammal Duraisamy Eye Clinic", "source": "OpenGovernmentData"}}, {"type": "node", "id": 6935188981, "lat": 10.963603, "lon": 76.9563907, "tags": {"addr:district": "Coimbatore", "addr:full": "5/402-H,Kuniamuthur", "addr:postcode": "641008", "addr:state": "Tamil Nadu", "amenity": "hospital", "name": "Sangeetha Hospital, Coimbatore", "source": "OpenGovernmentData"}}, {"type": "node", "id": 6935272584, "lat": 10.9957861, "lon": 76.9876988, "tags": {"addr:district": "Coimbatore", "addr:full": "101/67, Karunanithi Nagar,Behind Sungam Chinthanmani,Thirchy Road", "addr:postcode": "641045", "addr:state": "Tamil Nadu", "amenity": "clinic", "healthcare": "clinic", "name": "Karthick Polyclinic", "source": "OpenGovernmentData"}}, {"type": "node", "id": 6936305098, "lat": 10.9446403, "lon": 76.9352093, "tags": {"addr:district": "Coimbatore", "addr:full": "U 80, Kovaipudur", "addr:postcode": "641014", "addr:state": "Tamil Nadu", "amenity": "hospital", "name": "Priya Hospital, Coimbatore", "source": "OpenGovernmentData"}}, {"type": "node", "id": 6936310680, "lat": 11.0261493, "lon": 77.0176752, "tags": {"addr:district": "Coimbatore", "addr:full": "467 A, Peelamedu, Coimbatore, Vilankurichi Road", "addr:postcode": "641004", "addr:state": "Tamil Nadu", "addr:subdistrict": "Coimbatore South", "amenity": "hospital", "healthcare": "hospital", "name": "Sumith Hospital", "source": "OpenGovernmentData"}}, {"type": "node", "id": 6936339717, "lat": 11.0270299, "lon": 77.0187333, "tags": {"addr:block": "Coimbatore Corpn", "addr:district": "Coimbatore", "addr:full": "Peelamedu, Coimbatore, Gandhiji Stret", "addr:postcode": "641004", "addr:state": "Tamil Nadu", "addr:subdistrict": "Coimbatore South", "amenity": "hospital", "healthcare": "hospital", "name": "Rajah Hospital, Coimbatore", "source": "OpenGovernmentData"}}, {"type": "node", "id": 6936359924, "lat": 11.0174139, "lon": 76.9617565, "tags": {"addr:district": "Coimbatore", "addr:full": "828-A Cross Cut Road Power House Gandhipuram", "addr:postcode": "641012", "addr:state": "Tamil Nadu", "addr:subdistrict": "Coimbatore South", "amenity": "hospital", "healthcare": "hospital", "name": "Lalitha Hospital", "source": "OpenGovernmentData"}}, {"type": "node", "id": 6936359961, "lat": 11.019682, "lon": 76.9947731, "tags": {"addr:district": "Coimbatore", "addr:full": "S F No 522/3, Udayampalayam Road, Nava India, Hindustan College Road", "addr:postcode": "641028", "addr:state": "Tamil Nadu", "amenity": "hospital", "healthcare": "hospital", "name": "Hindusthan Hospital, Coimbatore", "source": "OpenGovernmentData"}}, {"type": "node", "id": 6936359967, "lat": 11.0150812, "lon": 76.95132, "tags": {"addr:district": "Coimbatore", "addr:full": "Cowley Brown Road, R.S.Puram", "addr:postcode": "641002", "addr:state": "Tamil Nadu", "addr:subdistrict": "Coimbatore South", "amenity": "hospital", "healthcare": "hospital", "name": "Kumaran Hospital, Coimbatore", "source": "OpenGovernmentData"}}, {"type": "node", "id": 6936361589, "lat": 11.0160619, "lon": 76.9593814, "tags": {"addr:district": "Coimbatore", "addr:full": "Karunya Nagar", "addr:postcode": "641110", "addr:state": "Tamil Nadu", "amenity": "hospital", "healthcare": "hospital", "name": "Seesha Karunya Community Hospital", "source": "OpenGovernmentData"}}, {"type": "node", "id": 6936443894, "lat": 11.0133673, "lon": 76.9553728, "tags": {"addr:district": "Coimbatore", "addr:full": "Srivari Kikani Centre,R.S.Puram", "addr:postcode": "641002", "addr:state": "Tamil Nadu", "amenity": "hospital", "healthcare": "hospital", "name": "Sankara Eye Hospital, Coimbatore", "source": "OpenGovernmentData"}}, {"type": "node", "id": 6936582309, "lat": 11.0209812, "lon": 76.9661131, "tags": {"addr:block": "Coimbatore Corpn", "addr:district": "Coimbatore", "addr:full": "272, 7th Street Extension, Gandhipuram, Coimbatore", "addr:postcode": "641012", "addr:state": "Tamil Nadu", "addr:subdistrict": "Coimbatore South", "amenity": "clinic", "healthcare": "clinic", "name": "C.S.R. Nursing Home, Coimbatore", "source": "OpenGovernmentData"}}, {"type": "node", "id": 6936609173, "lat": 11.0137122, "lon": 76.951316, "tags": {"addr:district": "Coimbatore", "addr:full": "137 East Periasamy Road, R.S. Puram", "addr:postcode": "641018", "addr:state": "Tamil Nadu", "amenity": "hospital", "healthcare": "hospital", "name": "Madurai Eye Center", "source": "OpenGovernmentData"}}, {"type": "node", "id": 6936663154, "lat": 11.0142295, "lon": 76.9437897, "tags": {"addr:district": "Coimbatore", "addr:full": "#30, Guru Govind Singh Road Off.,Cowley Brown Road,R. S. Puram", "addr:postcode": "641002", "addr:state": "Tamil Nadu", "amenity": "hospital", "healthcare": "hospital", "name": "Vega Ent Hospital", "source": "OpenGovernmentData"}}, {"type": "node", "id": 6936677079, "lat": 11.0143493, "lon": 76.9614293, "tags": {"addr:district": "Coimbatore", "addr:full": "50,Vivekanandha Road,Rama Nagar, Opposite Meena Eye Hospital", "addr:postcode": "641009", "addr:state": "Tamil Nadu", "amenity": "hospital", "healthcare": "hospital", "name": "Spt Hospitals", "source": "OpenGovernmentData"}}, {"type": "node", "id": 6936695107, "lat": 11.0081878, "lon": 76.9578948, "tags": {"addr:district": "Coimbatore", "addr:full": "5/25, Mattupalyam Road, Kavundampalyam", "addr:postcode": "641030", "addr:state": "Tamil Nadu", "amenity": "hospital", "healthcare": "hospital", "name": "Dr K Padmavathy Hospital", "source": "OpenGovernmentData"}}, {"type": "node", "id": 6936696197, "lat": 11.0708056, "lon": 76.9419859, "tags": {"addr:block": "Periyanaickenpalayam", "addr:district": "Coimbatore", "addr:full": "76/A, Thudiyalur, Near Vidyavikas School, Coimbatore, Mettupalayam Main Road", "addr:postcode": "641034", "addr:state": "Tamil Nadu", "addr:subdistrict": "Coimbatore North", "amenity": "hospital", "healthcare": "hospital", "name": "V.G. Hospital, Thudiyalur", "source": "OpenGovernmentData"}}, {"type": "node", "id": 6936708011, "lat": 11.036949, "lon": 76.927958, "tags": {"addr:district": "Coimbatore", "addr:full": "16, Shivaji Colony Edayarpalyam", "addr:postcode": "641025", "addr:state": "Tamil Nadu", "amenity": "hospital", "healthcare": "hospital", "name": "Sri Vishnu Priyaa Hospitals Pvt Ltd", "source": "OpenGovernmentData"}}, {"type": "node", "id": 6936708037, "lat": 10.9561995, "lon": 76.9541618, "tags": {"addr:district": "Coimbatore", "addr:full": "450-D, Palaghat Main Road, Kuniamuthur", "addr:postcode": "641008", "addr:state": "Tamil Nadu", "amenity": "hospital", "name": "Aparna Hospital", "source": "OpenGovernmentData"}}, {"type": "node", "id": 6936708084, "lat": 10.987562, "lon": 76.9358088, "tags": {"addr:district": "Coimbatore", "addr:full": "5-1, Venkateshwara Layout, Lic-Colony, Selvapuram", "addr:postcode": "641026", "addr:state": "Tamil Nadu", "addr:subdistrict": "Coimbatore South", "amenity": "hospital", "healthcare": "hospital", "name": "Snekaram Multi Specality Hospital", "source": "OpenGovernmentData"}}, {"type": "node", "id": 6936794080, "lat": 11.0031531, "lon": 76.9513019, "tags": {"addr:district": "Coimbatore", "addr:full": "361, D B Road R S Puram R S Puram", "addr:postcode": "641002", "addr:state": "Tamil Nadu", "amenity": "hospital", "healthcare": "hospital", "name": "Maruthi Hospital, Coimbatore", "source": "OpenGovernmentData"}}, {"type": "node", "id": 6936988344, "lat": 10.9707765, "lon": 76.9564471, "tags": {"addr:district": "Coimbatore", "addr:full": "56-A, Palaghat Main Road, Kuniyamuthur Post", "addr:postcode": "641008", "addr:state": "Tamil Nadu", "addr:subdistrict": "Coimbatore South", "amenity": "hospital", "name": "K. J. Hospital", "source": "OpenGovernmentData"}}, {"type": "node", "id": 6937401730, "lat": 11.0177943, "lon": 76.9612482, "tags": {"addr:district": "Coimbatore", "addr:full": "263, Annamalai Nagar,Sowripalayam", "addr:postcode": "641028", "addr:state": "Tamil Nadu", "amenity": "hospital", "healthcare": "hospital", "name": "Roselet Medical ObgandSurgical Centre", "source": "OpenGovernmentData"}}, {"type": "node", "id": 6937449595, "lat": 10.9909191, "lon": 76.9529521, "tags": {"addr:district": "Coimbatore", "addr:full": "158, Karuppa Gounder Street", "addr:postcode": "641001", "addr:state": "Tamil Nadu", "amenity": "clinic", "healthcare": "clinic", "name": "Karthic Nursing Home Pvt. Ltd.", "source": "OpenGovernmentData"}}, {"type": "node", "id": 6937477838, "lat": 11.0061296, "lon": 76.9475555, "tags": {"addr:district": "Coimbatore", "addr:full": "64,Arokiasamy Road(West),R.S.Puram", "addr:postcode": "641002", "addr:state": "Tamil Nadu", "addr:subdistrict": "Coimbatore South", "amenity": "clinic", "healthcare": "clinic", "name": "K.M. Polyclinic", "source": "OpenGovernmentData"}}, {"type": "node", "id": 6937527640, "lat": 11.0060677, "lon": 76.9525994, "tags": {"addr:district": "Coimbatore", "addr:full": "7,Ramachandra Road,R.S.Puram", "addr:postcode": "641002", "addr:state": "Tamil Nadu", "amenity": "hospital", "healthcare": "hospital", "name": "Sruti Hospitals", "source": "OpenGovernmentData"}}, {"type": "node", "id": 7013220224, "lat": 11.1070162, "lon": 77.0244201}, {"type": "node", "id": 7013220225, "lat": 11.1075005, "lon": 77.0245327}, {"type": "node", "id": 7013220226, "lat": 11.1075637, "lon": 77.0233257}, {"type": "node", "id": 7013220227, "lat": 11.1070741, "lon": 77.0230682}, {"type": "node", "id": 7045329885, "lat": 11.0286273, "lon": 76.9970065, "tags": {"amenity": "dentist", "name:en": "Aashish Dental Clinic", "opening_hours": "Mo-Su 19:00-21:00"}}, {"type": "node", "id": 7181695525, "lat": 11.0571892, "lon": 77.0669922}, {"type": "node", "id": 7210911318, "lat": 11.0450728, "lon": 76.9856121, "tags": {"addr:district": "Coimbatore", "addr:full": "61, Sathy Rd, Ganapathy, Athipalayam Pirivu, Sri Laxmi Nagar, Ganapathypudur, Coimbatore", "addr:postcode": "641006", "addr:state": "Tamil Nadu", "amenity": "hospital", "name": "Shree Sivaa Hospital", "source": "OpenGovernmentData"}}, {"type": "node", "id": 7210920536, "lat": 11.0246121, "lon": 76.911949, "tags": {"addr:district": "Coimbatore", "addr:full": "No:11/8, Selvam Nagar, Vadavalli", "addr:postcode": "641043", "addr:state": "Tamil Nadu", "amenity": "clinic", "check_date": "2023-02-04", "healthcare:speciality": "general", "name": "Aroghya Nursing Home", "operator:type": "private", "source": "OpenGovernmentData;local knowledge", "wheelchair": "yes"}}, {"type": "node", "id": 7210924997, "lat": 11.0340354, "lon": 76.9512209, "tags": {"addr:district": "Coimbatore", "addr:full": "281, NSR Rd, Kuppakonam Pudur, Saibaba Colony", "addr:postcode": "641043", "addr:state": "Tamil Nadu", "amenity": "hospital", "healthcare": "hospital", "name": "Dr. BRJ Ortho Centre", "source": "OpenGovernmentData"}}, {"type": "node", "id": 7257155919, "lat": 11.07196, "lon": 77.002444, "tags": {"addr:block": "Coimbatore Corpn", "addr:district": "Coimbatore", "addr:full": "No: 103, Sathy Road, Near Kalapatti Pirivu, Poonthottam Nagar, Saravanampatti, Coimbatore", "addr:postcode": "641035", "addr:state": "Tamil Nadu", "addr:subdistrict": "Coimbatore South", "amenity": "hospital", "healthcare": "hospital", "name": "Geethasree Hospital, Coimbatore", "source": "OpenGovernmentData"}}, {"type": "node", "id": 7257155935, "lat": 11.04984, "lon": 76.918862, "tags": {"addr:block": "Coimbatore Corpn", "addr:district": "Coimbatore", "addr:full": "11/40A, Edayarpalayam, Coimbatore, Thadagam Road", "addr:postcode": "641025", "addr:state": "Tamil Nadu", "addr:subdistrict": "Coimbatore South", "amenity": "hospital", "check_date": "2025-09-29", "name": "J.M.Hospital, Edayarpalayam", "source": "OpenGovernmentData"}}, {"type": "node", "id": 7257155938, "lat": 11.04788, "lon": 76.971976, "tags": {"addr:block": "Coimbatore Corpn", "addr:district": "Coimbatore", "addr:full": "12/1, Tagore Rd, Poosaripalayam, Manikarampalayam, Ganapathypudur", "addr:postcode": "641006", "addr:state": "Tamil Nadu", "addr:subdistrict": "Coimbatore South", "amenity": "hospital", "name": "AR Medical Centre", "source": "OpenGovernmentData"}}, {"type": "node", "id": 7257155941, "lat": 11.0268325, "lon": 77.0037378, "tags": {"addr:block": "Coimbatore Corpn", "addr:district": "Coimbatore", "addr:full": "D.No.8, Near Psg Public Schools, Peelamedu, Pioneer Mill Road", "addr:postcode": "641004", "addr:state": "Tamil Nadu", "addr:subdistrict": "Coimbatore South", "description": "Primary Health Centre", "healthcare": "centre", "name": "Peelamedu PHC", "source": "OpenGovernmentData"}}, {"type": "node", "id": 7257155948, "lat": 11.0778, "lon": 77.035681, "tags": {"addr:block": "Coimbatore Corpn", "addr:district": "Coimbatore", "addr:full": "Saravanampatti - Kalapatti Road, Kalapatti, Coimbatore", "addr:postcode": "641048", "addr:state": "Tamil Nadu", "addr:subdistrict": "Coimbatore South", "amenity": "hospital", "name": "Kamalaprakasam, Kalapatti", "source": "OpenGovernmentData"}}, {"type": "node", "id": 7257155951, "lat": 11.0289285, "lon": 77.0237553, "tags": {"addr:block": "Madukkarai", "addr:district": "Coimbatore", "addr:full": "Railway Station, Coimbatore, Trichy Road,Near", "addr:postcode": "641018", "addr:state": "Tamil Nadu", "addr:subdistrict": "Coimbatore South", "amenity": "hospital", "healthcare": "hospital", "name": "Coimbatore Medical College Hospital", "source": "OpenGovernmentData"}}, {"type": "node", "id": 7257155962, "lat": 11.08278, "lon": 76.942751, "tags": {"addr:block": "Periyanaickenpalayam", "addr:district": "Coimbatore", "addr:full": "Near Aravan Kovil, Thudiyalur, Idikarai Road", "addr:postcode": "0:00:00", "addr:state": "Tamil Nadu", "addr:subdistrict": "Coimbatore North", "description": "Primary Health Centre", "healthcare": "centre", "name": "Thudialur PHC", "source": "OpenGovernmentData"}}, {"type": "node", "id": 7257155969, "lat": 11.04761, "lon": 77.000115, "tags": {"addr:block": "Coimbatore Corpn", "addr:district": "Coimbatore", "addr:full": "No 17, Police Quarters Rd,Ganapathy, Coimbatore, V.O.C. Nagar", "addr:postcode": "641006", "addr:state": "Tamil Nadu", "addr:subdistrict": "Coimbatore South", "amenity": "hospital", "name": "SS Hospital Coimbatore", "source": "OpenGovernmentData"}}, {"type": "node", "id": 7257155972, "lat": 11.0267716, "lon": 76.9632264, "tags": {"addr:block": "Coimbatore Corpn", "addr:district": "Coimbatore", "addr:full": "D.No.1, Near St. Paul Church, Rathinapuri, Nehru Street", "addr:postcode": "641027", "addr:state": "Tamil Nadu", "addr:subdistrict": "Coimbatore South", "description": "Primary Health Centre", "healthcare": "centre", "name": "Rathinapuri PHC", "source": "OpenGovernmentData"}}, {"type": "node", "id": 7257155973, "lat": 11.0712881, "lon": 76.9563276, "tags": {"addr:block": "Sarkar Samakulam", "addr:district": "Coimbatore", "addr:full": "Near Tank, Vellakinar, Ulaipalar Street", "addr:postcode": "641029", "addr:state": "Tamil Nadu", "addr:subdistrict": "Coimbatore North", "description": "Primary Health Centre", "healthcare": "centre", "name": "Vellakinar PHC", "source": "OpenGovernmentData"}}, {"type": "node", "id": 7257155978, "lat": 11.0596676, "lon": 76.9971511, "tags": {"addr:district": "Coimbatore", "addr:full": "Mettupalayam, Coimbatore, Bharath Bhavan Road", "addr:postcode": "641301", "addr:state": "Tamil Nadu", "addr:subdistrict": "Mettupalayam", "amenity": "clinic", "name": "Rg Clinic , Coimbatore", "source": "OpenGovernmentData"}}, {"type": "node", "id": 7257155982, "lat": 11.0757442, "lon": 76.9424139, "tags": {"addr:block": "Periyanaickenpalayam", "addr:district": "Coimbatore", "addr:full": "Thudiyalur, Coimbatore, Vishwanathapuram", "addr:postcode": "641034", "addr:state": "Tamil Nadu", "addr:subdistrict": "Coimbatore North", "amenity": "hospital", "healthcare": "hospital", "name": "Hem Hospital- Thudiaylur, Coimbatore", "source": "OpenGovernmentData"}}, {"type": "node", "id": 7257156002, "lat": 11.0703318, "lon": 77.0005452, "tags": {"addr:block": "Coimbatore Corpn", "addr:district": "Coimbatore", "addr:full": "Near Gks Bus Stop, Coimbatore, Vgv Janani Nagar,Saravanampatti", "addr:postcode": "641035", "addr:state": "Tamil Nadu", "addr:subdistrict": "Coimbatore South", "amenity": "hospital", "name": "Harini Shravan, Coimbatore", "source": "OpenGovernmentData"}}, {"type": "node", "id": 7257156011, "lat": 11.0753938, "lon": 76.939234, "tags": {"addr:block": "Periyanaickenpalayam", "addr:district": "Coimbatore", "addr:full": "Mettupalayam Road, Near Lg Company, Thudiyalur", "addr:postcode": "641034", "addr:state": "Tamil Nadu", "addr:subdistrict": "Coimbatore North", "amenity": "hospital", "healthcare": "hospital", "name": "Ramana Gounder Medical Trust Hospital", "source": "OpenGovernmentData"}}, {"type": "node", "id": 7257156017, "lat": 11.0437293, "lon": 76.9475494, "tags": {"addr:block": "Periyanaickenpalayam", "addr:district": "Coimbatore", "addr:full": "Goundampalayam, Coimbatore, Peons Colony", "addr:postcode": "641030", "addr:state": "Tamil Nadu", "addr:subdistrict": "Coimbatore North", "amenity": "hospital", "name": "Malar Hpl Goundanpalayam", "source": "OpenGovernmentData"}}, {"type": "node", "id": 7257156018, "lat": 11.0904781, "lon": 76.9383967, "tags": {"addr:block": "Coimbatore Corpn", "addr:district": "Coimbatore", "addr:full": "7/328, Thoppampatti Pirivu, Coimbatore, Mettupalayam Road.", "addr:postcode": "641017", "addr:state": "Tamil Nadu", "addr:subdistrict": "Coimbatore South", "amenity": "hospital", "healthcare": "hospital", "name": "Sai Hospital", "source": "OpenGovernmentData"}}, {"type": "node", "id": 7257156023, "lat": 11.05642, "lon": 77.001972, "tags": {"addr:block": "Coimbatore Corpn", "addr:district": "Coimbatore", "addr:full": "Vinayagapuram, Coimbatore, Vilankurichi Road", "addr:postcode": "641035", "addr:state": "Tamil Nadu", "addr:subdistrict": "Coimbatore South", "amenity": "hospital", "name": "V.R.Hospital, Coimbatore", "source": "OpenGovernmentData"}}, {"type": "node", "id": 7257156040, "lat": 11.03091, "lon": 76.942713, "tags": {"addr:block": "Coimbatore Corpn", "addr:district": "Coimbatore", "addr:full": "D.No.73, Near Sri Kannan Departmental Store, Saibaba Colony, Maniyam Velappar Street, Kuppakonam Pudur", "addr:postcode": "641038", "addr:state": "Tamil Nadu", "addr:subdistrict": "Coimbatore South", "description": "Primary Health Centre", "healthcare": "centre", "name": "PHC, KuppaKonam Pudur", "source": "OpenGovernmentData"}}, {"type": "node", "id": 7257156045, "lat": 11.0287, "lon": 76.897449, "tags": {"addr:block": "Coimbatore Corpn", "addr:district": "Coimbatore", "addr:full": "Vadavalli, Coimbatore, Mahaveer Road", "addr:postcode": "641041", "addr:state": "Tamil Nadu", "addr:subdistrict": "Coimbatore South", "amenity": "hospital", "name": "Sree Subiksha Hospital", "source": "OpenGovernmentData"}}, {"type": "node", "id": 7257156048, "lat": 11.0892, "lon": 77.008366, "tags": {"addr:block": "Coimbatore Corpn", "addr:district": "Coimbatore", "addr:full": "Near Visuvasapuram Busstop, Coimbatore, Sathu Main Raod,Saravanampatti", "addr:postcode": "641035", "addr:state": "Tamil Nadu", "addr:subdistrict": "Coimbatore South", "amenity": "hospital", "healthcare": "hospital", "name": "Vimal Jothi Hospital", "source": "OpenGovernmentData"}}, {"type": "node", "id": 7257166815, "lat": 10.95365, "lon": 76.955989, "tags": {"addr:block": "Coimbatore Corpn", "addr:district": "Coimbatore", "addr:full": "Edayarpalayam Pirivu,Kuniyamuthur, Coimbatore, Lakshmi Nagar", "addr:postcode": "641008", "addr:state": "Tamil Nadu", "addr:subdistrict": "Coimbatore South", "amenity": "hospital", "name": "I.J.Hospital, Kuniayamuthur, Coimbatore", "source": "OpenGovernmentData"}}, {"type": "node", "id": 7257166877, "lat": 10.95254, "lon": 76.973201, "tags": {"addr:block": "Coimbatore Corpn", "addr:district": "Coimbatore", "addr:full": "No. 33, Madukkarai Main Rd, Sundarapuram", "addr:postcode": "641024", "addr:state": "Tamil Nadu", "addr:subdistrict": "Coimbatore South", "amenity": "hospital", "name": "Abirami Hospital, Coimbatore", "source": "OpenGovernmentData"}}, {"type": "node", "id": 7257166879, "lat": 10.9521673, "lon": 76.9758815, "tags": {"addr:district": "Coimbatore", "addr:full": "Sundarapuram, Lic Colony, Coimbatore", "addr:postcode": "641024", "addr:state": "Tamil Nadu", "addr:subdistrict": "Coimbatore South", "amenity": "hospital", "name": "Ganapathy Pc Sundarapuram,", "source": "OpenGovernmentData"}}, {"type": "node", "id": 7257183855, "lat": 10.9558238, "lon": 76.9241353}, {"type": "node", "id": 7257183856, "lat": 10.9559361, "lon": 76.9241427}, {"type": "node", "id": 7257183857, "lat": 10.9559375, "lon": 76.9241211}, {"type": "node", "id": 7257183858, "lat": 10.9559095, "lon": 76.9241193}, {"type": "node", "id": 7257183859, "lat": 10.9559145, "lon": 76.9240417}, {"type": "node", "id": 7257183860, "lat": 10.9559491, "lon": 76.9240098}, {"type": "node", "id": 7257183861, "lat": 10.9558397, "lon": 76.9240026}, {"type": "node", "id": 7257183862, "lat": 10.9558209, "lon": 76.9241823}, {"type": "node", "id": 7257183863, "lat": 10.9558753, "lon": 76.9241859}, {"type": "node", "id": 7257183864, "lat": 10.9558674, "lon": 76.9243103}, {"type": "node", "id": 7257183865, "lat": 10.9559023, "lon": 76.9243126}, {"type": "node", "id": 7257183866, "lat": 10.9559006, "lon": 76.924339}, {"type": "node", "id": 7257183867, "lat": 10.9559411, "lon": 76.9243416}, {"type": "node", "id": 7257183868, "lat": 10.9559448, "lon": 76.9242836}, {"type": "node", "id": 7257183869, "lat": 10.9560187, "lon": 76.9242885}, {"type": "node", "id": 7257183870, "lat": 10.9560333, "lon": 76.9240587}, {"type": "node", "id": 7257183871, "lat": 10.9559767, "lon": 76.924055}, {"type": "node", "id": 7257183872, "lat": 10.9559787, "lon": 76.9240232}, {"type": "node", "id": 7257183873, "lat": 10.9560605, "lon": 76.9240286}, {"type": "node", "id": 7257183906, "lat": 11.0108047, "lon": 76.9530054, "tags": {"addr:district": "Coimbatore", "addr:full": "R.S.Puram, Coimbatore, Tv Samy Road East", "addr:postcode": "641002", "addr:state": "Tamil Nadu", "addr:subdistrict": "Coimbatore North", "amenity": "hospital", "healthcare": "hospital", "name": "Ponnaiah Hospital", "source": "OpenGovernmentData"}}, {"type": "node", "id": 7257183907, "lat": 10.9871756, "lon": 76.9392029, "tags": {"addr:district": "Coimbatore", "addr:full": "Selvapuram, Coimbatore, Perur Main Road", "addr:postcode": "641026", "addr:state": "Tamil Nadu", "addr:subdistrict": "Coimbatore North", "amenity": "hospital", "healthcare": "hospital", "name": "Rani Nursing Home, Selvapuram, Coimbatore", "source": "OpenGovernmentData"}}, {"type": "node", "id": 7257183911, "lat": 11.0064832, "lon": 76.9914482, "tags": {"addr:block": "Coimbatore Corpn", "addr:district": "Coimbatore", "addr:full": "Puliyakulam,Near Mahindra Pumps, Coimbatore, Dhamu Nagar", "addr:postcode": "641045", "addr:state": "Tamil Nadu", "addr:subdistrict": "Coimbatore South", "amenity": "hospital", "healthcare": "hospital", "name": "Shree Hospital, Puliakulam, Coimbatore", "source": "OpenGovernmentData"}}, {"type": "node", "id": 7257183913, "lat": 10.9567349, "lon": 76.9544328, "tags": {"addr:block": "Coimbatore Corpn", "addr:district": "Coimbatore", "addr:full": "Kuniyamuthur, Coimbatore, Palakkad Main Road", "addr:postcode": "641008", "addr:state": "Tamil Nadu", "addr:subdistrict": "Coimbatore South", "amenity": "hospital", "name": "Sri Meenakshi Hospital, Kuniamuthur", "source": "OpenGovernmentData"}}, {"type": "node", "id": 7257183914, "lat": 11.0029, "lon": 76.948869, "tags": {"addr:block": "Coimbatore Corpn", "addr:district": "Coimbatore", "addr:full": "Rs Puram, Near Maruthi Lodge, Coimbatore, Venkatakrishna Road", "addr:postcode": "641002", "addr:state": "Tamil Nadu", "addr:subdistrict": "Coimbatore South", "amenity": "hospital", "healthcare": "hospital", "name": "Shanmuga Hospital Rs Puram", "source": "OpenGovernmentData"}}, {"type": "node", "id": 7257183916, "lat": 11.0011, "lon": 77.033733, "tags": {"addr:block": "Coimbatore Corpn", "addr:district": "Coimbatore", "addr:full": "D.No.569, Vasantha Mill Bus Stop, Singanallur, Trichy Road, Anaiyankadu Road", "addr:postcode": "641005", "addr:state": "Tamil Nadu", "addr:subdistrict": "Coimbatore South", "amenity": "hospital", "healthcare": "hospital", "name": "Singanallur Government Hospital", "source": "OpenGovernmentData"}}, {"type": "node", "id": 7257183917, "lat": 10.9664096, "lon": 76.9870623, "tags": {"addr:block": "Madukkarai", "addr:district": "Coimbatore", "addr:full": "Corporation Office, Podanur, Satthiram Veethi", "addr:postcode": "641023", "addr:state": "Tamil Nadu", "addr:subdistrict": "Coimbatore South", "amenity": "hospital", "name": "Podanur Government Hospital", "source": "OpenGovernmentData"}}, {"type": "node", "id": 7257183918, "lat": 11.0006783, "lon": 76.9553446, "tags": {"addr:block": "Coimbatore Corpn", "addr:district": "Coimbatore", "addr:full": "D.No.47, Near Anaimalai Stores, Sukkarawarpet, Coimbatore, Pattunoolkara Lane-2", "addr:postcode": "641001", "addr:state": "Tamil Nadu", "addr:subdistrict": "Coimbatore South", "description": "Urban Primary Health Center", "healthcare": "centre", "name": "UPHC Pattunool", "source": "OpenGovernmentData"}}, {"type": "node", "id": 7257183919, "lat": 11.019947, "lon": 76.9670891, "tags": {"addr:block": "Coimbatore Corpn", "addr:district": "Coimbatore", "addr:full": "Shop No. 146, Jeevan, 144, 5Th Street, Gandhipuram, Coimbatore", "addr:postcode": "641012", "addr:state": "Tamil Nadu", "addr:subdistrict": "Coimbatore South", "amenity": "hospital", "healthcare": "hospital", "name": "Jeevan Clinic and Hospital, Coimbatore", "source": "OpenGovernmentData"}}, {"type": "node", "id": 7257183920, "lat": 10.9972946, "lon": 77.0051728, "tags": {"addr:district": "Coimbatore", "addr:full": "Opposite To Stock Exchange Trichy Road Kothari Layout, Coimbatore, Oppst Stock Exchange", "addr:postcode": "661005", "addr:state": "Tamil Nadu", "addr:subdistrict": "Coimbatore South", "amenity": "hospital", "healthcare": "hospital", "name": "Medwin Hospital, Coimbatore", "source": "OpenGovernmentData"}}, {"type": "node", "id": 7257183922, "lat": 11.0174154, "lon": 77.0670117, "tags": {"addr:district": "Coimbatore", "addr:full": "Irugur, Near Masaniyamman Kovil", "addr:postcode": "641103", "addr:state": "Tamil Nadu", "addr:subdistrict": "Sulur", "description": "Primary Health Centre", "healthcare": "centre", "name": "PHC, Irugur", "source": "OpenGovernmentData"}}, {"type": "node", "id": 7257183925, "lat": 11.0168278, "lon": 76.9758131, "tags": {"addr:block": "Coimbatore Corpn", "addr:district": "Coimbatore", "addr:full": "17A, Rs Puram, Near Kumaran Hpl, Coimbatore, Cowley Brown Road", "addr:postcode": "641002", "addr:state": "Tamil Nadu", "addr:subdistrict": "Coimbatore South", "amenity": "hospital", "healthcare": "hospital", "name": "Sudha Hospital", "source": "OpenGovernmentData"}}, {"type": "node", "id": 7257183926, "lat": 10.9958251, "lon": 76.9634777, "tags": {"addr:block": "Coimbatore Corpn", "addr:district": "Coimbatore", "addr:full": "Town Hall, Coimbatore, Ismail Street", "addr:postcode": "641001", "addr:state": "Tamil Nadu", "addr:subdistrict": "Coimbatore South", "amenity": "hospital", "healthcare": "hospital", "name": "I.C.C Hospital For Women & Children, Coimbatore", "source": "OpenGovernmentData"}}, {"type": "node", "id": 7257183932, "lat": 10.9919513, "lon": 76.9522987, "tags": {"addr:block": "Coimbatore Corpn", "addr:district": "Coimbatore", "addr:full": "D.No.309/224, Perur Main Road, Bhagavathi Amman Temple, Vysiyal Street", "addr:postcode": "641001", "addr:state": "Tamil Nadu", "addr:subdistrict": "Coimbatore South", "description": "Primary Health Centre", "healthcare": "centre", "name": "Vvm Home PHC", "source": "OpenGovernmentData"}}, {"type": "node", "id": 7257183937, "lat": 11.0059045, "lon": 77.0194253}, {"type": "node", "id": 7257183942, "lat": 10.9638671, "lon": 76.97122, "tags": {"addr:block": "Madukkarai", "addr:district": "Coimbatore", "addr:full": "415, Kupuchipalayam Road, M.T.P Road, Near Ration Shop, P.N. Palayam, Coimbatore", "addr:postcode": "641021", "addr:state": "Tamil Nadu", "addr:subdistrict": "Coimbatore South", "amenity": "hospital", "name": "Government Hospital, Kuruchi", "source": "OpenGovernmentData"}}, {"type": "node", "id": 7257183943, "lat": 11.0217448, "lon": 77.0603524, "tags": {"addr:block": "Coimbatore Corpn", "addr:district": "Coimbatore", "addr:full": "Near Railway Gate, Coimbatore, Gandhi Nagar, Irugur", "addr:postcode": "641103", "addr:state": "Tamil Nadu", "addr:subdistrict": "Coimbatore South", "amenity": "hospital", "name": "Peoples Medical Centre, Coimbatore", "source": "OpenGovernmentData"}}, {"type": "node", "id": 7257183944, "lat": 10.9998322, "lon": 76.949604, "tags": {"addr:block": "Coimbatore Corpn", "addr:district": "Coimbatore", "addr:full": "D.No. 233, Sundaram Street-1, Near Park, Sukkarawarpet, Coimbatore, Gandhipark Bus Stop", "addr:postcode": "641002", "addr:state": "Tamil Nadu", "addr:subdistrict": "Coimbatore South", "amenity": "clinic", "healthcare": "clinic", "name": "Rk Bai Corporation Health Centre", "source": "OpenGovernmentData"}}, {"type": "node", "id": 7257183946, "lat": 10.99819, "lon": 77.014447, "tags": {"addr:district": "Coimbatore", "addr:full": "76/A, Coimbatore, Singanallur", "addr:postcode": "641020", "addr:state": "Tamil Nadu", "addr:subdistrict": "Coimbatore North", "amenity": "hospital", "healthcare": "hospital", "name": "VGM Hospital, Coimbatore", "source": "OpenGovernmentData"}}, {"type": "node", "id": 7257183955, "lat": 10.9613485, "lon": 76.9512227, "tags": {"addr:block": "Madukkarai", "addr:district": "Coimbatore", "addr:full": "Pulakadu, Kuniyamuthur", "addr:postcode": "641008", "addr:state": "Tamil Nadu", "addr:subdistrict": "Coimbatore South", "description": "Primary Health Centre", "healthcare": "centre", "name": "PHC, Kuniamuthur", "source": "OpenGovernmentData"}}, {"type": "node", "id": 7257183957, "lat": 11.0128764, "lon": 76.9492706, "tags": {"addr:district": "Coimbatore", "addr:full": "43, E Periasamy Rd, Near Eye Foundation, R S Puram West, Coimbatore", "addr:postcode": "641002", "addr:state": "Tamil Nadu", "addr:subdistrict": "Coimbatore South", "amenity": "clinic", "healthcare": "clinic", "name": "Gateway Clinic", "source": "OpenGovernmentData"}}, {"type": "node", "id": 7257183959, "lat": 11.01005, "lon": 77.008874, "tags": {"addr:block": "Coimbatore Corpn", "addr:district": "Coimbatore", "addr:full": "Opposite To Water Tank, Coimbatore, Car Street, Sowripalayam", "addr:postcode": "641028", "addr:state": "Tamil Nadu", "addr:subdistrict": "Coimbatore South", "amenity": "hospital", "healthcare": "hospital", "name": "Roselet Medical Centre,Coimbatore", "source": "OpenGovernmentData"}}, {"type": "node", "id": 7257183960, "lat": 10.99135, "lon": 76.95416, "tags": {"addr:block": "Edapadi (Idappadi)", "addr:district": "Salem", "addr:full": "Salem Main Road, Edappady, Poolampatti", "addr:postcode": "637101", "addr:state": "Tamil Nadu", "addr:subdistrict": "Edappadi", "amenity": "clinic", "healthcare": "clinic", "name": "Karthic Nursing Home", "source": "OpenGovernmentData"}}, {"type": "node", "id": 7257183964, "lat": 11.0254441, "lon": 76.939724, "tags": {"addr:block": "Coimbatore Corpn", "addr:district": "Coimbatore", "addr:full": "Opp Church Road, Coimbatore, Nsr Road, Saibaba Colony", "addr:postcode": "641011", "addr:state": "Tamil Nadu", "addr:subdistrict": "Coimbatore South", "amenity": "hospital", "healthcare": "hospital", "name": "Sabari Hospital, Coimbatore", "source": "OpenGovernmentData"}}, {"type": "node", "id": 7257183965, "lat": 10.95665, "lon": 76.987019, "tags": {"addr:district": "Coimbatore", "addr:full": "41A, Chettipalayam Rd, Mettur, Podanur", "addr:postcode": "641023", "addr:state": "Tamil Nadu", "addr:subdistrict": "Coimbatore South", "amenity": "hospital", "name": "Raksha Medical Centre", "source": "OpenGovernmentData"}}, {"type": "node", "id": 7257183966, "lat": 11.0067511, "lon": 76.9452484, "tags": {"addr:block": "Coimbatore Corpn", "addr:district": "Coimbatore", "addr:full": "Thadagam Main Rd, Gandhi Park, R S Puram West, Coimbatore", "addr:postcode": "641002", "addr:state": "Tamil Nadu", "addr:subdistrict": "Coimbatore South", "amenity": "hospital", "healthcare": "hospital", "name": "Dr.Manoharan Hospital, Thadagam, Coimbatore", "source": "OpenGovernmentData"}}, {"type": "node", "id": 7257183969, "lat": 11.0247526, "lon": 76.9008103, "tags": {"addr:block": "Thondamuthur", "addr:district": "Coimbatore", "addr:full": "5th Extension, Vadavalli, Periyar Nagar", "addr:postcode": "641041", "addr:state": "Tamil Nadu", "addr:subdistrict": "Coimbatore South", "description": "Primary Health Centre", "healthcare": "centre", "name": "Vadavalli PHC", "source": "OpenGovernmentData"}}, {"type": "node", "id": 7257183971, "lat": 11.0225148, "lon": 76.9601579, "tags": {"addr:block": "Coimbatore Corpn", "addr:district": "Coimbatore", "addr:full": "454-A, Tatabad, Gandhipuram, Coimbatore, Dr.Radhakrishnan Road", "addr:postcode": "641012", "addr:state": "Tamil Nadu", "addr:subdistrict": "Coimbatore South", "amenity": "hospital", "healthcare": "hospital", "name": "Sengottaiah Hospital, Coimbatore", "source": "OpenGovernmentData"}}, {"type": "node", "id": 7257183972, "lat": 10.9641042, "lon": 76.9562562, "tags": {"addr:block": "Coimbatore Corpn", "addr:district": "Coimbatore", "addr:full": "402-H, Thiruvalluvar Nagar,Kuniyamuthur, Coimbatore, Pallakad Main Road", "addr:postcode": "641008", "addr:state": "Tamil Nadu", "addr:subdistrict": "Coimbatore South", "amenity": "hospital", "name": "Sangeetha Hospital, Kuniyamuthur", "source": "OpenGovernmentData"}}, {"type": "node", "id": 7257183974, "lat": 10.99941, "lon": 76.948495, "tags": {"addr:block": "Coimbatore Corpn", "addr:district": "Coimbatore", "addr:full": "Near Gandhi Park, Coimbatore, Ponnaiyarajapuram", "addr:postcode": "641007", "addr:state": "Tamil Nadu", "addr:subdistrict": "Coimbatore South", "amenity": "hospital", "healthcare": "hospital", "name": "Seetharam Hospital, Coimbatore", "source": "OpenGovernmentData"}}, {"type": "node", "id": 7257183976, "lat": 11.0208486, "lon": 76.9649585, "tags": {"addr:block": "Coimbatore Corpn", "addr:district": "Coimbatore", "addr:full": "100 Feet Rd, Opposite C.S.I.Church, Near Abhirami Hotel, Gandipuram", "addr:postcode": "641012", "addr:state": "Tamil Nadu", "addr:subdistrict": "Coimbatore South", "amenity": "hospital", "healthcare": "hospital", "name": "Preethi Medical Centre", "source": "OpenGovernmentData"}}, {"type": "node", "id": 7257183978, "lat": 11.0154329, "lon": 76.9779193, "tags": {"addr:block": "Coimbatore Corpn", "addr:district": "Coimbatore", "addr:full": "Opp To City Police Commissioner Off., Coimbatore, Hosur Road", "addr:postcode": "641037", "addr:state": "Tamil Nadu", "addr:subdistrict": "Coimbatore South", "amenity": "hospital", "healthcare": "hospital", "name": "Ishaiah Hospital, Coimbatore", "source": "OpenGovernmentData"}}, {"type": "node", "id": 7257183983, "lat": 10.99147, "lon": 76.976787, "tags": {"addr:block": "Coimbatore Corpn", "addr:district": "Coimbatore", "addr:full": "Ramanathapuram, Coimbatore, Sungam Bypass Road", "addr:postcode": "641045", "addr:state": "Tamil Nadu", "addr:subdistrict": "Coimbatore South", "amenity": "hospital", "healthcare": "hospital", "name": "Manu Hospital- Coimbatore", "source": "OpenGovernmentData"}}, {"type": "node", "id": 7257183985, "lat": 10.988024, "lon": 76.9412044, "tags": {"addr:block": "Coimbatore Corpn", "addr:district": "Coimbatore", "addr:full": "D.No.2, Tamilnadu State Marketing Corporation, Selvapuram, Perur Main Road", "addr:postcode": "641026", "addr:state": "Tamil Nadu", "addr:subdistrict": "Coimbatore South", "description": "Primary Health Centre", "healthcare": "centre", "name": "Selvapuram PHC", "source": "OpenGovernmentData"}}, {"type": "node", "id": 7257183988, "lat": 11.0069868, "lon": 77.071368, "tags": {"addr:block": "Coimbatore Corpn", "addr:district": "Coimbatore", "addr:full": "152A, Near Bypass Junction, Coimbatore, Trichy Road,Chinthamani pudur", "addr:postcode": "641103", "addr:state": "Tamil Nadu", "addr:subdistrict": "Coimbatore South", "amenity": "hospital", "healthcare": "hospital", "name": "Saraswathi Hospital", "name:ta": "\u0b9a\u0bb0\u0bb8\u0bcd\u0bb5\u0ba4\u0bbf \u0bae\u0bb0\u0bc1\u0ba4\u0bcd\u0ba4\u0bc1\u0bb5\u0bae\u0ba9\u0bc8", "source": "OpenGovernmentData"}}, {"type": "node", "id": 7257183990, "lat": 11.02567, "lon": 76.902176, "tags": {"addr:block": "Coimbatore Corpn", "addr:district": "Coimbatore", "addr:full": "Near United Bank Of India, Vadavalli-Thondamuthur Road, Vadavalli", "addr:postcode": "641041", "addr:state": "Tamil Nadu", "addr:subdistrict": "Coimbatore South", "amenity": "hospital", "name": "Akshaya Maternity Center", "source": "OpenGovernmentData"}}, {"type": "node", "id": 7257183992, "lat": 11.0068267, "lon": 76.9668812, "tags": {"addr:block": "Coimbatore Corpn", "addr:district": "Coimbatore", "addr:full": "D.No.6, Dr. Nanjappa Road, Near Park Gate, Att Colony, Gopalapuram, Kattur, Coimbatore", "addr:postcode": "641018", "addr:state": "Tamil Nadu", "addr:subdistrict": "Coimbatore South", "amenity": "hospital", "healthcare": "hospital", "name": "Coimbatore Corporation Maternity Centre", "source": "OpenGovernmentData"}}, {"type": "node", "id": 7257183994, "lat": 11.0060689, "lon": 76.9527967, "tags": {"addr:block": "Coimbatore Corpn", "addr:district": "Coimbatore", "addr:full": "R.S Puram, Coimbatore, Ramachandra Road", "addr:postcode": "641002", "addr:state": "Tamil Nadu", "addr:subdistrict": "Coimbatore South", "amenity": "hospital", "healthcare": "hospital", "name": "Muniyappa Hospital, Coimbatore", "source": "OpenGovernmentData"}}, {"type": "node", "id": 7257183995, "lat": 11.0044176, "lon": 76.9503459, "tags": {"addr:block": "Coimbatore Corpn", "addr:district": "Coimbatore", "addr:full": "Rs Puram, Coimbatore, Sambandam Road", "addr:postcode": "641002", "addr:state": "Tamil Nadu", "addr:subdistrict": "Coimbatore South", "amenity": "hospital", "healthcare": "hospital", "name": "Rajalakshmi Hospital, Coimbatore", "source": "OpenGovernmentData"}}, {"type": "node", "id": 7257183997, "lat": 11.0231222, "lon": 76.9136781, "tags": {"addr:block": "Coimbatore Corpn", "addr:district": "Coimbatore", "addr:full": "Pn Pudur, Coimbatore, New Thillai Nagar,Marurutamalai Main Road", "addr:postcode": "641041", "addr:state": "Tamil Nadu", "addr:subdistrict": "Coimbatore South", "amenity": "hospital", "name": "Sivashantha Mother & Child Health Centre", "source": "OpenGovernmentData"}}, {"type": "node", "id": 7257183998, "lat": 11.0017873, "lon": 77.0300545, "tags": {"addr:block": "Coimbatore Corpn", "addr:district": "Coimbatore", "addr:full": "Kothari Mill Lane, Trichy Rd, Singanallur, Coimbatore", "addr:postcode": "641005", "addr:state": "Tamil Nadu", "addr:subdistrict": "Coimbatore South", "amenity": "hospital", "healthcare": "hospital", "name": "Vela Hospital, Singanallur, Coimbatore", "source": "OpenGovernmentData"}}, {"type": "node", "id": 7257184001, "lat": 10.9995252, "lon": 76.9511992, "tags": {"addr:block": "Periyanaickenpalayam", "addr:district": "Coimbatore", "addr:full": "Palayam, Coimbatore, Near Mask, Mettupalayam Road", "addr:postcode": "641020", "addr:state": "Tamil Nadu", "addr:subdistrict": "Coimbatore North", "amenity": "hospital", "healthcare": "hospital", "name": "Guru Kirupa Hospital, Pn Palayam, Coimbatore", "source": "OpenGovernmentData"}}, {"type": "node", "id": 7257184003, "lat": 10.9980405, "lon": 77.0009615, "tags": {"addr:block": "Coimbatore Corpn", "addr:district": "Coimbatore", "addr:full": "#77, Om Sakthi Nagar, Sowripalayam Pirivu, Saravanampatty, Off Trichy Road", "addr:postcode": "641035", "addr:state": "Tamil Nadu", "addr:subdistrict": "Coimbatore South", "amenity": "hospital", "healthcare": "hospital", "name": "Sathyan Eye Care Hospital & Coimbatore Glaucoma Foundation", "source": "OpenGovernmentData"}}, {"type": "node", "id": 7257184006, "lat": 11.0167285, "lon": 76.9242272, "tags": {"addr:block": "Coimbatore Corpn", "addr:district": "Coimbatore", "addr:full": "D.No.1, Near Kalidas Theater, Paappanaicken Pudur, Gokulam Colony, 3rd Street", "addr:postcode": "641041", "addr:state": "Tamil Nadu", "addr:subdistrict": "Coimbatore South", "description": "Primary Health Centre", "healthcare": "centre", "name": "Seeranaickenpalayam PHC", "source": "OpenGovernmentData"}}, {"type": "node", "id": 7257184008, "lat": 10.9626641, "lon": 76.98594, "tags": {"addr:block": "Coimbatore Corpn", "addr:district": "Coimbatore", "addr:full": "Kurichi, Pothanur, Coimbatore, St.Joseph Church Road", "addr:postcode": "641023", "addr:state": "Tamil Nadu", "addr:subdistrict": "Coimbatore South", "amenity": "hospital", "name": "St. Mary's Hospital", "source": "OpenGovernmentData"}}, {"type": "node", "id": 7257184009, "lat": 11.0145025, "lon": 77.0079676, "tags": {"addr:block": "Coimbatore Corpn", "addr:district": "Coimbatore", "addr:full": "Near Mahalakshmi Koil, Coimbatore, Grg Nagar,Sowripalayam", "addr:postcode": "641028", "addr:state": "Tamil Nadu", "addr:subdistrict": "Coimbatore South", "amenity": "hospital", "healthcare": "hospital", "name": "Sanmugapriya Hospital Coimbatore", "source": "OpenGovernmentData"}}, {"type": "node", "id": 7257184010, "lat": 11.011973, "lon": 76.9994723, "tags": {"addr:block": "Coimbatore Corpn", "addr:district": "Coimbatore", "addr:full": "D.No.28, Udayampalayam Road and Udayampalayam Post Office, Sowripalayam, Karumariamman Kovil Street", "addr:postcode": "641028", "addr:state": "Tamil Nadu", "addr:subdistrict": "Coimbatore South", "description": "Urban Primary Health Centre", "healthcare": "centre", "name": "Sowripalayam UPHC", "source": "OpenGovernmentData"}}, {"type": "node", "id": 7257184012, "lat": 10.9882483, "lon": 76.9400963, "tags": {"addr:block": "Coimbatore Corpn", "addr:district": "Coimbatore", "addr:full": "Selvapuram, Coimbatore, Perur Main Road", "addr:postcode": "641026", "addr:state": "Tamil Nadu", "addr:subdistrict": "Coimbatore South", "amenity": "hospital", "healthcare": "hospital", "name": "Revathi Hospital, Selvapuram", "source": "OpenGovernmentData"}}, {"type": "node", "id": 7257184018, "lat": 11.0248525, "lon": 76.9943296, "tags": {"addr:block": "Coimbatore Corpn", "addr:district": "Coimbatore", "addr:full": "58/1, Bharathy Colony, Peelamedu, 3rd Cross West", "addr:postcode": "641004", "addr:state": "Tamil Nadu", "addr:subdistrict": "Coimbatore South", "amenity": "hospital", "healthcare": "hospital", "name": "Nehru Urology Centre", "source": "OpenGovernmentData"}}, {"type": "node", "id": 7257184021, "lat": 11.00282, "lon": 76.988996, "tags": {"addr:block": "Coimbatore Corpn", "addr:district": "Coimbatore", "addr:full": "Redfields Road, Coimbatore, Appusamy Naidu Layout", "addr:postcode": "641045", "addr:state": "Tamil Nadu", "addr:subdistrict": "Coimbatore South", "amenity": "hospital", "healthcare": "hospital", "name": "Om Sakthi Hospital, Coimbatore", "source": "OpenGovernmentData"}}, {"type": "node", "id": 7257184024, "lat": 10.9967187, "lon": 76.9954568, "tags": {"addr:block": "Coimbatore Corpn", "addr:district": "Coimbatore", "addr:full": "Trichy Rd, Bharathi Nagar, Ramanathapuram", "addr:postcode": "641045", "addr:state": "Tamil Nadu", "addr:subdistrict": "Coimbatore South", "amenity": "hospital", "healthcare": "hospital", "name": "Sri Bala Medical Centre Hospital", "source": "OpenGovernmentData"}}, {"type": "node", "id": 7257184026, "lat": 10.9950877, "lon": 76.9746602, "tags": {"addr:district": "Coimbatore", "addr:full": "Santhya Hpl, sirumugai, Coimbatore", "addr:postcode": "641302", "addr:state": "Tamil Nadu", "addr:subdistrict": "Mettupalayam", "amenity": "hospital", "healthcare": "hospital", "name": "Santhiya Hospital", "source": "OpenGovernmentData"}}, {"type": "node", "id": 7257184029, "lat": 10.99386, "lon": 76.951744, "tags": {"addr:block": "Coimbatore Corpn", "addr:district": "Coimbatore", "addr:full": "437-438, Town Hall, Coimbatore, Raja Street", "addr:postcode": "641001", "addr:state": "Tamil Nadu", "addr:subdistrict": "Coimbatore South", "amenity": "clinic", "healthcare": "clinic", "name": "Annai Nursing Home", "source": "OpenGovernmentData"}}, {"type": "node", "id": 7343511629, "lat": 11.0253792, "lon": 76.9381035, "tags": {"addr:district": "Coimbatore", "addr:postcode": "641011", "addr:state": "Tamil Nadu", "amenity": "hospital", "healthcare": "hospital", "name": "Devi Hospital", "source": "Local Knowledge"}}, {"type": "node", "id": 7726414486, "lat": 11.0190925, "lon": 77.0228879, "tags": {"amenity": "clinic", "healthcare": "clinic", "name:en": "Nithyapriya Clinic"}}, {"type": "node", "id": 7844009702, "lat": 11.038904, "lon": 76.926261, "tags": {"addr:district": "Coimbatore", "addr:full": "Edayarpalayam", "addr:postcode": "641025", "addr:state": "Tamil Nadu", "amenity": "dentist", "healthcare": "dentist", "name": "Smile With Us Dental Clinic", "source": "Local Knowledge"}}, {"type": "node", "id": 7844009703, "lat": 11.0387262, "lon": 76.9228367, "tags": {"addr:district": "Coimbatore", "addr:full": "Edayarpalayam, Coimbatore", "addr:postcode": "641025", "addr:state": "Tamil Nadu", "amenity": "hospital", "healthcare": "hospital", "name": "Sumith Hospital", "source": "Local Knowledge"}}, {"type": "node", "id": 7844009704, "lat": 11.035564, "lon": 76.9281838, "tags": {"addr:district": "Coimbatore", "addr:full": "Simpson Nagar, Edayarpalayam", "addr:postcode": "641025", "addr:state": "Tamil Nadu", "amenity": "dentist", "healthcare": "dentist", "name": "M G Dental Clinic", "source": "Local Knowledge"}}, {"type": "node", "id": 7844009706, "lat": 11.038389, "lon": 76.926209, "tags": {"addr:district": "Coimbatore", "addr:full": "Edayarpalayam", "addr:postcode": "641025", "addr:state": "Tamil Nadu", "amenity": "hospital", "healthcare": "hospital", "name": "Ranjith Dental Hospital", "source": "Local Knowledge"}}, {"type": "node", "id": 7844009707, "lat": 11.0247015, "lon": 76.9437321, "tags": {"addr:district": "Coimbatore", "addr:full": "Jawahar Nagar, Saibaba Colony", "addr:postcode": "641011", "addr:state": "Tamil Nadu", "amenity": "clinic", "healthcare": "clinic", "name": "Muruganatham Clinic", "source": "Local Knowledge"}}, {"type": "node", "id": 7844009708, "lat": 11.0256038, "lon": 76.9363716, "tags": {"addr:district": "Coimbatore", "addr:postcode": "641011", "addr:state": "Tamil Nadu", "amenity": "dentist", "healthcare": "dentist", "name": "Subasri Dental Clinic", "source": "Local Knowledge"}}, {"type": "node", "id": 7844009710, "lat": 11.025042, "lon": 76.9439008, "tags": {"addr:district": "Coimbatore", "addr:full": "Jawahar Nagar, Saibaba Colony", "addr:postcode": "641011", "addr:state": "Tamil Nadu", "amenity": "hospital", "healthcare": "hospital", "name": "Rukmani Ammal Hospital", "source": "Local Knowledge"}}, {"type": "node", "id": 7844009711, "lat": 11.026568, "lon": 76.948798, "tags": {"addr:district": "Coimbatore", "addr:postcode": "641011", "addr:state": "Tamil Nadu", "amenity": "hospital", "healthcare": "hospital", "name": "Onecare Ortho Hospital", "source": "Local Knowledge"}}, {"type": "node", "id": 7844009712, "lat": 11.0251484, "lon": 76.9456019, "tags": {"addr:district": "Coimbatore", "addr:postcode": "641011", "addr:state": "Tamil Nadu", "amenity": "doctors", "healthcare": "doctor", "name": "Dr. Nithya", "source": "Local Knowledge"}}, {"type": "node", "id": 7844009713, "lat": 11.0283152, "lon": 76.9391123, "tags": {"addr:district": "Coimbatore", "addr:full": "Kuppakonam Pudur, K K Nagar", "addr:postcode": "641038", "addr:state": "Tamil Nadu", "amenity": "clinic", "healthcare": "clinic", "name": "Harshika's Homoeo Clinic", "source": "Local Knowledge"}}, {"type": "node", "id": 7844009717, "lat": 11.0645813, "lon": 76.9085401, "tags": {"addr:district": "Coimbatore", "addr:full": "Kalappa Naicken Palayam", "addr:postcode": "641108", "addr:state": "Tamil Nadu", "amenity": "dentist", "name": "Balaji Dental Clinic", "source": "Local Knowledge"}}, {"type": "node", "id": 7844009718, "lat": 11.0271382, "lon": 76.9428333, "tags": {"addr:district": "Coimbatore", "addr:full": "K.Pudur", "addr:postcode": "641038", "addr:state": "Tamil Nadu", "amenity": "clinic", "healthcare": "clinic", "name": "Sri Saastha Physiotherapy Centre", "source": "Local Knowledge"}}, {"type": "node", "id": 7844009721, "lat": 11.0263447, "lon": 76.9423976, "tags": {"addr:district": "Coimbatore", "addr:full": "K.Pudur", "addr:postcode": "641038", "addr:state": "Tamil Nadu", "amenity": "hospital", "healthcare": "hospital", "name": "Raaj Dental Hospital", "source": "Local Knowledge"}}, {"type": "node", "id": 7844009722, "lat": 11.027046, "lon": 76.9481906, "tags": {"addr:district": "Coimbatore", "addr:full": "Nesavaalar Colony, K K Nagar", "addr:postcode": "641038", "addr:state": "Tamil Nadu", "amenity": "clinic", "healthcare": "clinic", "name": "Kannan Clinic", "source": "Local Knowledge"}}, {"type": "node", "id": 7844009725, "lat": 11.0255271, "lon": 76.9515108, "tags": {"addr:district": "Coimbatore", "addr:full": "Tatabad, Saibaba", "addr:postcode": "641043", "addr:state": "Tamil Nadu", "amenity": "hospital", "healthcare": "hospital", "name": "Aswin Hospital", "source": "Local Knowledge"}}, {"type": "node", "id": 7844009727, "lat": 11.0269053, "lon": 76.947927, "tags": {"addr:district": "Coimbatore", "addr:postcode": "641011", "addr:state": "Tamil Nadu", "amenity": "clinic", "healthcare": "clinic", "name": "ENT Clinic", "source": "Local Knowledge"}}, {"type": "node", "id": 7844009729, "lat": 11.037184, "lon": 76.9231792, "tags": {"addr:district": "Coimbatore", "addr:full": "Edayarpalayam, Coimbatore", "addr:postcode": "641025", "addr:state": "Tamil Nadu", "amenity": "clinic", "healthcare": "clinic", "name": "Gireesh Clinic", "source": "Local Knowledge"}}, {"type": "node", "id": 7844009730, "lat": 11.0263805, "lon": 76.9415948, "tags": {"addr:district": "Coimbatore", "addr:full": "Kuppakonam Pudur", "addr:postcode": "641038", "addr:state": "Tamil Nadu", "amenity": "clinic", "healthcare": "clinic", "name": "Vetri's Homeo Care", "source": "Local Knowledge"}}, {"type": "node", "id": 7844009732, "lat": 11.0300612, "lon": 76.9397208, "tags": {"addr:district": "Coimbatore", "addr:full": "Kuppakonam Pudur, KK Nagar", "addr:postcode": "641038", "addr:state": "Tamil Nadu", "amenity": "clinic", "healthcare": "clinic", "name": "Dr. K. Suresh Clinic", "source": "Local Knowledge"}}, {"type": "node", "id": 7844009735, "lat": 11.0305981, "lon": 76.9310053, "tags": {"addr:district": "Coimbatore", "addr:full": "Velandipalayam", "addr:postcode": "641025", "addr:state": "Tamil Nadu", "amenity": "dentist", "healthcare": "dentist", "name": "Christos Dental Clinic", "source": "Local Knowledge"}}, {"type": "node", "id": 7844009738, "lat": 11.0386241, "lon": 76.9253683, "tags": {"addr:district": "Coimbatore", "addr:full": "Devanga Nagar, Edayarpalayam", "addr:postcode": "641025", "addr:state": "Tamil Nadu", "amenity": "dentist", "healthcare": "dentist", "name": "Shalini Dental Clinic", "source": "Local Knowledge"}}, {"type": "node", "id": 7844009740, "lat": 11.038796, "lon": 76.926025, "tags": {"addr:district": "Coimbatore", "addr:full": "Edayarpalayam", "addr:postcode": "641025", "addr:state": "Tamil Nadu", "amenity": "clinic", "healthcare": "clinic", "name": "Karthik Clinic", "source": "Local Knowledge"}}, {"type": "node", "id": 7844009741, "lat": 11.0256516, "lon": 76.937116, "tags": {"addr:district": "Coimbatore", "addr:full": "K.Pudur", "addr:postcode": "641025", "addr:state": "Tamil Nadu", "amenity": "clinic", "healthcare": "clinic", "name": "Poornima Clinic", "source": "Local Knowledge"}}, {"type": "node", "id": 7844009743, "lat": 11.0255323, "lon": 76.9463747, "tags": {"addr:district": "Coimbatore", "addr:postcode": "641011", "addr:state": "Tamil Nadu", "amenity": "hospital", "healthcare": "hospital", "name": "Sakthi Fertility Hospital", "source": "Local Knowledge"}}, {"type": "node", "id": 7844009746, "lat": 11.064224, "lon": 76.9095022, "tags": {"addr:district": "Coimbatore", "addr:full": "Kanuvai, Coimbatore", "addr:postcode": "641041", "addr:state": "Tamil Nadu", "amenity": "dentist", "name": "APR Dental Care", "source": "Local Knowledge"}}, {"type": "node", "id": 7844009747, "lat": 11.0369397, "lon": 76.927068, "tags": {"addr:district": "Coimbatore", "addr:full": "Edayarpalayam", "addr:postcode": "641025", "addr:state": "Tamil Nadu", "amenity": "clinic", "healthcare": "clinic", "name": "Dr. Rajasekar Clinic", "source": "Local Knowledge"}}, {"type": "node", "id": 7844009748, "lat": 11.0246928, "lon": 76.9435571, "tags": {"addr:district": "Coimbatore", "addr:postcode": "641011", "addr:state": "Tamil Nadu", "amenity": "hospital", "healthcare": "hospital", "name": "Masani Hospital", "source": "Local Knowledge"}}, {"type": "node", "id": 7844009749, "lat": 11.026645, "lon": 76.945987, "tags": {"addr:district": "Coimbatore", "addr:postcode": "641043", "addr:state": "Tamil Nadu", "amenity": "hospital", "healthcare": "hospital", "name": "Kandaswamy Sidhq Hospital", "source": "Local Knowledge"}}, {"type": "node", "id": 7844009752, "lat": 11.0648735, "lon": 76.9087141, "tags": {"addr:district": "Coimbatore", "addr:full": "Kanuvai", "addr:postcode": "641041", "addr:state": "Tamil Nadu", "amenity": "doctors", "name": "Dr. Chithra Devi", "source": "Local Knowledge"}}, {"type": "node", "id": 7844009753, "lat": 11.026359, "lon": 76.948803, "tags": {"addr:district": "Coimbatore", "addr:full": "Pulimaram Bus Stop", "addr:postcode": "641011", "addr:state": "Tamil Nadu", "amenity": "clinic", "healthcare": "clinic", "name": "Shree Kanna Clinic", "source": "Local Knowledge"}}, {"type": "node", "id": 7844009754, "lat": 11.045772, "lon": 76.92291, "tags": {"addr:district": "Coimbatore", "addr:postcode": "641025", "addr:state": "Tamil Nadu", "amenity": "hospital", "healthcare": "hospital", "name": "P S G Cules Hospital", "source": "Local Knowledge"}}, {"type": "node", "id": 7844009755, "lat": 11.0271033, "lon": 76.9496102, "tags": {"addr:district": "Coimbatore", "addr:full": "Coimbatore", "addr:postcode": "641038", "addr:state": "Tamil Nadu", "amenity": "clinic", "healthcare": "clinic", "name": "Akshaya Clinic", "source": "Local Knowledge"}}, {"type": "node", "id": 7844009759, "lat": 11.0313641, "lon": 76.9404132, "tags": {"addr:district": "Coimbatore", "addr:full": "Mettupalayam", "addr:postcode": "641301", "addr:state": "Tamil Nadu", "amenity": "clinic", "healthcare": "clinic", "name": "Dr. Sumathi Chandrasekaran Clinic", "source": "Local Knowledge"}}, {"type": "node", "id": 7844009761, "lat": 11.025498, "lon": 76.936095, "tags": {"addr:district": "Coimbatore", "addr:postcode": "641025", "addr:state": "Tamil Nadu", "amenity": "dentist", "healthcare": "dentist", "name": "Ezhil Dental Clinic", "source": "Local Knowledge"}}, {"type": "node", "id": 7844009763, "lat": 11.0270905, "lon": 76.9416551, "tags": {"addr:district": "Coimbatore", "addr:full": "Kuppakonam Pudur, Saibaba Colony", "addr:postcode": "641011", "addr:state": "Tamil Nadu", "amenity": "hospital", "healthcare": "hospital", "name": "Paavai ENT Hospital", "source": "Local Knowledge"}}, {"type": "node", "id": 7844009765, "lat": 11.0365363, "lon": 76.9317515, "tags": {"addr:district": "Coimbatore", "addr:full": "Sowdambika Nagar, Sivaji Colony", "addr:postcode": "641025", "addr:state": "Tamil Nadu", "amenity": "hospital", "healthcare": "hospital", "name": "Vishnupriys Hospital", "source": "Local Knowledge"}}, {"type": "node", "id": 7844058258, "lat": 11.013248, "lon": 77.0192485, "tags": {"addr:district": "Coimbatore", "addr:full": "G.V. Residency, Mullai Nagar", "addr:postcode": "641015", "addr:state": "Tamil Nadu", "amenity": "hospital", "healthcare": "hospital", "name": "Srinivas Hospital", "source": "Local Knowledge"}}, {"type": "node", "id": 7844058260, "lat": 11.0150335, "lon": 77.0216931, "tags": {"addr:district": "Coimbatore", "addr:full": "Andal Nagar, Lakshmipuram", "addr:postcode": "641015", "addr:state": "Tamil Nadu", "amenity": "clinic", "healthcare": "clinic", "name": "Kavya Ortho Centre", "source": "Local Knowledge"}}, {"type": "node", "id": 7844058266, "lat": 11.013613, "lon": 77.019663, "tags": {"addr:district": "Coimbatore", "addr:postcode": "641015", "addr:state": "Tamil Nadu", "amenity": "clinic", "healthcare": "clinic", "name": "SM Clinic", "source": "Local Knowledge"}}, {"type": "node", "id": 7844058268, "lat": 11.0051714, "lon": 77.0269591}, {"type": "node", "id": 7844058270, "lat": 11.0160902, "lon": 77.0202551, "tags": {"addr:district": "Coimbatore", "addr:full": "Lakshmipuram, Uppilipalayam", "addr:postcode": "641015", "addr:state": "Tamil Nadu", "amenity": "hospital", "healthcare": "hospital", "name": "Chycartist Hospital", "source": "Local Knowledge"}}, {"type": "node", "id": 7844058271, "lat": 11.0102234, "lon": 77.0249144, "tags": {"addr:district": "Coimbatore", "addr:full": "Uppilipalayam", "addr:postcode": "641005", "addr:state": "Tamil Nadu", "amenity": "dentist", "healthcare": "dentist", "name": "Kovai Dental Care & Implant Centre", "source": "Local Knowledge"}}, {"type": "node", "id": 7844058272, "lat": 11.0069477, "lon": 77.0271913}, {"type": "node", "id": 7844058273, "lat": 11.0007373, "lon": 77.0286475}, {"type": "node", "id": 7844058283, "lat": 11.0143629, "lon": 77.023391, "tags": {"addr:district": "Coimbatore", "addr:full": "Lakshmipuram, Kasthuribai Gandhi Nagar", "addr:postcode": "641015", "addr:state": "Tamil Nadu", "amenity": "clinic", "healthcare": "clinic", "name": "Thiru Physiotherapy Clinic", "source": "Local Knowledge"}}, {"type": "node", "id": 7844058289, "lat": 11.0071947, "lon": 77.0256911}, {"type": "node", "id": 7844058295, "lat": 11.0006287, "lon": 77.0306011, "tags": {"addr:district": "Coimbatore", "addr:full": "Agraharam, Singanallur", "addr:postcode": "641005", "addr:state": "Tamil Nadu", "amenity": "clinic", "healthcare": "clinic", "name": "Nalam Child Care", "source": "Local Knowledge"}}, {"type": "node", "id": 7844058296, "lat": 11.006978, "lon": 77.0273766, "tags": {"addr:district": "Coimbatore", "addr:full": "Varadharajapuram", "addr:postcode": "641005", "addr:state": "Tamil Nadu", "amenity": "clinic", "healthcare": "clinic", "name": "Lekha Clinic", "source": "Local Knowledge"}}, {"type": "node", "id": 7844058297, "lat": 11.0062323, "lon": 77.0254839}, {"type": "node", "id": 7844058299, "lat": 11.0044086, "lon": 77.0348661, "tags": {"addr:district": "Coimbatore", "addr:postcode": "641005", "addr:state": "Tamil Nadu", "amenity": "hospital", "healthcare": "hospital", "name": "Dr. Felix Hospital", "source": "Local Knowledge"}}, {"type": "node", "id": 7844058302, "lat": 11.0101764, "lon": 77.0245161, "tags": {"addr:district": "Coimbatore", "addr:full": "Varadharajapuram", "addr:postcode": "641015", "addr:state": "Tamil Nadu", "amenity": "clinic", "healthcare": "clinic", "name": "Vista Care Opticals & Eye Clinic", "source": "Local Knowledge"}}, {"type": "node", "id": 7844131963, "lat": 11.0210366, "lon": 76.9665217, "tags": {"addr:district": "Coimbatore", "addr:full": "Gandhipuram", "addr:postcode": "641012", "addr:state": "Tamil Nadu", "amenity": "hospital", "healthcare": "hospital", "name": "Nithya Hospital", "source": "Local Knowledge"}}, {"type": "node", "id": 7844131964, "lat": 11.0076298, "lon": 76.9576345, "tags": {"addr:district": "Coimbatore", "addr:full": "Sukrawar Pettai, R S Puram", "addr:postcode": "641011", "addr:state": "Tamil Nadu", "amenity": "hospital", "healthcare": "hospital", "name": "Vishnu Hospital", "source": "Local Knowledge"}}, {"type": "node", "id": 7844131965, "lat": 10.998631, "lon": 76.9512758, "tags": {"addr:district": "Coimbatore", "addr:postcode": "641001", "addr:state": "Tamil Nadu", "amenity": "clinic", "healthcare": "clinic", "name": "Alshifa Healing and Naturopathy Clinic", "source": "Local Knowledge"}}, {"type": "node", "id": 7844131966, "lat": 11.0046785, "lon": 76.9530101, "tags": {"addr:district": "Coimbatore", "addr:full": "RS Puram, Coimbatore", "addr:postcode": "641002", "addr:state": "Tamil Nadu", "amenity": "clinic", "healthcare": "clinic", "name": "Dr. J K's Homeopathy Clinic", "source": "Local Knowledge"}}, {"type": "node", "id": 7844131967, "lat": 11.012539, "lon": 76.986166, "tags": {"addr:district": "Coimbatore", "addr:full": "Puliakulam", "addr:postcode": "641037", "addr:state": "Tamil Nadu", "amenity": "hospital", "healthcare": "hospital", "name": "Arc Fertility Hospital", "name:en": "Arc Fertility Hospital", "source": "Local Knowledge"}}, {"type": "node", "id": 7844131968, "lat": 11.008405, "lon": 76.956396, "tags": {"addr:district": "Coimbatore", "addr:full": "R S Puram, Coimbatore", "addr:postcode": "641002", "addr:state": "Tamil Nadu", "amenity": "hospital", "healthcare": "hospital", "name": "Rex Ortho Hospital", "source": "Local Knowledge"}}, {"type": "node", "id": 7844131969, "lat": 11.0188961, "lon": 76.9744842, "tags": {"addr:district": "Coimbatore", "addr:postcode": "641044", "addr:state": "Tamil Nadu", "amenity": "clinic", "healthcare": "clinic", "name": "Shark Clinic", "source": "Local Knowledge"}}, {"type": "node", "id": 7844131970, "lat": 11.0163044, "lon": 76.9799078, "tags": {"addr:district": "Coimbatore", "addr:full": "Ramnagar, PN Palayam", "addr:postcode": "641037", "addr:state": "Tamil Nadu", "amenity": "clinic", "healthcare": "clinic", "name": "Dr. B. Nirmala Womens Clinic", "source": "Local Knowledge"}}, {"type": "node", "id": 7844131971, "lat": 10.9969119, "lon": 76.9995376, "tags": {"addr:district": "Coimbatore", "addr:full": "Ramanathapuram", "addr:postcode": "641045", "addr:state": "Tamil Nadu", "amenity": "clinic", "healthcare": "clinic", "name": "Dr. Karthikeyan Clinic", "source": "Local Knowledge"}}, {"type": "node", "id": 7844131972, "lat": 11.0027123, "lon": 76.9559434, "tags": {"addr:district": "Coimbatore", "addr:full": "Sukrawarpet, Coimbatore", "addr:postcode": "641001", "addr:state": "Tamil Nadu", "amenity": "dentist", "healthcare": "dentist", "name": "S.T Dental Care", "source": "Local Knowledge"}}, {"type": "node", "id": 7844131973, "lat": 11.0163842, "lon": 76.9812846, "tags": {"addr:district": "Coimbatore", "addr:full": "PN Palayam", "addr:postcode": "641037", "addr:state": "Tamil Nadu", "amenity": "clinic", "healthcare": "clinic", "name": "Kids Clinic", "source": "Local Knowledge"}}, {"type": "node", "id": 7844131974, "lat": 11.0112326, "lon": 76.9548289, "tags": {"addr:district": "Coimbatore", "addr:full": "R S Puram, Coimbatore", "addr:postcode": "641002", "addr:state": "Tamil Nadu", "amenity": "hospital", "healthcare": "hospital", "name": "N R Hospital", "source": "Local Knowledge"}}, {"type": "node", "id": 7844131975, "lat": 11.01472, "lon": 76.952299, "tags": {"addr:district": "Coimbatore", "addr:full": "R S Puram", "addr:postcode": "641002", "addr:state": "Tamil Nadu", "amenity": "hospital", "healthcare": "hospital", "name": "Parvathy Hospitals", "source": "Local Knowledge"}}, {"type": "node", "id": 7844131976, "lat": 11.0041271, "lon": 76.9512555, "tags": {"addr:district": "Coimbatore", "addr:full": "R S Puram, Coimbatore", "addr:postcode": "641002", "addr:state": "Tamil Nadu", "amenity": "doctors", "healthcare": "doctor", "name": "Dr. Sambadam", "source": "Local Knowledge"}}, {"type": "node", "id": 7844131977, "lat": 11.0081541, "lon": 76.9578763, "tags": {"addr:district": "Coimbatore", "addr:full": "R S Puram, Coimbatore", "addr:postcode": "641001", "addr:state": "Tamil Nadu", "amenity": "hospital", "healthcare": "hospital", "name": "Srigiri Ayurvedic Hospital", "source": "Local Knowledge"}}, {"type": "node", "id": 7844131978, "lat": 11.0157437, "lon": 76.9842202, "tags": {"addr:district": "Coimbatore", "addr:full": "PN Palayam", "addr:postcode": "641044", "addr:state": "Tamil Nadu", "amenity": "hospital", "healthcare": "hospital", "name": "K.B.S. Hospital", "source": "Local Knowledge"}}, {"type": "node", "id": 7844131979, "lat": 11.00534, "lon": 76.989401, "tags": {"addr:district": "Coimbatore", "addr:full": "Dami Nagar, Puliakulam", "addr:postcode": "641045", "addr:state": "Tamil Nadu", "amenity": "hospital", "healthcare": "hospital", "name": "Dr. G. Thiagarajan's Memorial Hospital", "source": "Local Knowledge"}}, {"type": "node", "id": 7844131980, "lat": 10.9958212, "lon": 76.9963939, "tags": {"addr:district": "Coimbatore", "addr:full": "Ramanathapuram", "addr:postcode": "641045", "addr:state": "Tamil Nadu", "amenity": "hospital", "healthcare": "hospital", "name": "Ramvel Hospital", "source": "Local Knowledge"}}, {"type": "node", "id": 7844131981, "lat": 10.9905191, "lon": 76.9592219, "tags": {"addr:district": "Coimbatore", "addr:postcode": "641008", "addr:state": "Tamil Nadu", "amenity": "clinic", "healthcare": "clinic", "name": "Shajitha Anwaruddin Clinic", "source": "Local Knowledge"}}, {"type": "node", "id": 7844131982, "lat": 11.0238937, "lon": 76.9582121, "tags": {"addr:district": "Coimbatore", "addr:full": "Tatabad", "addr:postcode": "641012", "addr:state": "Tamil Nadu", "amenity": "hospital", "healthcare": "hospital", "name": "Sathya Medical Centre & Hospital", "source": "Local Knowledge"}}, {"type": "node", "id": 7844131983, "lat": 11.0052314, "lon": 76.9555303, "tags": {"addr:district": "Coimbatore", "addr:full": "P.N. Pudur, Coimbatore", "addr:postcode": "641041", "addr:state": "Tamil Nadu", "amenity": "hospital", "healthcare": "hospital", "name": "Dr. K Shitra Hospital", "source": "Local Knowledge"}}, {"type": "node", "id": 7844131984, "lat": 11.015452, "lon": 76.981739, "tags": {"addr:district": "Coimbatore", "addr:full": "P N Palayam", "addr:postcode": "641044", "addr:state": "Tamil Nadu", "amenity": "clinic", "healthcare": "clinic", "name": "Shakthi Clinic", "source": "Local Knowledge"}}, {"type": "node", "id": 7844131985, "lat": 10.989042, "lon": 76.968321, "tags": {"addr:district": "Coimbatore", "addr:full": "GM Nagar, Pulian Thoppu", "addr:postcode": "641008", "addr:state": "Tamil Nadu", "amenity": "dentist", "healthcare": "dentist", "name": "Al Shaaf Dental Clinic", "source": "Local Knowledge"}}, {"type": "node", "id": 7844131986, "lat": 11.0207084, "lon": 76.972413, "tags": {"addr:district": "Coimbatore", "addr:postcode": "641044", "addr:state": "Tamil Nadu", "amenity": "hospital", "healthcare": "hospital", "name": "Ramakrishna Hospital", "source": "Local Knowledge"}}, {"type": "node", "id": 7844131987, "lat": 11.0065379, "lon": 76.9600631, "tags": {"addr:district": "Coimbatore", "addr:full": "Sukrawar Pettai, R S Puram, Coimbatore", "addr:postcode": "641001", "addr:state": "Tamil Nadu", "amenity": "hospital", "healthcare": "hospital", "name": "Seethalakshmi Maternity Hospital", "source": "Local Knowledge"}}, {"type": "node", "id": 7844131988, "lat": 10.998711, "lon": 76.951222, "tags": {"addr:district": "Coimbatore", "addr:full": "R.S. Puram, Coimbatore", "addr:postcode": "641001", "addr:state": "Tamil Nadu", "amenity": "hospital", "healthcare": "hospital", "name": "Sri Vishnu Priya Hospital", "source": "Local Knowledge"}}, {"type": "node", "id": 7844131989, "lat": 11.0143168, "lon": 76.9449938, "tags": {"addr:district": "Coimbatore", "addr:full": "Vincent Colony, R S Puram", "addr:postcode": "641002", "addr:state": "Tamil Nadu", "amenity": "hospital", "healthcare": "hospital", "name": "Arun Urology Hospital", "source": "Local Knowledge"}}, {"type": "node", "id": 7844131990, "lat": 11.024344, "lon": 76.9593148, "tags": {"addr:district": "Coimbatore", "addr:postcode": "641012", "addr:state": "Tamil Nadu", "amenity": "dentist", "healthcare": "dentist", "name": "Dr. Binus Dental Clinic", "source": "Local Knowledge"}}, {"type": "node", "id": 7844131991, "lat": 10.9901191, "lon": 76.9421502, "tags": {"addr:district": "Coimbatore", "addr:full": "Selvapuram", "addr:postcode": "641026", "addr:state": "Tamil Nadu", "amenity": "hospital", "healthcare": "hospital", "name": "Vennila Hospital", "source": "Local Knowledge"}}, {"type": "node", "id": 7844131992, "lat": 11.0091279, "lon": 76.954667, "tags": {"addr:district": "Coimbatore", "addr:full": "RS Puram, Coimbatore", "addr:postcode": "641002", "addr:state": "Tamil Nadu", "amenity": "hospital", "healthcare": "hospital", "name": "R.S Hospital", "source": "Local Knowledge"}}, {"type": "node", "id": 7844131993, "lat": 11.015436, "lon": 76.984214, "tags": {"addr:district": "Coimbatore", "addr:full": "PN Palayam", "addr:postcode": "641044", "addr:state": "Tamil Nadu", "amenity": "clinic", "healthcare": "clinic", "name": "Sayee Kids Care", "source": "Local Knowledge"}}, {"type": "node", "id": 7844131994, "lat": 10.989403, "lon": 76.961714, "tags": {"addr:district": "Coimbatore", "addr:full": "Ukkadam", "addr:postcode": "641008", "addr:state": "Tamil Nadu", "amenity": "hospital", "healthcare": "hospital", "name": "Welcare Hospital", "source": "Local Knowledge"}}, {"type": "node", "id": 7844131995, "lat": 11.020659, "lon": 76.968611, "tags": {"addr:district": "Coimbatore", "addr:postcode": "641012", "addr:state": "Tamil Nadu", "amenity": "hospital", "healthcare": "hospital", "name": "Becker Manual Hospital", "source": "Local Knowledge"}}, {"type": "node", "id": 7844131996, "lat": 10.9973118, "lon": 76.9963622, "tags": {"addr:district": "Coimbatore", "addr:full": "Palaniappa Nagar, Sowripalayam Pirivu", "addr:postcode": "641045", "addr:state": "Tamil Nadu", "amenity": "clinic", "healthcare": "clinic", "name": "Lakshmi ENT Clinic", "source": "Local Knowledge"}}, {"type": "node", "id": 7844131997, "lat": 10.9922284, "lon": 76.9516612, "tags": {"addr:district": "Coimbatore", "addr:postcode": "641001", "addr:state": "Tamil Nadu", "amenity": "clinic", "healthcare": "clinic", "name": "G.K.P Clinics", "source": "Local Knowledge"}}, {"type": "node", "id": 7844131998, "lat": 10.9967758, "lon": 77.0071075, "tags": {"addr:district": "Coimbatore", "addr:full": "Kallimadai, Ramanathapuram", "addr:postcode": "641045", "addr:state": "Tamil Nadu", "amenity": "hospital", "healthcare": "hospital", "name": "Narmada Hospital", "source": "Local Knowledge"}}, {"type": "node", "id": 7844131999, "lat": 11.0131526, "lon": 76.948405, "tags": {"addr:district": "Coimbatore", "addr:full": "R S Puram, Coimbatore", "addr:postcode": "641002", "addr:state": "Tamil Nadu", "amenity": "hospital", "healthcare": "hospital", "name": "Rao Hospital", "source": "Local Knowledge"}}, {"type": "node", "id": 7844132000, "lat": 11.007283, "lon": 76.956267, "tags": {"addr:district": "Coimbatore", "addr:full": "Chithra", "addr:postcode": "641014", "addr:state": "Tamil Nadu", "amenity": "hospital", "healthcare": "hospital", "name": "Kamala Prakash Hospital", "source": "Local Knowledge"}}, {"type": "node", "id": 7844132001, "lat": 11.007011, "lon": 76.992439, "tags": {"addr:district": "Coimbatore", "addr:full": "Pudur", "addr:postcode": "641045", "addr:state": "Tamil Nadu", "amenity": "hospital", "healthcare": "hospital", "name": "Rafa Hospital", "source": "Local Knowledge"}}, {"type": "node", "id": 7844132002, "lat": 10.9920096, "lon": 76.9520898, "tags": {"addr:district": "Coimbatore", "addr:postcode": "641008", "addr:state": "Tamil Nadu", "amenity": "hospital", "healthcare": "hospital", "name": "Subu Hospital", "source": "Local Knowledge"}}, {"type": "node", "id": 7844132003, "lat": 10.9923475, "lon": 76.9559691, "tags": {"addr:district": "Coimbatore", "addr:full": "Prakasam, Town Hall", "addr:postcode": "641001", "addr:state": "Tamil Nadu", "amenity": "hospital", "healthcare": "hospital", "name": "Rajagambiram Dental Hospital", "source": "Local Knowledge"}}, {"type": "node", "id": 7844132004, "lat": 11.0002483, "lon": 76.9518169, "tags": {"addr:district": "Coimbatore", "addr:full": "R S Puram, Coimbatore", "addr:postcode": "641002", "addr:state": "Tamil Nadu", "amenity": "hospital", "check_date": "2025-06-16", "healthcare": "hospital", "name": "Iswarya Hospital", "source": "Local Knowledge"}}, {"type": "node", "id": 7844132005, "lat": 11.0075989, "lon": 76.9911858, "tags": {"addr:district": "Coimbatore", "addr:full": "Dhamu Nagar, Puliakulam", "addr:postcode": "641028", "addr:state": "Tamil Nadu", "amenity": "clinic", "healthcare": "clinic", "name": "Anbu Child Care Clinic", "source": "Local Knowledge"}}, {"type": "node", "id": 7844132006, "lat": 11.0228593, "lon": 76.9656034, "tags": {"addr:district": "Coimbatore", "addr:full": "Tatabad, Gandhipuram", "addr:postcode": "641012", "addr:state": "Tamil Nadu", "amenity": "clinic", "healthcare": "clinic", "name": "Aiswarya Clinic", "source": "Local Knowledge"}}, {"type": "node", "id": 7844132007, "lat": 11.0122181, "lon": 76.9860262}, {"type": "node", "id": 7844132008, "lat": 11.0040562, "lon": 76.9934204, "tags": {"addr:district": "Coimbatore", "addr:full": "Ramasamy Nagar, Puliakulam", "addr:postcode": "641045", "addr:state": "Tamil Nadu", "amenity": "clinic", "healthcare": "clinic", "name": "Marutham Health Clinic", "source": "Local Knowledge"}}, {"type": "node", "id": 7844132009, "lat": 10.9920855, "lon": 76.9574858, "tags": {"addr:district": "Coimbatore", "addr:full": "Prakasam, Town Hall", "addr:postcode": "641008", "addr:state": "Tamil Nadu", "amenity": "hospital", "healthcare": "hospital", "name": "Sri Guru Hospital", "source": "Local Knowledge"}}, {"type": "node", "id": 7844132010, "lat": 11.0153485, "lon": 76.9524368, "tags": {"addr:district": "Coimbatore", "addr:full": "R S Puram", "addr:postcode": "641002", "addr:state": "Tamil Nadu", "amenity": "hospital", "healthcare": "hospital", "name": "PGS Hospital", "source": "Local Knowledge"}}, {"type": "node", "id": 7844132011, "lat": 11.0215052, "lon": 76.9578141, "tags": {"addr:district": "Coimbatore", "addr:full": "Tatabad", "addr:postcode": "641012", "addr:state": "Tamil Nadu", "amenity": "doctors", "healthcare": "doctor", "name": "Dr. N. Bhaskar", "source": "Local Knowledge"}}, {"type": "node", "id": 7844132012, "lat": 11.0027982, "lon": 76.9551255, "tags": {"addr:district": "Coimbatore", "addr:full": "Kollupuram, R S Puram", "addr:postcode": "641002", "addr:state": "Tamil Nadu", "amenity": "clinic", "healthcare": "clinic", "name": "Shree Malar Clinic", "source": "Local Knowledge"}}, {"type": "node", "id": 7844132013, "lat": 11.0054958, "lon": 76.9555005, "tags": {"addr:district": "Coimbatore", "addr:full": "P.N. Pudur, Coimbatore", "addr:postcode": "641041", "addr:state": "Tamil Nadu", "amenity": "dentist", "healthcare": "dentist", "name": "Sri Swathi Dental Clinic", "source": "Local Knowledge"}}, {"type": "node", "id": 7844132014, "lat": 10.999154, "lon": 76.951549, "tags": {"addr:district": "Coimbatore", "addr:full": "Thudiyalur", "addr:postcode": "641034", "addr:state": "Tamil Nadu", "amenity": "hospital", "healthcare": "hospital", "name": "K Jagathnathan Hospital", "source": "Local Knowledge"}}, {"type": "node", "id": 7844132015, "lat": 11.0147943, "lon": 76.9839175, "tags": {"addr:district": "Coimbatore", "addr:full": "PN Palayam", "addr:postcode": "641044", "addr:state": "Tamil Nadu", "amenity": "dentist", "healthcare": "dentist", "name": "Dr. Rajagambiram Dental Clinic", "source": "Local Knowledge"}}, {"type": "node", "id": 7844132016, "lat": 11.008435, "lon": 76.9580134, "tags": {"addr:district": "Coimbatore", "addr:full": "Hosimin Nagar", "addr:postcode": "641043", "addr:state": "Tamil Nadu", "amenity": "hospital", "healthcare": "hospital", "name": "Mak Hospital", "source": "Local Knowledge"}}, {"type": "node", "id": 7844132017, "lat": 11.0039912, "lon": 76.955796, "tags": {"addr:district": "Coimbatore", "addr:full": "Kollupuram, R S Puram, Coimbatore", "addr:postcode": "641002", "addr:state": "Tamil Nadu", "amenity": "dentist", "healthcare": "dentist", "name": "Arun Dental Clinic", "source": "Local Knowledge"}}, {"type": "node", "id": 8000326824, "lat": 11.0207277, "lon": 77.0189795, "tags": {"addr:city": "Coimbatore", "addr:housenumber": "7", "addr:postcode": "641004", "addr:street": "Rajalakshmi Nagar", "amenity": "clinic", "healthcare": "clinic", "name": "Sky speech & hearing care Clinic", "opening_hours": "Mo-Sa 10:00-19:30"}}, {"type": "node", "id": 8069280725, "lat": 11.0355077, "lon": 77.0329433}, {"type": "node", "id": 8069280726, "lat": 11.0356298, "lon": 77.0329305}, {"type": "node", "id": 8069280727, "lat": 11.035499, "lon": 77.0328358}, {"type": "node", "id": 8069280728, "lat": 11.0356278, "lon": 77.0329062}, {"type": "node", "id": 8069280729, "lat": 11.0351453, "lon": 77.032981}, {"type": "node", "id": 8069280730, "lat": 11.0351236, "lon": 77.0330236}, {"type": "node", "id": 8069280731, "lat": 11.0352253, "lon": 77.0329726}, {"type": "node", "id": 8069280732, "lat": 11.0353761, "lon": 77.0329569}, {"type": "node", "id": 8069280733, "lat": 11.0351051, "lon": 77.0328764}, {"type": "node", "id": 8069280734, "lat": 11.0351343, "lon": 77.0328756}, {"type": "node", "id": 8069280735, "lat": 11.0352147, "lon": 77.0328668}, {"type": "node", "id": 8069280736, "lat": 11.0353654, "lon": 77.0328504}, {"type": "node", "id": 8069280737, "lat": 11.0353057, "lon": 77.0327321}, {"type": "node", "id": 8069280738, "lat": 11.0352024, "lon": 77.0327433}, {"type": "node", "id": 8069280739, "lat": 11.0356121, "lon": 77.0326987}, {"type": "node", "id": 8069280740, "lat": 11.0356242, "lon": 77.0327988}, {"type": "node", "id": 8069280741, "lat": 11.0356644, "lon": 77.0327934}, {"type": "node", "id": 8069280742, "lat": 11.0356782, "lon": 77.0328994}, {"type": "node", "id": 8069280743, "lat": 11.035824, "lon": 77.0328056}, {"type": "node", "id": 8069280744, "lat": 11.0358338, "lon": 77.0328814}, {"type": "node", "id": 8069280745, "lat": 11.0358898, "lon": 77.0327987}, {"type": "node", "id": 8069280746, "lat": 11.0358981, "lon": 77.0328747}, {"type": "node", "id": 8069280747, "lat": 11.0350366, "lon": 77.033025}, {"type": "node", "id": 8069280748, "lat": 11.0350172, "lon": 77.032885}, {"type": "node", "id": 8069280749, "lat": 11.0350924, "lon": 77.0327553}, {"type": "node", "id": 8069280750, "lat": 11.0352023, "lon": 77.0327428}, {"type": "node", "id": 8069280752, "lat": 11.0351311, "lon": 77.0330981}, {"type": "node", "id": 8069280753, "lat": 11.0356413, "lon": 77.033045}, {"type": "node", "id": 8069280754, "lat": 11.0356594, "lon": 77.032755}, {"type": "node", "id": 8069280755, "lat": 11.0356201, "lon": 77.0327602}, {"type": "node", "id": 8069280756, "lat": 11.0356095, "lon": 77.0326784}, {"type": "node", "id": 8069280757, "lat": 11.0358041, "lon": 77.0326522}, {"type": "node", "id": 8069280758, "lat": 11.0356488, "lon": 77.0326731}, {"type": "node", "id": 8069280759, "lat": 11.0356967, "lon": 77.0330418}, {"type": "node", "id": 8069280760, "lat": 11.0358519, "lon": 77.0330209}, {"type": "node", "id": 8069280761, "lat": 11.035877, "lon": 77.0326816}, {"type": "node", "id": 8069280762, "lat": 11.0359138, "lon": 77.0330182}, {"type": "node", "id": 8120173121, "lat": 11.0249534, "lon": 76.9047716}, {"type": "node", "id": 8193621317, "lat": 11.0121348, "lon": 77.0241285, "tags": {"amenity": "pharmacy", "healthcare": "pharmacy", "name:en": "People's Pharmacy"}}, {"type": "node", "id": 8321106418, "lat": 11.0203194, "lon": 76.9610724, "tags": {"amenity": "clinic", "healthcare": "clinic", "name:en": "Kovai Scan Center"}}, {"type": "node", "id": 9757282686, "lat": 11.0630952, "lon": 76.9986093, "tags": {"amenity": "dentist", "healthcare": "dentist", "healthcare:speciality": "pediatric;dentist", "name": "Little Krishna Kids Dental Care", "phone": "9003961667"}}, {"type": "node", "id": 10555246280, "lat": 11.0182861, "lon": 76.9247173}, {"type": "node", "id": 10555246281, "lat": 11.0181763, "lon": 76.9247225}, {"type": "node", "id": 10555246282, "lat": 11.0181797, "lon": 76.9248356}, {"type": "node", "id": 10555246283, "lat": 11.0182915, "lon": 76.9248363}, {"type": "node", "id": 10587611616, "lat": 11.0181273, "lon": 76.9241505, "tags": {"healthcare": "midwife", "healthcare:speciality": "gynaecology", "name:ta": "\u0ba4\u0bbe\u0baf\u0bcd \u0b9a\u0bc7\u0baf\u0bcd \u0ba8\u0bb2 \u0bb5\u0bbf\u0bcd\u0b9f\u0bc1\u0ba4\u0bbf"}}, {"type": "node", "id": 10595890825, "lat": 11.0161622, "lon": 76.9245753, "tags": {"amenity": "pharmacy", "check_date": "2024-10-24", "healthcare": "pharmacy", "name": "Sundaram Medicals", "name:ta": "\u0b9a\u0bc1\u0ba8\u0bcd\u0ba4\u0bb0\u0bae\u0bcd \u0bae\u0bb0\u0bc1\u0ba8\u0bcd\u0ba4\u0b95\u0bae\u0bcd"}}, {"type": "node", "id": 10784194533, "lat": 11.0086499, "lon": 77.0811977}, {"type": "node", "id": 10784194534, "lat": 11.0086101, "lon": 77.0810385}, {"type": "node", "id": 10784194535, "lat": 11.0086783, "lon": 77.0810183}, {"type": "node", "id": 10784194536, "lat": 11.0087169, "lon": 77.0811889}, {"type": "node", "id": 10889364043, "lat": 11.0570354, "lon": 77.0669229}, {"type": "node", "id": 10889364044, "lat": 11.0572786, "lon": 77.0670099}, {"type": "node", "id": 10889364045, "lat": 11.0572195, "lon": 77.0671954}, {"type": "node", "id": 10889364046, "lat": 11.0570389, "lon": 77.0675151}, {"type": "node", "id": 10889364047, "lat": 11.0569417, "lon": 77.0675859}, {"type": "node", "id": 10889364048, "lat": 11.0567923, "lon": 77.0675304}, {"type": "node", "id": 10889364049, "lat": 11.0570169, "lon": 77.0669158}, {"type": "node", "id": 11149608947, "lat": 11.0221665, "lon": 76.9154081, "tags": {"amenity": "pharmacy", "name": "Thulasi Pharmacy", "website": "https://thulasipharmacy.com/"}}, {"type": "node", "id": 11368079569, "lat": 11.0208777, "lon": 77.0218602, "tags": {"amenity": "clinic", "name:en": "Roy Physiotherapy Clinic"}}, {"type": "node", "id": 11435461794, "lat": 11.0248222, "lon": 76.9047795}, {"type": "node", "id": 11435462115, "lat": 11.0249477, "lon": 76.9046727}, {"type": "node", "id": 11435463016, "lat": 11.0248165, "lon": 76.9046806}, {"type": "node", "id": 11459935322, "lat": 11.0568801, "lon": 77.0675437}, {"type": "node", "id": 11459984643, "lat": 11.0568259, "lon": 77.0675264}, {"type": "node", "id": 11459984753, "lat": 11.0569014, "lon": 77.0674743}, {"type": "node", "id": 11459985961, "lat": 11.0569839, "lon": 77.0675006}, {"type": "node", "id": 11459986332, "lat": 11.057008, "lon": 77.0669343}, {"type": "node", "id": 11459987112, "lat": 11.0570758, "lon": 77.067361}, {"type": "node", "id": 11459987195, "lat": 11.0570312, "lon": 77.0673467}, {"type": "node", "id": 11494646459, "lat": 11.0215031, "lon": 76.917055}, {"type": "node", "id": 11494647599, "lat": 11.0215914, "lon": 76.9170591}, {"type": "node", "id": 11494648765, "lat": 11.0214993, "lon": 76.917142}, {"type": "node", "id": 11515693704, "lat": 11.0315696, "lon": 76.8880492}, {"type": "node", "id": 11515715359, "lat": 11.0315688, "lon": 76.8880814}, {"type": "node", "id": 11515717502, "lat": 11.0315909, "lon": 76.8879317}, {"type": "node", "id": 11515717565, "lat": 11.0315136, "lon": 76.88808}, {"type": "node", "id": 11515719093, "lat": 11.0252716, "lon": 76.9025886}, {"type": "node", "id": 11515719138, "lat": 11.0250304, "lon": 76.9016603}, {"type": "node", "id": 11515720792, "lat": 11.0316751, "lon": 76.8879338}, {"type": "node", "id": 11515721903, "lat": 11.0316722, "lon": 76.8880518}, {"type": "node", "id": 11515721940, "lat": 11.0315158, "lon": 76.8879876}, {"type": "node", "id": 11515724843, "lat": 11.0253755, "lon": 76.9025434}, {"type": "node", "id": 11515724916, "lat": 11.0253818, "lon": 76.9023237}, {"type": "node", "id": 11515724950, "lat": 11.0252729, "lon": 76.9025404}, {"type": "node", "id": 11515725052, "lat": 11.0252024, "lon": 76.9015768}, {"type": "node", "id": 11515725133, "lat": 11.0251529, "lon": 76.9023169}, {"type": "node", "id": 11515725145, "lat": 11.0251997, "lon": 76.9015768}, {"type": "node", "id": 11515725495, "lat": 11.025029, "lon": 76.9014898}, {"type": "node", "id": 11515728097, "lat": 11.025199, "lon": 76.9014883}, {"type": "node", "id": 11616015439, "lat": 11.012162, "lon": 76.9862298}, {"type": "node", "id": 11616019667, "lat": 11.0122808, "lon": 76.9861792}, {"type": "node", "id": 11616037781, "lat": 11.0121514, "lon": 76.9864354}, {"type": "node", "id": 11616037843, "lat": 11.0120185, "lon": 76.986111}, {"type": "node", "id": 11616038915, "lat": 11.0122321, "lon": 76.9864011}, {"type": "node", "id": 11619156839, "lat": 10.9948922, "lon": 76.9706467}, {"type": "node", "id": 11629876026, "lat": 11.0229413, "lon": 76.9770893}, {"type": "node", "id": 11646413356, "lat": 11.0069721, "lon": 77.0272443}, {"type": "node", "id": 11646418946, "lat": 11.0060538, "lon": 77.0255292}, {"type": "node", "id": 11646429303, "lat": 11.0050329, "lon": 77.0271697}, {"type": "node", "id": 11646429660, "lat": 11.0007574, "lon": 77.0288275}, {"type": "node", "id": 11646435954, "lat": 11.0060453, "lon": 77.0253328}, {"type": "node", "id": 11646436036, "lat": 11.0058307, "lon": 77.0194253}, {"type": "node", "id": 11646439031, "lat": 11.0059045, "lon": 77.0195836}, {"type": "node", "id": 11646439251, "lat": 11.0072377, "lon": 77.0258068}, {"type": "node", "id": 11646448559, "lat": 11.0071458, "lon": 77.0258422}, {"type": "node", "id": 11646449873, "lat": 11.0072546, "lon": 77.0256681}, {"type": "node", "id": 11646449883, "lat": 11.0058307, "lon": 77.0195836}, {"type": "node", "id": 11646450075, "lat": 11.0069336, "lon": 77.0257333}, {"type": "node", "id": 11646450092, "lat": 11.0050482, "lon": 77.027232}, {"type": "node", "id": 11646450377, "lat": 11.0060233, "lon": 77.0254045}, {"type": "node", "id": 11646453935, "lat": 11.0069318, "lon": 77.0272635}, {"type": "node", "id": 11646454211, "lat": 11.0006252, "lon": 77.0286597}, {"type": "node", "id": 11646454716, "lat": 11.0069074, "lon": 77.0272105}, {"type": "node", "id": 11646455101, "lat": 11.0060605, "lon": 77.0253951}, {"type": "node", "id": 11646455310, "lat": 11.0071481, "lon": 77.0258486}, {"type": "node", "id": 11646455458, "lat": 11.0072355, "lon": 77.0256168}, {"type": "node", "id": 11646455645, "lat": 11.0069979, "lon": 77.0259065}, {"type": "node", "id": 11646456574, "lat": 11.0061867, "lon": 77.025297}, {"type": "node", "id": 11646456651, "lat": 11.0007306, "lon": 77.0286474}, {"type": "node", "id": 11646458179, "lat": 11.0006454, "lon": 77.0288405}, {"type": "node", "id": 11646458378, "lat": 11.0049746, "lon": 77.0270009}, {"type": "node", "id": 11646459288, "lat": 11.0007307, "lon": 77.0286482}, {"type": "node", "id": 11646459703, "lat": 11.0050584, "lon": 77.0272688}, {"type": "node", "id": 11646460179, "lat": 11.0052266, "lon": 77.027229}, {"type": "node", "id": 12006552126, "lat": 10.9665505, "lon": 76.9506551, "tags": {"addr:city": "Coimbatore", "addr:district": "Coimbatore", "addr:housenumber": "21/27", "addr:street": "Kurinji Nagar, Kuniyamuthur", "amenity": "pharmacy", "healthcare": "pharmacy", "name": "New Pharmacy"}}, {"type": "node", "id": 12008975160, "lat": 10.9435242, "lon": 76.9368453, "tags": {"addr:city": "Coimbatore", "addr:district": "Coimbatore", "addr:housenumber": "V-54", "addr:street": "Krishnammal Complex, Police Camp Road, Kovaipudur", "email": "physiofit24@gmail.com", "healthcare": "physiotherapist", "name": "Physio Fit Physiotherapy Clinic", "opening_hours": "Mo-Sa 10:00-13:00, 18:00-20:00", "payment:cash": "yes", "payment:google_pay": "yes", "phone": "+919626080374"}}, {"type": "node", "id": 12041197061, "lat": 10.9652334, "lon": 76.943096, "tags": {"addr:city": "Coimbatore", "addr:district": "Coimbatore", "addr:street": "Shoba Garden, Maharaja Colony, Kuniyamuthur", "amenity": "pharmacy", "healthcare": "pharmacy", "name": "RFS Medicals"}}, {"type": "node", "id": 12137230487, "lat": 10.9827266, "lon": 76.9989578}, {"type": "node", "id": 12137230488, "lat": 10.9831426, "lon": 76.9989283}, {"type": "node", "id": 12137230489, "lat": 10.9831769, "lon": 76.9995855}, {"type": "node", "id": 12137230490, "lat": 10.9832453, "lon": 76.9998537}, {"type": "node", "id": 12137230491, "lat": 10.9833059, "lon": 77.0000173}, {"type": "node", "id": 12137230492, "lat": 10.9832111, "lon": 77.0002077}, {"type": "node", "id": 12137230493, "lat": 10.9828267, "lon": 77.0002399}, {"type": "node", "id": 12285349817, "lat": 11.0102846, "lon": 76.9502958, "tags": {"amenity": "pharmacy", "check_date": "2024-10-24", "healthcare": "pharmacy", "name": "Arasu Medicals", "name:ta": "\u0b85\u0bb0\u0b9a\u0bc1 \u0bae\u0bc6\u0b9f\u0bbf\u0b95\u0bcd\u0b95\u0bb2\u0bcd\u0bb8\u0bcd"}}, {"type": "node", "id": 12285349823, "lat": 11.0182403, "lon": 76.9246, "tags": {"amenity": "hospital", "check_date": "2024-10-24", "healthcare": "hospital", "name": "Arunai Hospitals", "name:ta": "\u0b85\u0bb0\u0bc1\u0ba3\u0bc8 \u0bae\u0bb0\u0bc1\u0ba4\u0bcd\u0ba4\u0bc1\u0bb5\u0bae\u0ba9\u0bc8", "phone": "+91 422 453 0142"}}, {"type": "node", "id": 12285349827, "lat": 11.0164096, "lon": 76.9238363, "tags": {"amenity": "pharmacy", "check_date": "2024-10-24", "healthcare": "pharmacy", "name": "Kalai Medicals", "name:ta": "\u0b95\u0bb2\u0bc8 \u0bae\u0bc6\u0b9f\u0bbf\u0b95\u0bcd\u0b95\u0bb2\u0bcd\u0bb8\u0bcd"}}, {"type": "node", "id": 13001830875, "lat": 11.0040277, "lon": 76.9495558, "tags": {"addr:housenumber": "121", "addr:street": "west ramalingam road", "amenity": "dentist", "contact:mobile": "+919843759559", "name": "GS Dental care", "phone": "+914222476036"}}, {"type": "way", "id": 48846712, "nodes": [619724590, 619724592, 5640849569, 619724594, 619724590], "tags": {"addr:district": "Coimbatore", "addr:full": "# 687, Trichy Road, Ramanathapuram", "addr:postcode": "641045", "addr:state": "Tamil Nadu", "addr:subdistrict": "Coimbatore South", "amenity": "hospital", "building": "yes", "healthcare": "hospital", "name": "Deepam Hospital, Ramanathapuram", "source": "OpenGovernmentData"}}, {"type": "way", "id": 48846719, "nodes": [8069280745, 8069280761, 619724629, 619724628, 8069280762, 8069280746, 8069280744, 8069280760, 8069280759, 8069280742, 8069280728, 8069280726, 8069280753, 8069280752, 8069280730, 8069280747, 8069280748, 8069280733, 8069280749, 8069280738, 8069280750, 8069280737, 8069280739, 8069280756, 8069280758, 8069280757, 8069280743, 8069280745], "tags": {"building": "yes", "source": "OpenGovernmentData"}}, {"type": "way", "id": 133035201, "nodes": [1463889990, 1463889991, 1463889988, 1463889987, 1463889990], "tags": {"addr:block": "Periyanaickenpalayam", "addr:district": "Coimbatore", "addr:full": "Mettupalayam Rd, Jayanthi Nagar, Koundampalayam, Coimbatore", "addr:housename": "Kalpana Hospital", "addr:postcode": "641030", "addr:state": "Tamil Nadu", "addr:street": "Mettupalayam Road", "addr:subdistrict": "Coimbatore North", "amenity": "hospital", "building": "yes", "name": "Kalpana Medical Centre", "source": "OpenGovernmentData"}}, {"type": "way", "id": 133072618, "nodes": [1464278715, 1464278866, 1464278732, 1464278880, 1464278715], "tags": {"addr:block": "Coimbatore Corpn", "addr:district": "Coimbatore", "addr:full": "Nesavaalar Colony, Saibaba Koil, Saibaba Colony", "addr:postcode": "641011", "addr:state": "Tamil Nadu", "addr:subdistrict": "Coimbatore South", "amenity": "hospital", "building": "yes", "emergency": "yes", "healthcare": "hospital", "name": "Ganga Hospital", "name:ta": "\u0b95\u0b99\u0bcd\u0b95\u0bbe \u0bae\u0bb0\u0bc1\u0ba4\u0bcd\u0ba4\u0bc1\u0bb5\u0bae\u0ba9\u0bc8", "source": "OpenGovernmentData", "wheelchair": "yes"}}, {"type": "way", "id": 133736673, "nodes": [1471928725, 1471928730, 1471928732, 1471928727, 1471928725], "tags": {"addr:block": "Coimbatore Corpn", "addr:district": "Coimbatore", "addr:full": "16A, Sivanandapuram, Sathy Road", "addr:postcode": "641035", "addr:state": "Tamil Nadu", "addr:subdistrict": "Coimbatore South", "address": "Sathy Road, Coimbatore - 641 035, Tamil Nadu", "amenity": "hospital", "email": "sankarai@md3.vsnl.net.in", "emergency": "yes", "name": "Sankara Eye Hospital", "phone": "0422 2666450", "source": "OpenGovernmentData"}}, {"type": "way", "id": 155623691, "nodes": [1680237161, 1680237151, 1680237146, 1680237153, 1680237161], "tags": {"amenity": "hospital", "building": "yes", "healthcare": "hospital", "name": "Dr. Arjun Hospital"}}, {"type": "way", "id": 172004029, "nodes": [1829589442, 1829589421, 1829589446, 1829589430, 1829589442]}, {"type": "way", "id": 172004030, "nodes": [1829589445, 1829589415, 1829589448, 1829589398, 1829589445]}, {"type": "way", "id": 172098631, "nodes": [1830374769, 1830374789, 1830374775, 1830374762, 1830374769]}, {"type": "way", "id": 172098632, "nodes": [1830374770, 1830374773, 1830374767, 1830374784, 1830374770]}, {"type": "way", "id": 172098633, "nodes": [1830374768, 1830374788, 1830374790, 1830374763, 1830374768]}, {"type": "way", "id": 172098634, "nodes": [1830374771, 1830374779, 1830374780, 1830374778, 1830374771]}, {"type": "way", "id": 172098635, "nodes": [1830374783, 1830374785, 1830374793, 1830374776, 1830374786, 1830374787, 1830374783]}, {"type": "way", "id": 172098636, "nodes": [1830374777, 1830374782, 1830374792, 1830374791, 1830374766, 1830374772, 1830374764, 1830374774, 1830374765, 1830374781, 1830374777]}, {"type": "way", "id": 172098707, "nodes": [1830375323, 1830375318, 1830375327, 1830375325, 1830375323], "tags": {"amenity": "hospital", "healthcare": "hospital"}}, {"type": "way", "id": 193354097, "nodes": [2038597026, 2038597091, 2038597166, 2038597237, 2038598189, 2038597026], "tags": {"addr:district": "Coimbatore", "addr:full": "45A, Pankaja Mill Road, Coimbatore, Ramanathapuram", "addr:postcode": "641045", "addr:state": "Tamil Nadu", "addr:subdistrict": "Coimbatore South", "amenity": "hospital", "emergency": "yes", "healthcare": "hospital", "name": "Gem Hospital, Coimbatore", "source": "OpenGovernmentData"}}, {"type": "way", "id": 356877719, "nodes": [3622806351, 3622806350, 3622806349, 3622806352, 3622806353, 3622806354, 3622806355, 3622806356, 3622806357, 3622806358, 3622806359, 3622806360, 3622806361, 3622806362, 3622806363, 3622806364, 3622806351], "tags": {"addr:block": "Coimbatore Corpn", "addr:district": "Coimbatore", "addr:full": "Pb No 3209, Coimbatore, Avinashi Road", "addr:postcode": "641014", "addr:state": "Tamil Nadu", "addr:subdistrict": "Coimbatore South", "amenity": "hospital", "healthcare": "hospital", "healthcare:speciality": "general;paediatrics;ophthalmology;emergency;intensive;vaccination;dermatology;gynaecology;radiology;surgery;cardiology", "name": "Kovai Medical Centre,Coimbatore", "source": "OpenGovernmentData;local knowledge", "toilets:wheelchair": "yes", "wheelchair": "yes", "wikidata": "Q52856605"}}, {"type": "way", "id": 377993519, "nodes": [3781594981, 4077964744, 4077964742, 11619156839, 4077964743, 3781594983, 3781594986, 4077964752, 4077964751, 4077964750, 4077964749, 4077964748, 3781594987, 3781594985, 3781594984, 3781594981], "tags": {"addr:block": "Coimbatore Corpn", "addr:district": "Coimbatore", "addr:full": "D.No.173, Krishnasamy Road, Near Brookfield Mall, R.S Puram, Brook Band Road", "addr:postcode": "641002", "addr:state": "Tamil Nadu", "addr:subdistrict": "Coimbatore South", "alt_name": "CMC Coimbatore", "amenity": "hospital", "emergency": "yes", "healthcare": "hospital", "name": "Coimbatore Medical College Hospital", "name:ta": "\u0b95\u0bcb\u0bb5\u0bc8 \u0bae\u0bb0\u0bc1\u0ba4\u0bcd\u0ba4\u0bc1\u0bb5 \u0b95\u0bb2\u0bcd\u0bb2\u0bc2\u0bb0\u0bbf \u0bae\u0bb0\u0bc1\u0ba4\u0bcd\u0ba4\u0bc1\u0bb5\u0bae\u0ba9\u0bc8", "source": "OpenGovernmentData", "website": "http://www.cmccbe.ac.in/cmccbe/", "wikidata": "Q5141507", "wikipedia": "en:Coimbatore Medical College"}}, {"type": "way", "id": 380074539, "nodes": [3834227961, 3834227962, 3834227963, 3834227964, 3834227965, 3834227966, 3834227967, 3834227968, 3834227969, 3834227961], "tags": {"addr:district": "Coimbatore", "addr:full": "I.O.B Colony ,Maruthamalai", "addr:postcode": "641045", "addr:state": "Tamil Nadu", "amenity": "hospital", "name": "Coimbatore Diabetes Foundation", "source": "OpenGovernmentData"}}, {"type": "way", "id": 442528852, "nodes": [4402079969, 4402079970, 4402079971, 4402079972, 4402079969], "tags": {"amenity": "hospital", "healthcare": "hospital", "name": "Airforce Hospital"}}, {"type": "way", "id": 464308337, "nodes": [4594346694, 4594346693, 4594346692, 4594346691, 4594346694], "tags": {"addr:district": "Coimbatore", "addr:full": "8, Krishna Nagar,Sowripalayam Main Road,Sowripalayam", "addr:postcode": "641028", "addr:state": "Tamil Nadu", "amenity": "hospital", "building": "yes", "healthcare": "hospital", "name": "Anurag Hospital", "name:ta": "\u0b85\u0ba9\u0bc1\u0bb0\u0bbe\u0b95\u0bcd \u0b86\u0bb8\u0bcd\u0baa\u0ba4\u0bcd\u0ba4\u0bbf\u0bb0\u0bbf", "source": "OpenGovernmentData"}}, {"type": "way", "id": 497317279, "nodes": [4888977392, 4888977393, 4888977394, 4888977395, 4888977392], "tags": {"addr:district": "Coimbatore", "addr:full": "#190, 191, Pollachi Road,Near Lic Colony,Industrial Estate Post", "addr:postcode": "641021", "addr:state": "Tamil Nadu", "amenity": "hospital", "name": "Rajam Medical Centre & Hospital", "source": "OpenGovernmentData"}}, {"type": "way", "id": 497317281, "nodes": [4888977399, 4888977400, 4888977401, 4888977402, 4888977403, 4888977404, 4888977399], "tags": {"addr:block": "Coimbatore Corpn", "addr:district": "Coimbatore", "addr:full": "# 314, Pollachi Main Road, Sundarapuram", "addr:postcode": "641024", "addr:state": "Tamil Nadu", "amenity": "hospital", "name": "Sri Balaji Hospitals", "source": "OpenGovernmentData"}}, {"type": "way", "id": 497318359, "nodes": [4888987310, 4888987311, 4888987312, 4888987313, 4888987314, 4888987315, 4888987310], "tags": {"addr:district": "Coimbatore", "addr:full": "237-F/7, Sundarapuram, Coimbatore, Pollachi Road", "addr:postcode": "641024", "addr:state": "Tamil Nadu", "addr:subdistrict": "Coimbatore North", "amenity": "hospital", "name": "Abinand Hospital", "source": "OpenGovernmentData"}}, {"type": "way", "id": 497318360, "nodes": [4888987316, 4888987317, 4888987318, 4888987319, 4888987316], "tags": {"addr:block": "Coimbatore Corpn", "addr:city": "Sonipat", "addr:district": "Sonipat", "addr:full": "193/145, Kurichi, Sundarapuram, Coimbatore, Pollachi Main Road", "addr:housenumber": "131001", "addr:postcode": "641024", "addr:state": "Tamil Nadu", "addr:street": "Bahalgarh Road", "addr:subdistrict": "Coimbatore South", "amenity": "hospital", "building": "yes", "healthcare:speciality": "cardiology;emergency_services;gastroenterology_&_liver_diseases", "name": "FIMS Hospitals | Best Multispeciality Hospital In Sonipat", "source": "OpenGovernmentData"}}, {"type": "way", "id": 497318366, "nodes": [4888989028, 4888989029, 4888989030, 4888989031, 4888989032, 4888989033, 4888989028], "tags": {"addr:district": "Coimbatore", "addr:full": "Lic Agent Colony, Sundarapuram", "addr:postcode": "641024", "addr:state": "Tamil Nadu", "amenity": "hospital", "name": "NRP Hospitals", "source": "OpenGovernmentData"}}, {"type": "way", "id": 497325630, "nodes": [4889052928, 4889052929, 4889052930, 4889052931, 4889052928], "tags": {"amenity": "hospital", "healthcare": "hospital", "name": "Seetharam Hospital"}}, {"type": "way", "id": 497325631, "nodes": [4889052932, 4889052933, 4889052934, 4889052935, 4889052932], "tags": {"amenity": "hospital", "healthcare": "hospital", "name": "Snekaram Hospital"}}, {"type": "way", "id": 498985099, "nodes": [4903163539, 4903163540, 4903163541, 4903163542, 4903163539], "tags": {"amenity": "hospital", "name": "Medicine Point"}}, {"type": "way", "id": 498988417, "nodes": [4903200281, 4903200282, 4903200283, 4903200284, 4903200281], "tags": {"addr:district": "Coimbatore", "addr:full": "111, Nanjappa Nagar, Trichy Road,Singanallur Road,Petrol Bunk", "addr:postcode": "641005", "addr:state": "Tamil Nadu", "addr:subdistrict": "Coimbatore South", "amenity": "hospital", "healthcare": "hospital", "name": "Coimbatore Child Trust Hospital", "source": "OpenGovernmentData"}}, {"type": "way", "id": 506409030, "nodes": [4961511860, 4961511859, 1472189985, 4961511858, 11629876026, 4961511857, 4961511860], "tags": {"amenity": "hospital", "emergency": "yes", "healthcare": "hospital", "name": "Sri Ramakrishna Hospital"}}, {"type": "way", "id": 640746755, "nodes": [6035837217, 6035837218, 6035837219, 6035837220, 6035837217], "tags": {"amenity": "hospital", "healthcare": "hospital", "name": "St. Marys Hospital"}}, {"type": "way", "id": 651641257, "nodes": [6110277692, 6110277693, 6110277694, 6110277695, 6110277692], "tags": {"amenity": "hospital", "healthcare": "hospital", "name": "Global Ortho & Trauma Hospital"}}, {"type": "way", "id": 668646361, "nodes": [6261616468, 6261616469, 6261616470, 6261616471, 6261616468], "tags": {"addr:city": "Coimbatore", "addr:postcode": "641042", "addr:street": "Shanti Ashram Rd", "amenity": "doctors", "building": "yes", "healthcare": "doctor", "healthcare:speciality": "paediatrics", "name": "ICPH International Center for Child and Public Health", "operator": "Shanti Ashram", "website": "http://www.icphhealth.org/"}}, {"type": "way", "id": 676200805, "nodes": [6332623378, 7257183873, 7257183872, 7257183871, 7257183870, 7257183869, 7257183868, 7257183867, 7257183866, 7257183865, 7257183864, 7257183863, 7257183862, 7257183855, 7257183856, 7257183857, 7257183858, 7257183859, 6332623380, 7257183860, 7257183861, 6332623381, 6332623378], "tags": {"addr:block": "Madukkarai", "addr:district": "Coimbatore", "addr:full": "Hospital, Sundakkamuthur, Hospital Veethy", "addr:postcode": "641010", "addr:state": "Tamil Nadu", "addr:subdistrict": "Coimbatore South", "amenity": "hospital", "healthcare": "hospital", "name": "Sundakamuthur Government Hospital", "source": "OpenGovernmentData"}}, {"type": "way", "id": 678830304, "nodes": [6356066449, 6356066450, 6356066451, 6356066452, 6356066453, 6356066454, 6356066455, 6356066456, 6356066457, 6356066271, 6356066458, 6356066449], "tags": {"amenity": "hospital", "healthcare": "hospital", "name": "GMC & ESI Hospitals"}}, {"type": "way", "id": 682548959, "nodes": [6392099851, 6392099853, 6392099850, 6392099852, 6392099851], "tags": {"addr:city": "coimbatore", "addr:country": "IN", "addr:district": "coimbatore", "addr:place": "thudiyalur", "addr:state": "tamilnadu", "addr:street": "Coimbatore-Mettupalayam Road", "amenity": "hospital", "building:use": "medical", "healthcare": "hospital", "name": "v.g.hospital", "name:ta": "\u0bb5\u0bbf.\u0b9c\u0bbf.\u0bae\u0bb0\u0bc1\u0ba4\u0bcd\u0ba4\u0bc1\u0bb5\u0bae\u0ba9\u0bc8"}}, {"type": "way", "id": 686744601, "nodes": [6437344557, 6437344555, 6437344558, 6437344556, 6437344557], "tags": {"addr:block": "Coimbatore Corpn", "addr:city": "coimbatore", "addr:country": "IN", "addr:district": "Coimbatore", "addr:full": "Nsr Road, Coimbatore, Saibaba Koil", "addr:place": "Saibaba Temple", "addr:place:ta": "\u0b9a\u0bbe\u0baf\u0bcd\u0baa\u0bbe\u0baa\u0bbe \u0b95\u0bcb\u0baf\u0bbf\u0bb2\u0bcd", "addr:postcode": "641011", "addr:state": "Tamil Nadu", "addr:subdistrict": "Coimbatore South", "amenity": "hospital", "healthcare": "hospital", "name": "Dr.Sengaliappan Nursing Home, Coimbatore", "source": "OpenGovernmentData"}}, {"type": "way", "id": 750002368, "nodes": [7013220224, 7013220225, 7013220226, 7013220227, 7013220224], "tags": {"addr:city": "Coimbatore", "addr:housenumber": "499/500", "addr:postcode": "641035", "addr:street": "Sathyamangalam Road", "amenity": "hospital", "emergency": "yes", "healthcare": "hospital", "healthcare:speciality": "cardiology;dermatology;nephrology;general;gynaecology;paediatrics;orthopaedics", "name": "Kumaran Medical Center-Multispeciality Hospital", "phone": "0422 2226222", "website": "https://www.kumaranmedical.com/"}}, {"type": "way", "id": 865705418, "nodes": [8069280725, 8069280727, 8069280736, 8069280732, 8069280725]}, {"type": "way", "id": 865705419, "nodes": [8069280731, 8069280735, 8069280734, 8069280729, 8069280731]}, {"type": "way", "id": 865705420, "nodes": [8069280740, 8069280741, 8069280754, 8069280755, 8069280740]}, {"type": "way", "id": 1132032492, "nodes": [10555246280, 10555246281, 10555246282, 10555246283, 10555246280], "tags": {"addr:city": "Coimbatore", "addr:postcode": "641041", "addr:street": "2nd street", "amenity": "pharmacy", "building": "yes", "check_date": "2024-10-24", "drive_through": "no", "healthcare": "pharmacy", "name": "Vinayaka Medicals"}}, {"type": "way", "id": 1159633730, "nodes": [10784194535, 10784194536, 10784194533, 10784194534, 10784194535], "tags": {"amenity": "clinic", "building": "yes", "healthcare": "clinic", "healthcare:speciality": "pulmonology;general", "name": "Dr. V. Ramakrishnan Clinic", "name:ta": "\u0b9f\u0bbe\u0b95\u0bcd\u0b9f\u0bb0\u0bcd. \u0bb5\u0bbf. \u0b87\u0bb0\u0bbe\u0bae\u0b95\u0bbf\u0bb0\u0bc1\u0bb7\u0bcd\u0ba3\u0ba9\u0bcd \u0bae\u0bb0\u0bc1\u0ba4\u0bcd\u0ba4\u0bc1\u0bb5\u0bae\u0ba9\u0bc8", "opening_hours": "08:00-13:00, 15:00-19:30", "operator": "Dr. V. Ramakrishnan", "operator:type": "private"}}, {"type": "way", "id": 1171969157, "nodes": [10889364043, 10889364044, 10889364045, 10889364046, 10889364047, 10889364048, 10889364049, 10889364043], "tags": {"amenity": "hospital", "healthcare": "hospital"}}, {"type": "way", "id": 1232732276, "nodes": [11435463016, 11435461794, 8120173121, 11435462115, 11435463016], "tags": {"addr:street": "Thondamuthur Main road", "amenity": "pharmacy", "building": "yes", "name": "\u0b86\u0ba3\u0bcd\u0b9f\u0bb5\u0bb0\u0bcd \u0b9a\u0bc6\u0b95\u0bcd\u0b95\u0bc1 \u0b86\u0baf\u0bbf\u0bb2\u0bcd \u0bb8\u0bcd\u0b9f\u0bcb\u0bb0\u0bcd", "opening_hours": "Mo-Su 10:00-18:00", "source": "microsoft/BuildingFootprints"}}, {"type": "way", "id": 1234645168, "nodes": [11459986332, 11459984643, 11459935322, 11459984753, 11459985961, 11459987195, 11459987112, 7181695525, 11459986332], "tags": {"addr:block": "Coimbatore Corpn", "addr:district": "Coimbatore", "addr:full": "Avinashi Road - Coimbatore, Chinniyampalayam", "addr:postcode": "641062", "addr:state": "Tamil Nadu", "addr:subdistrict": "Coimbatore South", "amenity": "hospital", "building": "yes", "healthcare": "hospital", "name": "KGM, Chinniampalayam", "source": "OpenGovernmentData;microsoft/BuildingFootprints"}}, {"type": "way", "id": 1237548963, "nodes": [11494646459, 11494648765, 4727144593, 11494647599, 11494646459], "tags": {"addr:street": "Maruthamalai Road", "amenity": "pharmacy", "building": "yes", "healthcare": "pharmacy", "name:en": "Vinayaka Medicals", "source": "microsoft/BuildingFootprints"}}, {"type": "way", "id": 1239569729, "nodes": [11515693704, 11515721903, 11515720792, 11515717502, 6273310047, 11515721940, 11515717565, 11515715359, 11515693704], "tags": {"addr:block": "Thondamuthur", "addr:district": "Coimbatore", "addr:full": "S.No.630, Near High School, Kalveerampalayam, Maruthamalai Main Road", "addr:postcode": "641046", "addr:state": "Tamil Nadu", "addr:subdistrict": "Coimbatore South", "building": "yes", "description": "Primary Health Centre", "healthcare": "centre", "name": "urban primary health center,Kaliveerampalayam", "name:ta": "\u0ba8\u0b95\u0bb0\u0bcd\u0baa\u0bcd\u0baa\u0bc1\u0bb1 \u0bae\u0bc1\u0ba4\u0ba9\u0bcd\u0bae\u0bc8 \u0b9a\u0bc1\u0b95\u0bbe\u0ba4\u0bbe\u0bb0 \u0ba8\u0bbf\u0bb2\u0bc8\u0baf\u0bae\u0bcd", "source": "OpenGovernmentData;microsoft/BuildingFootprints"}}, {"type": "way", "id": 1239571346, "nodes": [11515724916, 11515725133, 4456097690, 11515719093, 11515724950, 11515724843, 11515724916], "tags": {"addr:street": "Kaundampalayam - Vadavalli - Onappalayam Road", "amenity": "pharmacy", "building": "yes", "name:en": "Green Pharmacy", "source": "microsoft/BuildingFootprints"}}, {"type": "way", "id": 1239571485, "nodes": [4605693890, 11515725052, 11515725145, 11515728097, 11515725495, 11515719138, 4605693890], "tags": {"addr:street": "Kaundampalayam - Vadavalli - Onappalayam Road", "amenity": "pharmacy", "building": "yes", "name:en": "Sree Meenakshi", "source": "microsoft/BuildingFootprints"}}, {"type": "way", "id": 1249640585, "nodes": [11616037843, 11616037781, 11616038915, 11616015439, 11616019667, 7844132007, 11616037843], "tags": {"addr:district": "Coimbatore", "addr:full": "Puliakulam", "addr:postcode": "641037", "addr:state": "Tamil Nadu", "amenity": "clinic", "building": "yes", "healthcare": "clinic", "name": "NSR Cancer Centre", "source": "Local Knowledge;microsoft/BuildingFootprints"}}, {"type": "way", "id": 1252960262, "nodes": [11646454716, 11646453935, 11646413356, 7844058272, 11646454716], "tags": {"addr:district": "Coimbatore", "addr:full": "Varadharajapuram", "addr:postcode": "641005", "addr:state": "Tamil Nadu", "amenity": "clinic", "building": "yes", "healthcare": "clinic", "name": "Lenin Ortho Clinic", "source": "Local Knowledge;microsoft/BuildingFootprints"}}, {"type": "way", "id": 1252960440, "nodes": [11646429660, 7844058273, 11646459288, 11646456651, 11646454211, 11646458179, 11646429660], "tags": {"addr:district": "Coimbatore", "addr:full": "Singanallur", "addr:postcode": "641005", "addr:state": "Tamil Nadu", "amenity": "hospital", "building": "yes", "healthcare": "hospital", "name": "AB Child Care Hospital", "source": "Local Knowledge;microsoft/BuildingFootprints"}}, {"type": "way", "id": 1252960651, "nodes": [11646439251, 7844058289, 11646449873, 11646455458, 11646450075, 11646455645, 11646455310, 11646448559, 11646439251], "tags": {"addr:district": "Coimbatore", "addr:full": "Varadharajapuram", "addr:postcode": "641005", "addr:state": "Tamil Nadu", "amenity": "clinic", "building": "yes", "healthcare": "clinic", "name": "Jhayakhar Clinic", "source": "Local Knowledge;microsoft/BuildingFootprints"}}, {"type": "way", "id": 1252961263, "nodes": [11646458378, 11646429303, 11646450092, 11646459703, 11646460179, 7844058268, 11646458378], "tags": {"addr:district": "Coimbatore", "addr:full": "Varadharajapuram", "addr:postcode": "641005", "addr:state": "Tamil Nadu", "amenity": "hospital", "building": "yes", "healthcare": "hospital", "name": "Martin Homoeopathy", "source": "Local Knowledge;microsoft/BuildingFootprints"}}, {"type": "way", "id": 1252961373, "nodes": [7844058297, 11646456574, 11646435954, 11646455101, 11646450377, 11646418946, 7844058297], "tags": {"addr:district": "Coimbatore", "addr:postcode": "641005", "addr:state": "Tamil Nadu", "amenity": "clinic", "building": "yes", "healthcare": "clinic", "name": "Happy Kids Clinic", "source": "Local Knowledge;microsoft/BuildingFootprints"}}, {"type": "way", "id": 1252961389, "nodes": [11646439031, 7257183937, 11646436036, 11646449883, 11646439031], "tags": {"addr:block": "Coimbatore Corpn", "addr:district": "Coimbatore", "addr:full": "D.No.136, Near Masakalipalayam Road, Uppilipalayam, Varadharajapuram Main Road", "addr:postcode": "641015", "addr:state": "Tamil Nadu", "addr:subdistrict": "Coimbatore South", "building": "yes", "description": "Urban Primary Health Centre", "healthcare": "centre", "name": "Uppilipalayam UPHC", "source": "OpenGovernmentData;microsoft/BuildingFootprints"}}, {"type": "way", "id": 1311199045, "nodes": [12137230487, 12137230488, 12137230489, 12137230490, 12137230491, 12137230492, 12137230493, 12137230487], "tags": {"amenity": "hospital", "healthcare": "hospital", "name": "Punarnava Ayurveda"}}, {"type": "relation", "id": 2294115, "members": [{"type": "way", "ref": 172004030, "role": "outer"}, {"type": "way", "ref": 172004029, "role": "inner"}], "tags": {"amenity": "hospital", "building": "yes", "healthcare": "hospital", "type": "multipolygon"}}, {"type": "relation", "id": 2295479, "members": [{"type": "way", "ref": 172098636, "role": "outer"}, {"type": "way", "ref": 172098634, "role": "inner"}, {"type": "way", "ref": 172098633, "role": "inner"}, {"type": "way", "ref": 172098635, "role": "inner"}], "tags": {"addr:district": "Coimbatore", "addr:full": "P.B. No. 6327, Nethaji Road, Pappanaickenpalayam, Coimbatore \u2013 641037", "addr:postcode": "641037", "addr:state": "Tamil Nadu", "addr:subdistrict": "Coimbatore North", "alt_name": "GKNM Hospital", "amenity": "hospital", "building": "yes", "emergency": "yes", "healthcare": "hospital", "name": "G. Kuppuswamy Naidu Memorial Hospital", "phone": "04222245000", "source": "OpenGovernmentData", "start_date": "1952", "type": "multipolygon", "website": "https://www.gknmhospital.org/"}}, {"type": "relation", "id": 2295480, "members": [{"type": "way", "ref": 172098632, "role": "outer"}, {"type": "way", "ref": 172098631, "role": "inner"}], "tags": {"amenity": "hospital", "building": "yes", "healthcare": "hospital", "type": "multipolygon"}}, {"type": "relation", "id": 11817364, "members": [{"type": "way", "ref": 865705418, "role": "inner"}, {"type": "way", "ref": 865705420, "role": "inner"}, {"type": "way", "ref": 865705419, "role": "inner"}, {"type": "way", "ref": 48846719, "role": "outer"}], "tags": {"addr:block": "Sarkar Samakulam", "addr:district": "Coimbatore", "addr:full": "Avinashi Road, Civil Aerodrome Post, Sitra, Coimbatore", "addr:postcode": "641014", "addr:state": "Tamil Nadu", "addr:subdistrict": "Coimbatore North", "amenity": "hospital", "building": "yes", "healthcare": "hospital", "name": "Aravind Eye Hospital - Peelamedu, Coimbatore", "name:ta": "\u0b85\u0bb0\u0bb5\u0bbf\u0ba8\u0bcd\u0ba4\u0bcd \u0b95\u0ba3\u0bcd \u0bae\u0bb0\u0bc1\u0ba4\u0bcd\u0ba4\u0bc1\u0bb5\u0bae\u0ba9\u0bc8", "type": "multipolygon"}}]}