{"version": 0.6, "generator": "Overpass API 0.7.62.8 e802775f", "osm3s": {"timestamp_osm_base": "2025-09-29T19:12:01Z", "copyright": "The data included in this document is from www.openstreetmap.org. The data is made available under ODbL."}, "elements": [{"type": "node", "id": 247177690, "lat": 11.0820675, "lon": 76.9412411, "tags": {"addr:postcode": "641034", "addr:street": "Mettupalayam-Coimbatore Road", "amenity": "police", "amenity:ta": "\u0b95\u0bbe\u0bb5\u0bb2\u0bcd \u0ba8\u0bbf\u0bb2\u0bc8\u0baf\u0bae\u0bcd", "name": "Thudiyalur Police Station", "name:ta": "\u0ba4\u0bc1\u0b9f\u0bbf\u0baf\u0bb2\u0bc2\u0bb0\u0bcd \u0b95\u0bbe\u0bb5\u0bb2\u0bcd \u0ba8\u0bbf\u0bb2\u0bc8\u0baf\u0bae\u0bcd", "opening_hours": "24/7"}}, {"type": "node", "id": 330069964, "lat": 11.0106209, "lon": 76.950568, "tags": {"amenity": "post_office", "check_date": "2024-10-24", "name": "Head Post Office"}}, {"type": "node", "id": 803271976, "lat": 10.9952707, "lon": 76.9681824, "tags": {"amenity": "police"}}, {"type": "node", "id": 803272013, "lat": 10.9990022, "lon": 76.9677805, "tags": {"amenity": "police", "name": "District Police Office"}}, {"type": "node", "id": 803684691, "lat": 11.0052257, "lon": 76.9750386, "tags": {"amenity": "post_office"}}, {"type": "node", "id": 942754044, "lat": 11.0391993, "lon": 76.9975014, "tags": {"amenity": "fire_station", "name": "Ganapathy FireStation"}}, {"type": "node", "id": 1051328308, "lat": 10.9890037, "lon": 76.9615341, "tags": {"amenity": "police", "name": "Ukkadam Police Station(B2)"}}, {"type": "node", "id": 1051328318, "lat": 10.9922184, "lon": 76.9614436}, {"type": "node", "id": 1051328340, "lat": 10.9994981, "lon": 76.9635918}, {"type": "node", "id": 1051328341, "lat": 10.9995889, "lon": 76.9639702}, {"type": "node", "id": 1051328344, "lat": 11.0155688, "lon": 76.9683463, "tags": {"amenity": "police", "name": "Womens Police Station", "name:ta": "\u0bae\u0b95\u0bb3\u0bbf\u0bb0\u0bcd \u0b95\u0bbe\u0bb5\u0bb2\u0bcd \u0ba8\u0bbf\u0bb2\u0bc8\u0baf\u0bae\u0bcd"}}, {"type": "node", "id": 1051328358, "lat": 10.9997718, "lon": 76.9633743}, {"type": "node", "id": 1051328360, "lat": 11.0153033, "lon": 76.968307, "tags": {"amenity": "police", "name": "Kattor Police Station", "name:ta": "\u0b95\u0bbe\u0b9f\u0bcd\u0b9f\u0bc2\u0bb0\u0bcd \u0b95\u0bbe\u0bb5\u0bb2\u0bcd \u0ba8\u0bbf\u0bb2\u0bc8\u0baf\u0bae\u0bcd"}}, {"type": "node", "id": 1051328389, "lat": 10.9999916, "lon": 76.9636549}, {"type": "node", "id": 1051328390, "lat": 10.9921974, "lon": 76.9623234}, {"type": "node", "id": 1051328411, "lat": 10.9937167, "lon": 76.9620874}, {"type": "node", "id": 1433437618, "lat": 10.9395041, "lon": 76.9400736}, {"type": "node", "id": 1433437624, "lat": 10.9423377, "lon": 76.9385072}, {"type": "node", "id": 1433437625, "lat": 10.9434543, "lon": 76.9394514}, {"type": "node", "id": 1433437627, "lat": 10.9427696, "lon": 76.9390866}, {"type": "node", "id": 1433437629, "lat": 10.9391038, "lon": 76.9387755}, {"type": "node", "id": 1433437630, "lat": 10.9390827, "lon": 76.9380995}, {"type": "node", "id": 1433437631, "lat": 10.9389774, "lon": 76.9373378}, {"type": "node", "id": 1433437632, "lat": 10.9388931, "lon": 76.9364473}, {"type": "node", "id": 1433437634, "lat": 10.9432014, "lon": 76.9393334}, {"type": "node", "id": 1433437635, "lat": 10.9398886, "lon": 76.9428808}, {"type": "node", "id": 1433437636, "lat": 10.9417478, "lon": 76.937842}, {"type": "node", "id": 1433437637, "lat": 10.9426688, "lon": 76.940827}, {"type": "node", "id": 1433437639, "lat": 10.940115, "lon": 76.9411894}, {"type": "node", "id": 1433437640, "lat": 10.93962, "lon": 76.9402346}, {"type": "node", "id": 1433437641, "lat": 10.9399781, "lon": 76.940417}, {"type": "node", "id": 1433437642, "lat": 10.9416197, "lon": 76.9425703}, {"type": "node", "id": 1433437646, "lat": 10.9401045, "lon": 76.940771}, {"type": "node", "id": 1433437647, "lat": 10.9404205, "lon": 76.9430992}, {"type": "node", "id": 1433437648, "lat": 10.9418376, "lon": 76.9422664}, {"type": "node", "id": 1433437649, "lat": 10.939957, "lon": 76.9420907}, {"type": "node", "id": 1433437651, "lat": 10.9392513, "lon": 76.9395157}, {"type": "node", "id": 1433437653, "lat": 10.9411316, "lon": 76.9428701}, {"type": "node", "id": 1433437654, "lat": 10.9399992, "lon": 76.9431743}, {"type": "node", "id": 1433437655, "lat": 10.9403889, "lon": 76.9361791}, {"type": "node", "id": 1468324428, "lat": 10.9963455, "lon": 76.9966347, "tags": {"amenity": "post_office", "name": "Post office", "ref": "Ramanathapuram"}}, {"type": "node", "id": 1470337788, "lat": 10.9983509, "lon": 76.9830066, "tags": {"amenity": "post_office", "name": "Redfields Post Office"}}, {"type": "node", "id": 1470382998, "lat": 11.0007056, "lon": 76.9683965}, {"type": "node", "id": 1470383009, "lat": 11.0007876, "lon": 76.9679314}, {"type": "node", "id": 1470383012, "lat": 11.0008919, "lon": 76.9683481}, {"type": "node", "id": 1470383033, "lat": 11.0006013, "lon": 76.9679798}, {"type": "node", "id": 1470432055, "lat": 11.001692, "lon": 76.9713177, "tags": {"addr:city": "Gopalapuram", "addr:district": "COIMBATORE", "addr:housenumber": "C2", "addr:postcode": "641018", "addr:street": "Government Arts College Road", "amenity": "police", "mobile": "0422 230 9600", "name": "C2- Race Course Police Station, Coimbatore", "opening_hours": "24/7"}}, {"type": "node", "id": 1471854713, "lat": 11.0266348, "lon": 76.9515967, "tags": {"amenity": "police", "name": "C-3 Saibaba Colony Police Station", "name:ta": "C-3 \u0b9a\u0bbe\u0baf\u0bcd\u0baa\u0bbe\u0baa\u0bbe \u0b95\u0bbe\u0bb2\u0ba9\u0bbf \u0b95\u0bbe\u0bb5\u0bb2\u0bcd \u0ba8\u0bbf\u0bb2\u0bc8\u0baf\u0bae\u0bcd"}}, {"type": "node", "id": 1471977947, "lat": 11.0747709, "lon": 77.0027938}, {"type": "node", "id": 1471977948, "lat": 11.0746626, "lon": 77.0026258}, {"type": "node", "id": 1471977950, "lat": 11.0746367, "lon": 77.0027685}, {"type": "node", "id": 1471977952, "lat": 11.0747846, "lon": 77.0027181}, {"type": "node", "id": 1471977954, "lat": 11.0747967, "lon": 77.0026511}, {"type": "node", "id": 1474350853, "lat": 11.0747296, "lon": 77.0027116, "tags": {"amenity": "police", "name": "Saravanampatti Police Station"}}, {"type": "node", "id": 1474451361, "lat": 10.9950865, "lon": 76.9680799, "tags": {"amenity": "post_office", "ref": "Railway mail service"}}, {"type": "node", "id": 1474518443, "lat": 10.9975827, "lon": 76.997871, "tags": {"amenity": "police", "name": "Ramanathapuram police station"}}, {"type": "node", "id": 1474803271, "lat": 10.9924847, "lon": 76.9591307, "tags": {"amenity": "police", "name": "B1 POLICE STATION"}}, {"type": "node", "id": 1680232798, "lat": 10.988383, "lon": 76.9354528, "tags": {"amenity": "police"}}, {"type": "node", "id": 2017660110, "lat": 11.0008947, "lon": 76.9977564, "tags": {"amenity": "post_office", "designation": "Krishnaswamy Nagar Post Office ", "name": "Krishnaswamy NagarPost Office", "operator": "India Post", "operator:wikidata": "Q3519720", "operator:wikipedia": "en:India Post", "ref": "http://www.indiapost.gov.in/Pin/pinsearch.aspx?Pin_On=641045", "source": "http://www.indiapost.gov.in/Pin/pinsearch.aspx?Pin_On=krishnaswamy nagar"}}, {"type": "node", "id": 3429754962, "lat": 11.0015001, "lon": 77.0459357, "tags": {"amenity": "community_centre"}}, {"type": "node", "id": 3571694093, "lat": 11.0250344, "lon": 76.9715748, "tags": {"amenity": "police", "name": "Rathinapuri Police Station"}}, {"type": "node", "id": 3576273772, "lat": 11.0806351, "lon": 76.9434814, "tags": {"addr:district": "coimbatore", "addr:postcode": "641034", "addr:street": "Railway Station Road", "level": "0", "name": "Kavundampalayam Constituency MLA Office", "name:ta": "\u0b95\u0bb5\u0bc1\u0ba3\u0bcd\u0b9f\u0bae\u0bcd\u0baa\u0bbe\u0bb3\u0bc8\u0baf\u0bae\u0bcd \u0b9a\u0b9f\u0bcd\u0b9f\u0bae\u0ba9\u0bcd\u0bb1 \u0b89\u0bb1\u0bc1\u0baa\u0bcd\u0baa\u0bbf\u0ba9\u0bb0\u0bcd\u0b85\u0bb2\u0bc1\u0bb5\u0bb2\u0b95\u0bae\u0bcd", "office": "government", "office:ta": "\u0ba8\u0bbf\u0bb0\u0bcd\u0bb5\u0bbe\u0b95\u0bae\u0bcd", "opening_hours": "Mo-Sa 10:00-16:00", "wheelchair": "limited"}}, {"type": "node", "id": 3623284505, "lat": 11.0437673, "lon": 77.0459136}, {"type": "node", "id": 3623284506, "lat": 11.0439068, "lon": 77.0461657}, {"type": "node", "id": 3623284507, "lat": 11.0449861, "lon": 77.0457098}, {"type": "node", "id": 3623284508, "lat": 11.0448255, "lon": 77.0454469}, {"type": "node", "id": 3781193206, "lat": 10.9993908, "lon": 76.963681}, {"type": "node", "id": 3781193208, "lat": 10.9994657, "lon": 76.9637967}, {"type": "node", "id": 3834227957, "lat": 11.0413271, "lon": 76.8731197}, {"type": "node", "id": 3834227958, "lat": 11.0412218, "lon": 76.8738492}, {"type": "node", "id": 3834227959, "lat": 11.0404005, "lon": 76.8737634}, {"type": "node", "id": 3834227960, "lat": 11.0405584, "lon": 76.8729909}, {"type": "node", "id": 3935613630, "lat": 11.0748895, "lon": 77.0037457, "tags": {"government": "register_office", "office": "government"}}, {"type": "node", "id": 4036175829, "lat": 11.0813252, "lon": 76.9443642, "tags": {"addr:city": "Thudiyalur", "addr:postcode": "641034", "addr:street": "Pallivasal Street", "amenity": "post_office", "level": "1", "name": "Thudiyalur Post Office", "opening_hours": "Mo-Sa 08:00-17:00,Su off,PH off", "operator": "India Post", "operator:wikidata": "Q3519720"}}, {"type": "node", "id": 4235060189, "lat": 10.9916037, "lon": 76.9602618, "tags": {"addr:housenumber": "103", "addr:postcode": "641001", "addr:street": "N.H.ROAD", "amenity": "community_centre", "email": "ecgwild@gmail.com", "name": "Environment Conservation Group", "website": "https://www.ecgwild.org/"}}, {"type": "node", "id": 4235066090, "lat": 10.9935762, "lon": 76.9611926}, {"type": "node", "id": 4316688218, "lat": 11.0287553, "lon": 76.9042641, "tags": {"amenity": "post_office", "name": "Vadavalli Sub Post Office"}}, {"type": "node", "id": 4316688505, "lat": 11.0110881, "lon": 76.9353566, "tags": {"amenity": "post_office", "name": "Post Office - Lawley Road", "opening_hours": "Mo-Fr 08:30-05:30; Sa 08:30-12:30"}}, {"type": "node", "id": 4329521390, "lat": 11.0063702, "lon": 76.9530855, "tags": {"name": "E-Service Centre", "office": "government"}}, {"type": "node", "id": 4423012490, "lat": 11.0314993, "lon": 77.0195057, "tags": {"addr:postcode": "641014", "amenity": "post_office", "name:en": "Coimbatore Tidel Park"}}, {"type": "node", "id": 4450449989, "lat": 10.9875675, "lon": 76.963933, "tags": {"amenity": "police"}}, {"type": "node", "id": 4450450589, "lat": 10.970308, "lon": 77.0522293, "tags": {"addr:housenumber": "155/3", "addr:postcode": "641016", "addr:street": "Pattanam Road", "amenity": "post_office", "name:en": "vinayaga blue metals,Pattaman, cbe", "phone": "9842443159"}}, {"type": "node", "id": 4522573189, "lat": 11.0129255, "lon": 76.9613941, "tags": {"name:en": "Coimbatore sp office", "office": "government"}}, {"type": "node", "id": 4522573489, "lat": 11.0129251, "lon": 76.9614554, "tags": {"name:en": "Sp office", "office": "government"}}, {"type": "node", "id": 4527618789, "lat": 11.1165806, "lon": 77.0478504, "tags": {"name": "Kallipalayam Panchayat Office", "name:en": "Kallipalayam Panchayat Office", "office": "government"}}, {"type": "node", "id": 4528496193, "lat": 11.116449, "lon": 77.0453291, "tags": {"name": "Kallipalayam Panchayat Office", "name:en": "Kallipalayam Panchayat Office", "name:ta": "\u0b95\u0bb3\u0bcd\u0bb3\u0bbf\u0baa\u0bcd\u0baa\u0bbe\u0bb3\u0bc8\u0baf\u0bae\u0bcd \u0b8a\u0bb0\u0bbe\u0b9f\u0bcd\u0b9a\u0bbf \u0b85\u0bb2\u0bc1\u0bb5\u0bb2\u0b95\u0bae\u0bcd", "office": "government"}}, {"type": "node", "id": 4547522246, "lat": 11.0096321, "lon": 76.9334873}, {"type": "node", "id": 4552539559, "lat": 11.0677439, "lon": 76.9433781}, {"type": "node", "id": 4552539560, "lat": 11.0677905, "lon": 76.9437999}, {"type": "node", "id": 4552539561, "lat": 11.0676184, "lon": 76.9438196}, {"type": "node", "id": 4552539562, "lat": 11.0675719, "lon": 76.9433979}, {"type": "node", "id": 4688109308, "lat": 11.0828655, "lon": 76.9431031, "tags": {"addr:postcode": "641034", "level": "0", "name": "village administrative office", "name:ta": "\u0b95\u0bbf\u0bb0\u0bbe\u0bae \u0ba8\u0bbf\u0bb0\u0bcd\u0bb5\u0bbe\u0b95 \u0b85\u0bb2\u0bc1\u0bb5\u0bb2\u0b95\u0bae\u0bcd", "office": "government", "office:ta": "\u0b85\u0bb0\u0b9a\u0bc1", "opening_hours": "Mo-Sa 10:00-16:00, Sa[2,4] off,Sa[1,3,5] 10:00-13:00,Su off,PH off", "wheelchair": "no"}}, {"type": "node", "id": 4888969201, "lat": 10.9235217, "lon": 76.981474}, {"type": "node", "id": 4888969202, "lat": 10.9237418, "lon": 76.9819456}, {"type": "node", "id": 4888969203, "lat": 10.9234575, "lon": 76.9820811}, {"type": "node", "id": 4888969204, "lat": 10.9232374, "lon": 76.9816141}, {"type": "node", "id": 4888969205, "lat": 10.9229051, "lon": 76.9828952}, {"type": "node", "id": 4888969206, "lat": 10.922928, "lon": 76.9830633}, {"type": "node", "id": 4888969207, "lat": 10.9227996, "lon": 76.983082}, {"type": "node", "id": 4888969208, "lat": 10.9227721, "lon": 76.9829092}, {"type": "node", "id": 4901322322, "lat": 11.0844204, "lon": 76.9418065, "tags": {"addr:postcode": "641022", "amenity": "community_centre", "name": "SS Kamalesh Kalayana Mandabam"}}, {"type": "node", "id": 4903163535, "lat": 10.9678152, "lon": 76.9801337}, {"type": "node", "id": 4903163536, "lat": 10.9676869, "lon": 76.9804792}, {"type": "node", "id": 4903163537, "lat": 10.9674164, "lon": 76.9803391}, {"type": "node", "id": 4903163538, "lat": 10.9675218, "lon": 76.9799982}, {"type": "node", "id": 5071284303, "lat": 11.0057524, "lon": 77.0479241, "tags": {"amenity": "post_office", "opening_hours": "09:00-16:00", "operator": "India Post", "operator:wikidata": "Q3519720", "operator:wikipedia": "en:India Post", "postal_code": "641016"}}, {"type": "node", "id": 5115363509, "lat": 11.0024747, "lon": 76.9721512, "tags": {"government": "municipal corporation", "name": "Municipal Corporation Central Zone Office", "office": "government"}}, {"type": "node", "id": 5115363510, "lat": 11.0088405, "lon": 76.9904465, "tags": {"government": "municipal corporation", "name": "Municipal Corporation Ward Office", "office": "government"}}, {"type": "node", "id": 5343549180, "lat": 10.9929154, "lon": 76.9613147}, {"type": "node", "id": 5343549197, "lat": 10.9922188, "lon": 76.9624299}, {"type": "node", "id": 5343550127, "lat": 10.9923185, "lon": 76.9629273}, {"type": "node", "id": 5343550128, "lat": 10.9938088, "lon": 76.9626027}, {"type": "node", "id": 5640863407, "lat": 11.0076466, "lon": 77.0689258}, {"type": "node", "id": 5640863408, "lat": 11.0076808, "lon": 77.0690679}, {"type": "node", "id": 5640863409, "lat": 11.0074307, "lon": 77.069135}, {"type": "node", "id": 5640863410, "lat": 11.0073965, "lon": 77.0689848}, {"type": "node", "id": 5669866630, "lat": 11.044246, "lon": 76.9483909}, {"type": "node", "id": 5669866631, "lat": 11.044262, "lon": 76.948617}, {"type": "node", "id": 5669866632, "lat": 11.0439438, "lon": 76.9486403}, {"type": "node", "id": 5669866633, "lat": 11.0439278, "lon": 76.9484142}, {"type": "node", "id": 5970940185, "lat": 11.0821749, "lon": 76.9411896, "tags": {"addr:postcode": "641034", "addr:street": "Mettupalayam-Coimbatore Road", "amenity": "police", "name:en": "All women police station", "opening_hours": "24/7"}}, {"type": "node", "id": 5970940285, "lat": 11.0828858, "lon": 76.9431916, "tags": {"addr:postcode": "641034", "level": "0", "name": "Revenue inspector", "office": "government", "office:ta": "\u0b85\u0bb0\u0b9a\u0bc1", "opening_hours": "Mo-Fr 10:00-16:00; Sa[1,3,5] 10:00-13:00; Sa[2,4] off; Su off; PH off", "wheelchair": "no"}}, {"type": "node", "id": 6031231886, "lat": 11.0472897, "lon": 77.0367818}, {"type": "node", "id": 6031231887, "lat": 11.046943, "lon": 77.0367709}, {"type": "node", "id": 6031231889, "lat": 11.047703, "lon": 77.0355962}, {"type": "node", "id": 6031231890, "lat": 11.0477241, "lon": 77.0358376}, {"type": "node", "id": 6031231891, "lat": 11.0473081, "lon": 77.0358645}, {"type": "node", "id": 6031231892, "lat": 11.0473081, "lon": 77.0356177}, {"type": "node", "id": 6194292573, "lat": 11.0213539, "lon": 76.9800281, "tags": {"addr:city": "Sidhapudur Branch, Coimbatore", "addr:postcode": "641044", "addr:street": "NAVA India Road", "amenity": "post_office", "name": "India Post", "operator": "India Post", "operator:wikidata": "Q3519720", "operator:wikipedia": "en:India Post"}}, {"type": "node", "id": 6194300297, "lat": 11.0092151, "lon": 76.9748828}, {"type": "node", "id": 6194300298, "lat": 11.0094369, "lon": 76.9748849}, {"type": "node", "id": 6194300299, "lat": 11.0094498, "lon": 76.9754054}, {"type": "node", "id": 6194300300, "lat": 11.0092149, "lon": 76.9754078}, {"type": "node", "id": 6367693785, "lat": 11.023851, "lon": 77.017066, "tags": {"name:en": "Water Tank", "office": "government"}}, {"type": "node", "id": 6392116834, "lat": 11.028456, "lon": 76.9022975, "tags": {"government": "healthcare", "name": "coimbatore corporation west zone office", "office": "government"}}, {"type": "node", "id": 6422264946, "lat": 11.0452072, "lon": 76.8948196}, {"type": "node", "id": 6422264947, "lat": 11.0454196, "lon": 76.8948921}, {"type": "node", "id": 6422264948, "lat": 11.0451554, "lon": 76.8949417}, {"type": "node", "id": 6422264949, "lat": 11.0452846, "lon": 76.8950161}, {"type": "node", "id": 6422264950, "lat": 11.0453159, "lon": 76.8947859}, {"type": "node", "id": 6422264951, "lat": 11.045379, "lon": 76.8950244}, {"type": "node", "id": 6815119321, "lat": 11.0603278, "lon": 76.944047, "tags": {"addr:place": "GN Mills", "addr:street": "Coimbatore-Mettupalayam Road", "amenity": "community_centre", "name": "B.M.N Kalyana mandapam", "name:ta": "\u0baa\u0bbf \u0b8e\u0bae\u0bcd \u0b8e\u0ba9\u0bcd \u0b95\u0bb2\u0bcd\u0baf\u0bbe\u0ba3 \u0bae\u0ba3\u0bcd\u0b9f\u0baa\u0bae\u0bcd"}}, {"type": "node", "id": 7017208189, "lat": 11.1020678, "lon": 77.0215866}, {"type": "node", "id": 7017208190, "lat": 11.1027523, "lon": 77.0217733}, {"type": "node", "id": 7017208191, "lat": 11.1028294, "lon": 77.0212084}, {"type": "node", "id": 7017208192, "lat": 11.1021932, "lon": 77.0211102}, {"type": "node", "id": 7017208193, "lat": 11.1029258, "lon": 77.0218371}, {"type": "node", "id": 7017208194, "lat": 11.1035813, "lon": 77.0219403}, {"type": "node", "id": 7017208195, "lat": 11.1036632, "lon": 77.0212232}, {"type": "node", "id": 7017208196, "lat": 11.1030318, "lon": 77.0211151}, {"type": "node", "id": 7083534505, "lat": 10.978191, "lon": 76.9189706, "tags": {"government": "administrative", "name": "Perur Taluk Office", "name:ta": "\u0baa\u0bc7\u0bb0\u0bc2\u0bb0\u0bcd \u0bb5\u0b9f\u0bcd\u0b9f\u0bbe\u0b9f\u0bcd\u0b9a\u0bbf\u0baf\u0bb0\u0bcd \u0b85\u0bb2\u0bc1\u0bb5\u0bb2\u0b95\u0bae\u0bcd", "office": "government", "office:ta": "\u0ba8\u0bbf\u0bb0\u0bcd\u0bb5\u0bbe\u0b95\u0bae\u0bcd"}}, {"type": "node", "id": 7343511797, "lat": 11.0210915, "lon": 76.9386717}, {"type": "node", "id": 7343511798, "lat": 11.0209438, "lon": 76.938694}, {"type": "node", "id": 7343511799, "lat": 11.0209179, "lon": 76.9384948}, {"type": "node", "id": 7343511800, "lat": 11.0210576, "lon": 76.9384806}, {"type": "node", "id": 8069280781, "lat": 11.0340057, "lon": 77.0342291}, {"type": "node", "id": 8156850918, "lat": 11.0245239, "lon": 76.9010261, "tags": {"name:en": "Health and Wellness Centre", "office": "government"}}, {"type": "node", "id": 8228225718, "lat": 11.01482, "lon": 76.9551968}, {"type": "node", "id": 8259703717, "lat": 11.0285796, "lon": 76.9968496, "tags": {"amenity": "post_office", "name:en": "India Post", "operator": "India Post", "operator:wikidata": "Q3519720"}}, {"type": "node", "id": 8422233217, "lat": 11.0002713, "lon": 77.0335085}, {"type": "node", "id": 8509817945, "lat": 11.0858493, "lon": 76.9166819, "tags": {"addr:city": "Coimbatore", "addr:country": "IN", "addr:district": "Coimbatore", "addr:place": "panneermadai", "amenity": "post_office", "level": "0", "name": "pannimadai postoffice", "name:ta": "\u0baa\u0ba9\u0bcd\u0ba9\u0bbf\u0bae\u0b9f\u0bc8 \u0ba4\u0baa\u0bbe\u0bb2\u0bcd\u0ba8\u0bbf\u0bb2\u0bc8\u0baf\u0bae\u0bcd", "wheelchair": "no"}}, {"type": "node", "id": 8509817946, "lat": 11.0862072, "lon": 76.916288}, {"type": "node", "id": 8572811245, "lat": 11.0267045, "lon": 76.9515078}, {"type": "node", "id": 8572811246, "lat": 11.0266979, "lon": 76.9518297}, {"type": "node", "id": 8572811247, "lat": 11.0265827, "lon": 76.9518302}, {"type": "node", "id": 8572811248, "lat": 11.0265899, "lon": 76.9515069}, {"type": "node", "id": 8572811249, "lat": 11.0266385, "lon": 76.9515069}, {"type": "node", "id": 8572811250, "lat": 11.0266403, "lon": 76.9514795}, {"type": "node", "id": 8572811251, "lat": 11.0266594, "lon": 76.9514786}, {"type": "node", "id": 8572811252, "lat": 11.0266602, "lon": 76.9515051}, {"type": "node", "id": 8572889899, "lat": 11.0197292, "lon": 76.9570479}, {"type": "node", "id": 8572889900, "lat": 11.0197292, "lon": 76.9571967}, {"type": "node", "id": 8572889901, "lat": 11.0193817, "lon": 76.9572021}, {"type": "node", "id": 8572889902, "lat": 11.0193869, "lon": 76.9573872}, {"type": "node", "id": 8572889903, "lat": 11.0196528, "lon": 76.9573858}, {"type": "node", "id": 8572889904, "lat": 11.0196523, "lon": 76.9575432}, {"type": "node", "id": 8572889905, "lat": 11.0193909, "lon": 76.9575441}, {"type": "node", "id": 8572889906, "lat": 11.0193909, "lon": 76.9577466}, {"type": "node", "id": 8572889907, "lat": 11.0197489, "lon": 76.9577453}, {"type": "node", "id": 8572889908, "lat": 11.0197476, "lon": 76.9579008}, {"type": "node", "id": 8572889909, "lat": 11.019308, "lon": 76.9579035}, {"type": "node", "id": 8572889910, "lat": 11.0193132, "lon": 76.9578445}, {"type": "node", "id": 8572889911, "lat": 11.0192974, "lon": 76.9578472}, {"type": "node", "id": 8572889912, "lat": 11.0192961, "lon": 76.9577868}, {"type": "node", "id": 8572889913, "lat": 11.0193106, "lon": 76.9577868}, {"type": "node", "id": 8572889914, "lat": 11.019308, "lon": 76.9575548}, {"type": "node", "id": 8572889915, "lat": 11.0192224, "lon": 76.9575562}, {"type": "node", "id": 8572889916, "lat": 11.0192184, "lon": 76.9574408}, {"type": "node", "id": 8572898517, "lat": 11.0192948, "lon": 76.9574381}, {"type": "node", "id": 8572898518, "lat": 11.0192922, "lon": 76.9571793}, {"type": "node", "id": 8572898519, "lat": 11.0192737, "lon": 76.9571793}, {"type": "node", "id": 8572898520, "lat": 11.0192737, "lon": 76.9571149}, {"type": "node", "id": 8572898521, "lat": 11.0193119, "lon": 76.9571136}, {"type": "node", "id": 8572898522, "lat": 11.0193132, "lon": 76.9570519}, {"type": "node", "id": 8572898523, "lat": 11.0197386, "lon": 76.9572435}, {"type": "node", "id": 8572898524, "lat": 11.0197395, "lon": 76.9573709}, {"type": "node", "id": 8572898525, "lat": 11.0194043, "lon": 76.9573736}, {"type": "node", "id": 8572898526, "lat": 11.0194025, "lon": 76.9572435}, {"type": "node", "id": 8572898527, "lat": 11.0194347, "lon": 76.9575877}, {"type": "node", "id": 8572898528, "lat": 11.0194321, "lon": 76.957716}, {"type": "node", "id": 8572898529, "lat": 11.0196996, "lon": 76.957723}, {"type": "node", "id": 8572898530, "lat": 11.0197039, "lon": 76.9575939}, {"type": "node", "id": 8572898548, "lat": 11.0198958, "lon": 76.9579631}, {"type": "node", "id": 8572898549, "lat": 11.0196886, "lon": 76.9581818}, {"type": "node", "id": 8572898550, "lat": 11.0197688, "lon": 76.9582589}, {"type": "node", "id": 8572898551, "lat": 11.0199714, "lon": 76.9580416}, {"type": "node", "id": 8572898552, "lat": 11.0193106, "lon": 76.9581217}, {"type": "node", "id": 8572898553, "lat": 11.0192531, "lon": 76.9581664}, {"type": "node", "id": 8572898554, "lat": 11.0193484, "lon": 76.9582881}, {"type": "node", "id": 8572898555, "lat": 11.0194043, "lon": 76.9582434}, {"type": "node", "id": 8572898556, "lat": 11.0195604, "lon": 76.9582038}, {"type": "node", "id": 8572898557, "lat": 11.0195613, "lon": 76.9582702}, {"type": "node", "id": 8572898558, "lat": 11.0194223, "lon": 76.958279}, {"type": "node", "id": 8572898559, "lat": 11.0194215, "lon": 76.9582091}, {"type": "node", "id": 8572898560, "lat": 11.019642, "lon": 76.9582047}, {"type": "node", "id": 8572898561, "lat": 11.0194779, "lon": 76.9583816}, {"type": "node", "id": 8572898562, "lat": 11.0195378, "lon": 76.9584489}, {"type": "node", "id": 8572898563, "lat": 11.0197081, "lon": 76.9582657}, {"type": "node", "id": 9160367010, "lat": 10.9520046, "lon": 76.9530463, "tags": {"office": "government"}}, {"type": "node", "id": 9376861745, "lat": 11.0344618, "lon": 77.0431018}, {"type": "node", "id": 9376861746, "lat": 11.0343291, "lon": 77.0432339}, {"type": "node", "id": 9376861747, "lat": 11.0338838, "lon": 77.0427696}, {"type": "node", "id": 9376861748, "lat": 11.0340163, "lon": 77.0426376}, {"type": "node", "id": 10292742343, "lat": 11.0405779, "lon": 76.878676, "tags": {"amenity": "post_office", "name": "India Post", "operator": "India Post", "operator:wikidata": "Q3519720"}}, {"type": "node", "id": 10692516385, "lat": 11.0004067, "lon": 77.029565}, {"type": "node", "id": 10692516386, "lat": 11.0004673, "lon": 77.0295599}, {"type": "node", "id": 10692516387, "lat": 11.0004855, "lon": 77.0297858}, {"type": "node", "id": 10692516388, "lat": 11.0004405, "lon": 77.0297895}, {"type": "node", "id": 10692516389, "lat": 11.0004439, "lon": 77.0298318}, {"type": "node", "id": 10692516390, "lat": 11.0003622, "lon": 77.0298387}, {"type": "node", "id": 10692516391, "lat": 11.0003582, "lon": 77.0297892}, {"type": "node", "id": 10692516392, "lat": 11.0003314, "lon": 77.0297915}, {"type": "node", "id": 10692516393, "lat": 11.0003137, "lon": 77.0295731}, {"type": "node", "id": 10692516394, "lat": 11.0003633, "lon": 77.0295689}, {"type": "node", "id": 10692516395, "lat": 11.0003612, "lon": 77.0295432}, {"type": "node", "id": 10692516396, "lat": 11.0004047, "lon": 77.0295396}, {"type": "node", "id": 10692516397, "lat": 11.0001741, "lon": 77.0295475}, {"type": "node", "id": 10692516398, "lat": 11.0002149, "lon": 77.0296793}, {"type": "node", "id": 10692516399, "lat": 11.0001447, "lon": 77.0297019}, {"type": "node", "id": 10692516400, "lat": 11.0001039, "lon": 77.02957}, {"type": "node", "id": 10692516401, "lat": 11.0000554, "lon": 77.0296026}, {"type": "node", "id": 10692516402, "lat": 11.0000963, "lon": 77.0297345}, {"type": "node", "id": 10692516403, "lat": 11.0000261, "lon": 77.0297571}, {"type": "node", "id": 10692516404, "lat": 10.9999852, "lon": 77.0296252}, {"type": "node", "id": 10692516405, "lat": 10.9999306, "lon": 77.0296336}, {"type": "node", "id": 10692516406, "lat": 10.9999715, "lon": 77.0297655}, {"type": "node", "id": 10692516407, "lat": 10.9999012, "lon": 77.0297881}, {"type": "node", "id": 10692516408, "lat": 10.9998604, "lon": 77.0296562}, {"type": "node", "id": 10692516409, "lat": 11.0001929, "lon": 77.029785}, {"type": "node", "id": 10692516410, "lat": 11.0001563, "lon": 77.0298069}, {"type": "node", "id": 10692516411, "lat": 11.0001463, "lon": 77.0297895}, {"type": "node", "id": 10692516412, "lat": 11.0001008, "lon": 77.0298167}, {"type": "node", "id": 10692516413, "lat": 11.0001098, "lon": 77.0298323}, {"type": "node", "id": 10692516414, "lat": 11.0000729, "lon": 77.0298544}, {"type": "node", "id": 10692516415, "lat": 11.0001006, "lon": 77.0299026}, {"type": "node", "id": 10692516416, "lat": 11.0002196, "lon": 77.0298314}, {"type": "node", "id": 11425460411, "lat": 11.0096308, "lon": 76.9324545}, {"type": "node", "id": 11425460412, "lat": 11.0105825, "lon": 76.9324713}, {"type": "node", "id": 11425460413, "lat": 11.0105751, "lon": 76.9334931}, {"type": "node", "id": 11449896932, "lat": 11.0469547, "lon": 77.0363393}, {"type": "node", "id": 11449896933, "lat": 11.0470271, "lon": 77.0363434}, {"type": "node", "id": 11449896934, "lat": 11.0470258, "lon": 77.0362522}, {"type": "node", "id": 11449896935, "lat": 11.0472482, "lon": 77.0362683}, {"type": "node", "id": 11449896936, "lat": 11.0472509, "lon": 77.0363487}, {"type": "node", "id": 11449896937, "lat": 11.0473106, "lon": 77.0363519}, {"type": "node", "id": 11486244251, "lat": 11.0148997, "lon": 76.955341}, {"type": "node", "id": 11486244337, "lat": 11.0146802, "lon": 76.9552201}, {"type": "node", "id": 11486245031, "lat": 11.0148308, "lon": 76.9553003}, {"type": "node", "id": 11486245635, "lat": 11.0149533, "lon": 76.9549124}, {"type": "node", "id": 11486245783, "lat": 11.0146514, "lon": 76.9549453}, {"type": "node", "id": 11486246435, "lat": 11.0147884, "lon": 76.9552083}, {"type": "node", "id": 11486246979, "lat": 11.0147875, "lon": 76.9552004}, {"type": "node", "id": 11486271285, "lat": 11.0148947, "lon": 76.9552933}, {"type": "node", "id": 11486271413, "lat": 11.0149972, "lon": 76.9553304}, {"type": "node", "id": 11492255102, "lat": 11.0411952, "lon": 77.0061708}, {"type": "node", "id": 11492255811, "lat": 11.0413626, "lon": 77.0062365}, {"type": "node", "id": 11492257221, "lat": 11.0411968, "lon": 77.0062405}, {"type": "node", "id": 11492257459, "lat": 11.041361, "lon": 77.0061668}, {"type": "node", "id": 11582373140, "lat": 11.0863276, "lon": 76.9162279}, {"type": "node", "id": 11582393179, "lat": 11.0863255, "lon": 76.9162922}, {"type": "node", "id": 11582394571, "lat": 11.0862093, "lon": 76.9162237}, {"type": "node", "id": 11649916268, "lat": 11.0004626, "lon": 77.0340375}, {"type": "node", "id": 11649922047, "lat": 11.0004732, "lon": 77.0339766}, {"type": "node", "id": 11649924074, "lat": 11.0004681, "lon": 77.0337334}, {"type": "node", "id": 11649924084, "lat": 11.0004987, "lon": 77.033972}, {"type": "node", "id": 11649924101, "lat": 11.000449, "lon": 77.0336229}, {"type": "node", "id": 11649924177, "lat": 11.0004732, "lon": 77.0337325}, {"type": "node", "id": 11649924191, "lat": 11.0003655, "lon": 77.0340549}, {"type": "node", "id": 11649924245, "lat": 11.0005256, "lon": 77.0336091}, {"type": "node", "id": 11649924309, "lat": 11.0004839, "lon": 77.0338862}, {"type": "node", "id": 11649924401, "lat": 11.0004687, "lon": 77.0339506}, {"type": "node", "id": 11649924516, "lat": 11.0005012, "lon": 77.0334673}, {"type": "node", "id": 11649924522, "lat": 11.0004992, "lon": 77.0338834}, {"type": "node", "id": 11649924527, "lat": 11.0004482, "lon": 77.0339543}, {"type": "node", "id": 11982827894, "lat": 11.0774843, "lon": 77.0632805, "tags": {"addr:city": "Coimbatore", "addr:district": "Coimbatore District", "addr:postcode": "641062", "amenity": "post_office", "name": "Mylampatti", "name:ta": "\u0bae\u0baf\u0bbf\u0bb2\u0bae\u0bcd\u0baa\u0b9f\u0bcd\u0b9f\u0bbf", "operator": "India Post", "operator:wikidata": "Q3519720"}}, {"type": "node", "id": 11982950352, "lat": 11.0760095, "lon": 77.0316705, "tags": {"addr:city": "Coimbatore", "addr:district": "Coimbatore District", "addr:postcode": "641048", "addr:street": "Saravanampatty - Thennampalayam Road", "amenity": "post_office", "name": "Kalapatti", "name:ta": "\u0b95\u0bbe\u0bb3\u0baa\u0bcd\u0baa\u0b9f\u0bcd\u0b9f\u0bbf", "operator": "India Post", "operator:wikidata": "Q3519720", "phone": "+91-0422-2966430"}}, {"type": "node", "id": 11982950353, "lat": 11.0559942, "lon": 77.0637831, "tags": {"addr:city": "Coimbatore", "addr:district": "Coimbatore", "addr:postcode": "641062", "amenity": "post_office", "name": "Sinniampalayam", "name:ta": "\u0b9a\u0bbf\u0ba9\u0bcd\u0ba9\u0bbf\u0baf\u0bae\u0bcd\u0baa\u0bbe\u0bb3\u0bc8\u0baf\u0bae\u0bcd", "operator": "India Post", "operator:wikidata": "Q3519720", "phone": "+91-0422-2627010"}}, {"type": "node", "id": 12409191909, "lat": 11.1245996, "lon": 77.0225486, "tags": {"amenity": "community_centre", "club": "social", "community_centre": "club_home", "name": "Greenfield club house", "operator": "Green field resident association", "operator:type": "community"}}, {"type": "node", "id": 12473835683, "lat": 11.0253639, "lon": 77.0101634, "tags": {"addr:city": "Coimbatore", "addr:district": "Coimbatore", "addr:housenumber": "274", "addr:postcode": "641004", "addr:street": "Avinashi Road", "amenity": "police", "name": "Peelamedu E2 Police Station", "opening_hours": "24/7", "website": "http://www.tnpolice.gov.in/"}}, {"type": "node", "id": 12473896167, "lat": 10.9677575, "lon": 76.9781012, "tags": {"addr:city": "Podanur", "addr:district": "Coimbatore", "addr:housenumber": "XX8P+85M", "addr:postcode": "641023", "addr:street": "Podanur Main Rd, Kadaiveethi, Amman Nagar", "amenity": "police", "mobile": "0422 241 0925", "name": "Podanur Police Station", "opening_hours": "24/7"}}, {"type": "node", "id": 12473897891, "lat": 11.0028259, "lon": 76.9916717, "tags": {"addr:city": "Puliakulam", "addr:district": "Coimbatore", "addr:housenumber": "245", "addr:postcode": "641045", "addr:street": "Puliakulam Rd, Ramasamy Nagar,", "amenity": "police", "name": "Ramanathapuram Police Station", "opening_hours": "24/7"}}, {"type": "node", "id": 12473901192, "lat": 11.0145917, "lon": 76.968262, "tags": {"addr:city": "Gandhipuram", "addr:district": "Coimbatore", "addr:housenumber": "2X89+279", "addr:postcode": "641044", "addr:street": "Sathy Rd, ATT Colony, Gopalapuram", "amenity": "police", "mobile": "0422 230 2005", "name": "C1 Katoor Police Station", "opening_hours": "24/7"}}, {"type": "node", "id": 12473949936, "lat": 11.0025957, "lon": 77.0288423, "tags": {"addr:city": "Singanallur", "addr:district": "Coimbatore", "addr:postcode": "641005", "addr:street": "Bus Stand", "amenity": "police", "name": "Out Post Police Station - Singanallur"}}, {"type": "node", "id": 12473970775, "lat": 11.0252974, "lon": 76.9689359, "tags": {"addr:city": "Ganapathy", "addr:district": "Coimbatore", "addr:housenumber": "2XG9+3JX", "addr:postcode": "641006", "addr:street": "P.M.Swamy Colony, Tatabad, PM Samy Colony, Rathinapuri", "amenity": "police", "mobile": "0422 252 0300", "name": "Rathinapuri B-15 Police Station", "opening_hours": "24/7"}}, {"type": "node", "id": 12473983454, "lat": 11.0819434, "lon": 76.9412392, "tags": {"addr:city": "Thudiyalur", "addr:district": "Coimbatore", "addr:housenumber": "3WJR+QGX", "addr:postcode": "641022", "addr:street": "Nagapattinam , Gundlupet Hwy, TNP Nagar,Kurudampalayam", "amenity": "police", "mobile": "0422 264 2990", "name": "Thudiyalur Police Station", "opening_hours": "24/7"}}, {"type": "node", "id": 12830024793, "lat": 10.99835, "lon": 76.9681745}, {"type": "node", "id": 12830024794, "lat": 10.9984013, "lon": 76.9688837}, {"type": "node", "id": 12830024795, "lat": 10.9975544, "lon": 76.9688739}, {"type": "node", "id": 12830024796, "lat": 10.9975095, "lon": 76.9681402}, {"type": "node", "id": 13001849060, "lat": 11.0053262, "lon": 76.9500311, "tags": {"amenity": "police", "contact:mobile": "+919498101161", "name": "B-2 R.S.Puram police station", "phone": "+914222476869"}}, {"type": "node", "id": 13136307812, "lat": 11.0341821, "lon": 77.0342271}, {"type": "node", "id": 13136307853, "lat": 11.0339676, "lon": 77.0341151}, {"type": "node", "id": 13136307854, "lat": 11.0341505, "lon": 77.0339984}, {"type": "node", "id": 13136307855, "lat": 11.0341861, "lon": 77.0339562}, {"type": "node", "id": 13136307856, "lat": 11.0342539, "lon": 77.0340206}, {"type": "node", "id": 13136307857, "lat": 11.0342269, "lon": 77.0340548}, {"type": "node", "id": 13136307858, "lat": 11.0340196, "lon": 77.0339844}, {"type": "node", "id": 13136307859, "lat": 11.0342452, "lon": 77.0342439}, {"type": "node", "id": 13136307860, "lat": 11.0339679, "lon": 77.0339869}, {"type": "node", "id": 13140981938, "lat": 11.0342203, "lon": 77.0342445}, {"type": "node", "id": 13140981939, "lat": 11.0342197, "lon": 77.0341969}, {"type": "node", "id": 13140981940, "lat": 11.0341822, "lon": 77.0341969}, {"type": "node", "id": 13140981941, "lat": 11.0340045, "lon": 77.0341144}, {"type": "node", "id": 13140981942, "lat": 11.0342434, "lon": 77.0340702}, {"type": "node", "id": 13140981943, "lat": 11.03414, "lon": 77.0339837}, {"type": "way", "id": 90591315, "nodes": [4235066090, 5343549180, 1051328318, 1051328390, 1051328411, 4235066090], "tags": {"addr:postcode": "641001", "alt_name": "Victoria Townhall", "amenity": "townhall", "landuse": "commercial", "name": "Coimbatore City Municipal Corporation", "office": "government", "website": "https://www.ccmc.gov.in/", "wikidata": "Q4045640"}}, {"type": "way", "id": 90591317, "nodes": [1051328389, 1051328341, 3781193208, 3781193206, 1051328340, 1051328358, 1051328389], "tags": {"amenity": "post_office", "name": "Coimbatore Head Post Office", "operator": "Department of Post"}}, {"type": "way", "id": 130035512, "nodes": [1433437654, 1433437635, 1433437649, 1433437639, 1433437646, 1433437641, 1433437640, 1433437618, 1433437651, 1433437629, 1433437630, 1433437631, 1433437632, 1433437655, 1433437636, 1433437624, 1433437627, 1433437634, 1433437625, 1433437637, 1433437648, 1433437642, 1433437653, 1433437647, 1433437654], "tags": {"amenity": "police", "name": "Police training camp 4th battalion in coimbatore"}}, {"type": "way", "id": 133585587, "nodes": [1470383009, 1470383012, 1470382998, 1470383033, 1470383009], "tags": {"addr:city": "Gopalapuram", "addr:district": "Coimbatore", "addr:housenumber": "62", "addr:postcode": "641018", "addr:street": "Old Post Office Rd, Near Railway Station, Opp. Collector Office", "amenity": "police", "building": "yes", "name": "Commisioner Office", "opening_hours": "24/7"}}, {"type": "way", "id": 133739505, "nodes": [1471977948, 1471977954, 1471977952, 1471977947, 1471977950, 1471977948], "tags": {"Jurisdiction Area": "Saravanampatty, Coimbatore-641035", "amenity": "police", "name": "B9 Saravanampatty Police Station", "phone": "0422 \u2013 2666445"}}, {"type": "way", "id": 356928304, "nodes": [3623284505, 3623284506, 3623284507, 3623284508, 3623284505], "tags": {"amenity": "community_centre", "landuse": "commercial", "name": "Ramlaskhmi Mahal"}}, {"type": "way", "id": 380074538, "nodes": [3834227957, 3834227958, 3834227959, 3834227960, 3834227957], "tags": {"amenity": "post_office", "building": "yes"}}, {"type": "way", "id": 459396536, "nodes": [4552539559, 4552539560, 4552539561, 4552539562, 4552539559], "tags": {"addr:city": "Coimbatore", "addr:postcode": "641034", "addr:street": "Mettupalayam-Coimbatore Road", "amenity": "community_centre", "building": "yes", "name": "Sree Lakshmi Narayana Mahal"}}, {"type": "way", "id": 497316914, "nodes": [4888969201, 4888969202, 4888969203, 4888969204, 4888969201], "tags": {"amenity": "community_centre", "building": "yes", "name": "Lakshmi Kalyanamandapam"}}, {"type": "way", "id": 497316915, "nodes": [4888969205, 4888969206, 4888969207, 4888969208, 4888969205], "tags": {"amenity": "post_office", "building": "yes", "name": "Eachanari Post Office"}}, {"type": "way", "id": 498985098, "nodes": [4903163535, 4903163536, 4903163537, 4903163538, 4903163535], "tags": {"amenity": "community_centre", "building": "yes", "name": "Lakshmi Kalyanamandapam"}}, {"type": "way", "id": 553610294, "nodes": [1051328411, 5343550128, 5343550127, 5343549197, 1051328390, 1051328411], "tags": {"landuse": "commercial", "name": "PWD Complex", "office": "government"}}, {"type": "way", "id": 590898366, "nodes": [5640863407, 5640863408, 5640863409, 5640863410, 5640863407], "tags": {"amenity": "community_centre", "building": "yes", "name": "Krishna Priya Mahal"}}, {"type": "way", "id": 594656061, "nodes": [5669866630, 5669866631, 5669866632, 5669866633, 5669866630], "tags": {"amenity": "fire_station", "building": "yes", "name": "Tamilnadu fire and rescue services", "name:ta": "\u0ba4\u0bae\u0bbf\u0bb4\u0bcd\u0ba8\u0bbe\u0b9f\u0bc1 \u0ba4\u0bc0\u0baf\u0ba3\u0bc8\u0baa\u0bcd\u0baa\u0bc1 \u0bae\u0bb1\u0bcd\u0bb1\u0bc1\u0bae\u0bcd \u0bae\u0bc0\u0b9f\u0bcd\u0baa\u0bc1\u0baa\u0bcd\u0baa\u0ba3\u0bbf\u0b95\u0bb3\u0bcd \u0ba8\u0bbf\u0bb2\u0bc8\u0baf\u0bae\u0bcd"}}, {"type": "way", "id": 640201445, "nodes": [6031231886, 6031231887, 11449896932, 11449896933, 11449896934, 11449896935, 11449896936, 11449896937, 6031231886], "tags": {"amenity": "community_centre", "building": "yes", "name": "Suguna Auditorium"}}, {"type": "way", "id": 640201446, "nodes": [6031231889, 6031231890, 6031231891, 6031231892, 6031231889], "tags": {"amenity": "community_centre", "building": "yes", "name": "Suguna Marriage Hall"}}, {"type": "way", "id": 661656063, "nodes": [6194300297, 6194300298, 6194300299, 6194300300, 6194300297], "tags": {"addr:city": "Coimbatore", "building": "yes", "government": "administrative", "name": "Regional Transport Office (Central)", "office": "government"}}, {"type": "way", "id": 685342422, "nodes": [6422264948, 6422264946, 6422264950, 6422264947, 6422264951, 6422264949, 6422264948], "tags": {"amenity": "police", "name": "vadavalli police station", "name:ta": "\u0bb5\u0b9f\u0bb5\u0bb3\u0bcd\u0bb3\u0bbf \u0b95\u0bbe\u0bb5\u0bb2\u0bcd \u0ba8\u0bbf\u0bb2\u0bc8\u0baf\u0bae\u0bcd", "opening_hours": "24/7"}}, {"type": "way", "id": 750474567, "nodes": [7017208189, 7017208190, 7017208191, 7017208192, 7017208189], "tags": {"amenity": "community_centre", "name": "Mullai Hall", "name:ta": "\u0bae\u0bc1\u0bb2\u0bcd\u0bb2\u0bc8 \u0bb9\u0bbe\u0bb2\u0bcd"}}, {"type": "way", "id": 750474568, "nodes": [7017208193, 7017208194, 7017208195, 7017208196, 7017208193], "tags": {"amenity": "community_centre", "name": "Kurinji Hall"}}, {"type": "way", "id": 785634529, "nodes": [7343511797, 7343511798, 7343511799, 7343511800, 7343511797], "tags": {"addr:city": "Coimbatore", "addr:postcode": "641011", "addr:street": "Bharthi Park 8th Cross", "amenity": "community_centre", "building": "yes", "name": "Vidhya Bharathi Hall", "name:ta": "\u0bb5\u0bbf\u0ba4\u0bcd\u0baf\u0bbe \u0baa\u0bbe\u0bb0\u0ba4\u0bbf \u0bb9\u0bbe\u0bb2\u0bcd"}}, {"type": "way", "id": 923519789, "nodes": [8572811245, 8572811246, 8572811247, 8572811248, 8572811249, 8572811250, 8572811251, 8572811252, 8572811245], "tags": {"amenity": "police", "building": "yes"}}, {"type": "way", "id": 923529431, "nodes": [8572889899, 8572889900, 8572889901, 8572889902, 8572889903, 8572889904, 8572889905, 8572889906, 8572889907, 8572889908, 8572889909, 8572889910, 8572889911, 8572889912, 8572889913, 8572889914, 8572889915, 8572889916, 8572898517, 8572898518, 8572898519, 8572898520, 8572898521, 8572898522, 8572889899], "tags": {"building": "yes", "office": "government"}}, {"type": "way", "id": 923529432, "nodes": [8572898523, 8572898524, 8572898525, 8572898526, 8572898523], "tags": {"building": "yes", "office": "government"}}, {"type": "way", "id": 923529433, "nodes": [8572898527, 8572898528, 8572898529, 8572898530, 8572898527], "tags": {"building": "yes", "office": "government"}}, {"type": "way", "id": 923529438, "nodes": [8572898548, 8572898549, 8572898550, 8572898551, 8572898548], "tags": {"building": "yes", "office": "government"}}, {"type": "way", "id": 923529439, "nodes": [8572898552, 8572898553, 8572898554, 8572898555, 8572898552], "tags": {"building": "yes", "office": "government"}}, {"type": "way", "id": 923529440, "nodes": [8572898556, 8572898557, 8572898558, 8572898559, 8572898556], "tags": {"building": "yes", "office": "government"}}, {"type": "way", "id": 923529441, "nodes": [8572898560, 8572898561, 8572898562, 8572898563, 8572898560], "tags": {"building": "yes", "office": "government"}}, {"type": "way", "id": 1016623992, "nodes": [9376861745, 9376861746, 9376861747, 9376861748, 9376861745], "tags": {"amenity": "fire_station", "building": "yes"}}, {"type": "way", "id": 1149353353, "nodes": [10692516385, 10692516386, 10692516387, 10692516388, 10692516389, 10692516390, 10692516391, 10692516392, 10692516393, 10692516394, 10692516395, 10692516396, 10692516385], "tags": {"addr:city": "Singanallur", "addr:district": "Coimbatore", "addr:housenumber": "222H+6V7", "addr:postcode": "641005", "addr:street": "Agraharam,", "amenity": "police", "building": "yes", "name": "E1 Singanallur Police Station", "opening_hours": "24/7", "website": "http://www.tnpolice.gov.in/"}}, {"type": "way", "id": 1149353354, "nodes": [10692516397, 10692516398, 10692516399, 10692516400, 10692516397], "tags": {"amenity": "police", "building": "yes"}}, {"type": "way", "id": 1149353355, "nodes": [10692516401, 10692516402, 10692516403, 10692516404, 10692516401], "tags": {"amenity": "police", "building": "yes"}}, {"type": "way", "id": 1149353356, "nodes": [10692516405, 10692516406, 10692516407, 10692516408, 10692516405], "tags": {"amenity": "police", "building": "yes"}}, {"type": "way", "id": 1149353357, "nodes": [10692516409, 10692516410, 10692516411, 10692516412, 10692516413, 10692516414, 10692516415, 10692516416, 10692516409], "tags": {"amenity": "police", "building": "yes"}}, {"type": "way", "id": 1231884734, "nodes": [4547522246, 11425460411, 11425460412, 11425460413, 4547522246], "tags": {"amenity": "community_centre"}}, {"type": "way", "id": 1236856168, "nodes": [11486245635, 11486245783, 11486244337, 11486246435, 11486246979, 8228225718, 11486245031, 11486271285, 11486244251, 11486271413, 11486245635], "tags": {"addr:street": "Mettupalayam Road", "amenity": "community_centre", "building": "yes", "name:en": "Gujarati Samaj", "source": "microsoft/BuildingFootprints"}}, {"type": "way", "id": 1237329086, "nodes": [11492257221, 11492255811, 11492257459, 11492255102, 11492257221], "tags": {"addr:city": "Peelamedu", "addr:district": "Coimbatore", "addr:housenumber": "34-35", "addr:postcode": "641004", "addr:street": "Gandhima Nagar Road,Gauthama Puri Nagar", "amenity": "police", "building": "yes", "name": "Gandhimanagar Police Station", "source": "microsoft/BuildingFootprints"}}, {"type": "way", "id": 1245891235, "nodes": [11582394571, 8509817946, 11582393179, 11582373140, 11582394571], "tags": {"addr:city": "Coimbatore", "addr:country": "IN", "addr:district": "Coimbatore", "addr:place": "panneermadai", "building": "yes", "government": "administrative", "level": "0", "name": "Pannimadai Panchayat office", "name:ta": "\u0baa\u0ba9\u0bcd\u0ba9\u0bbf\u0bae\u0b9f\u0bc8 \u0b8a\u0bb0\u0bbe\u0b9f\u0bcd\u0b9a\u0bbf \u0b85\u0bb2\u0bc1\u0bb5\u0bb2\u0b95\u0bae\u0bcd", "office": "government", "source": "microsoft/BuildingFootprints", "wheelchair": "no"}}, {"type": "way", "id": 1253358811, "nodes": [8422233217, 11649924191, 11649916268, 11649924527, 11649924401, 11649922047, 11649924084, 11649924309, 11649924522, 11649924177, 11649924074, 11649924101, 11649924245, 11649924516, 8422233217], "tags": {"addr:street": "Tiruchi Road", "building": "yes", "name:en": "Aadhaar Enrolment Center", "office": "government", "opening_hours": "Mo-Fr 10:00-17:00", "source": "microsoft/BuildingFootprints"}}, {"type": "way", "id": 1385752911, "nodes": [12830024793, 12830024794, 12830024795, 12830024796, 12830024793], "tags": {"amenity": "fire_station", "name": "Coimbatore Fire Staion"}}, {"type": "way", "id": 1429001829, "nodes": [13136307860, 13136307853, 13140981941, 8069280781, 13136307812, 13140981940, 13140981939, 13140981938, 13136307859, 13140981942, 13136307857, 13136307856, 13136307855, 13136307854, 13140981943, 13136307858, 13136307860], "tags": {"addr:housenumber": "4", "addr:street": "PSG College of Arts and Science", "amenity": "community_centre", "building": "college", "community_centre": "community_hall", "name": "Brahmam Hall"}}]}